{"type":"FeatureCollection","features":[{"type":"Feature","properties":{"nome":"BR-116;BR-290","detalhe":"via: motorway","osm_id":"way/29207876"},"geometry":{"type":"Point","coordinates":[-51.3065379,-30.0023449]}},{"type":"Feature","properties":{"nome":"BR-116;BR-290","detalhe":"via: motorway","osm_id":"way/29207879"},"geometry":{"type":"Point","coordinates":[-51.3065026,-30.0024984]}},{"type":"Feature","properties":{"nome":"BR-290","detalhe":"via: trunk","osm_id":"way/48242155"},"geometry":{"type":"Point","coordinates":[-51.3305469,-30.0429929]}},{"type":"Feature","properties":{"nome":"BR-116;BR-290","detalhe":"via: motorway","osm_id":"way/114493670"},"geometry":{"type":"Point","coordinates":[-51.3127383,-30.0057205]}},{"type":"Feature","properties":{"nome":"BR-116;BR-290","detalhe":"via: motorway","osm_id":"way/114493681"},"geometry":{"type":"Point","coordinates":[-51.3125493,-30.0058123]}},{"type":"Feature","properties":{"nome":"Travessia Oscar Ferreira de Freitas","detalhe":"via: tertiary","osm_id":"way/236845428"},"geometry":{"type":"Point","coordinates":[-51.2628737,-30.0126956]}},{"type":"Feature","properties":{"nome":"Rua Argentina","detalhe":"via: secondary","osm_id":"way/310862725"},"geometry":{"type":"Point","coordinates":[-51.3170913,-30.0042442]}},{"type":"Feature","properties":{"nome":"Rua dos Pilares","detalhe":"via: tertiary","osm_id":"way/901463740"},"geometry":{"type":"Point","coordinates":[-51.2763546,-29.9936025]}},{"type":"Feature","properties":{"nome":null,"detalhe":"via: residential","osm_id":"way/907824003"},"geometry":{"type":"Point","coordinates":[-51.3068289,-30.0101477]}},{"type":"Feature","properties":{"nome":"Avenida das Indústrias","detalhe":"via: secondary","osm_id":"way/1201840135"},"geometry":{"type":"Point","coordinates":[-51.3122931,-30.0059767]}},{"type":"Feature","properties":{"nome":"Avenida Industrial Belgraf","detalhe":"via: secondary","osm_id":"way/1201840136"},"geometry":{"type":"Point","coordinates":[-51.3130499,-30.0054998]}},{"type":"Feature","properties":{"nome":"Avenida Martinho Poeta","detalhe":"via: residential","osm_id":"way/1242079982"},"geometry":{"type":"Point","coordinates":[-51.2822226,-29.9831117]}},{"type":"Feature","properties":{"nome":null,"detalhe":"via: track","osm_id":"way/1310037662"},"geometry":{"type":"Point","coordinates":[-51.3869191,-30.0180497]}},{"type":"Feature","properties":{"nome":null,"detalhe":"via: track","osm_id":"way/1310038187"},"geometry":{"type":"Point","coordinates":[-51.3880206,-30.0293075]}},{"type":"Feature","properties":{"nome":null,"detalhe":"via: track","osm_id":"way/1310051882"},"geometry":{"type":"Point","coordinates":[-51.3599691,-30.0108399]}},{"type":"Feature","properties":{"nome":null,"detalhe":"via: track","osm_id":"way/1310051898"},"geometry":{"type":"Point","coordinates":[-51.3311892,-30.0111402]}},{"type":"Feature","properties":{"nome":null,"detalhe":"via: track","osm_id":"way/1310051900"},"geometry":{"type":"Point","coordinates":[-51.3536191,-30.018067]}},{"type":"Feature","properties":{"nome":null,"detalhe":"via: service","osm_id":"way/1310059009"},"geometry":{"type":"Point","coordinates":[-51.3104181,-30.0207654]}}]}