{"type":"FeatureCollection","features":[{"type":"Feature","properties":{"nome":"Subestação Eldorado do Sul","detalhe":"substation","osm_id":"way/114493695"},"geometry":{"type":"Point","coordinates":[-51.3186532,-30.0147676]}},{"type":"Feature","properties":{"nome":null,"detalhe":"plant","osm_id":"way/1124229997"},"geometry":{"type":"Point","coordinates":[-51.3165271,-30.0098068]}},{"type":"Feature","properties":{"nome":null,"detalhe":"plant","osm_id":"way/1124229998"},"geometry":{"type":"Point","coordinates":[-51.3165252,-30.0098788]}},{"type":"Feature","properties":{"nome":null,"detalhe":"plant","osm_id":"way/1124229999"},"geometry":{"type":"Point","coordinates":[-51.3165496,-30.0099464]}}]}