{"type":"FeatureCollection","features":[{"type":"Feature","properties":{"nome":null,"detalhe":"mast","osm_id":"node/1296868512"},"geometry":{"type":"Point","coordinates":[-51.2873178,-29.9979822]}},{"type":"Feature","properties":{"nome":null,"detalhe":"mast","osm_id":"node/1296868532"},"geometry":{"type":"Point","coordinates":[-51.2877196,-29.9994222]}},{"type":"Feature","properties":{"nome":null,"detalhe":"tower","osm_id":"node/7055139555"},"geometry":{"type":"Point","coordinates":[-51.3068667,-30.0429417]}},{"type":"Feature","properties":{"nome":null,"detalhe":"tower","osm_id":"node/7055139564"},"geometry":{"type":"Point","coordinates":[-51.3102064,-29.9984273]}},{"type":"Feature","properties":{"nome":null,"detalhe":"tower","osm_id":"node/7055144493"},"geometry":{"type":"Point","coordinates":[-51.3149424,-30.0117266]}},{"type":"Feature","properties":{"nome":null,"detalhe":"tower","osm_id":"node/7055144967"},"geometry":{"type":"Point","coordinates":[-51.3136883,-29.9952369]}},{"type":"Feature","properties":{"nome":null,"detalhe":"tower","osm_id":"node/7055150855"},"geometry":{"type":"Point","coordinates":[-51.3146236,-30.0481644]}},{"type":"Feature","properties":{"nome":null,"detalhe":"mast","osm_id":"node/12021444649"},"geometry":{"type":"Point","coordinates":[-51.3248661,-29.9916317]}},{"type":"Feature","properties":{"nome":null,"detalhe":"mast","osm_id":"node/12021555730"},"geometry":{"type":"Point","coordinates":[-51.3249037,-29.9907861]}}]}