{"type":"FeatureCollection","features":[{"type":"Feature","properties":{"nome":null,"detalhe":"water_tower","osm_id":"way/356652442"},"geometry":{"type":"Point","coordinates":[-51.3167369,-29.9957419]}},{"type":"Feature","properties":{"nome":"Corsan","detalhe":"water_works","osm_id":"way/1291927097"},"geometry":{"type":"Point","coordinates":[-51.3167196,-29.997517]}},{"type":"Feature","properties":{"nome":null,"detalhe":"water_tower","osm_id":"way/1296209827"},"geometry":{"type":"Point","coordinates":[-51.3195949,-29.9998321]}},{"type":"Feature","properties":{"nome":null,"detalhe":"storage_tank","osm_id":"way/1303366238"},"geometry":{"type":"Point","coordinates":[-51.3133375,-30.0403298]}},{"type":"Feature","properties":{"nome":"CORSAN","detalhe":"water_works","osm_id":"way/1303366239"},"geometry":{"type":"Point","coordinates":[-51.3131446,-30.0403393]}},{"type":"Feature","properties":{"nome":null,"detalhe":"storage_tank","osm_id":"way/1429518319"},"geometry":{"type":"Point","coordinates":[-51.3171798,-30.0096006]}},{"type":"Feature","properties":{"nome":null,"detalhe":"storage_tank","osm_id":"way/1429518320"},"geometry":{"type":"Point","coordinates":[-51.3172312,-30.0095838]}},{"type":"Feature","properties":{"nome":null,"detalhe":"storage_tank","osm_id":"way/1429518321"},"geometry":{"type":"Point","coordinates":[-51.317232,-30.0096222]}}]}