{"type":"FeatureCollection","features":[{"type":"Feature","properties":{"nome":"Subestação Eldorado do Sul","detalhe":"substation","osm_id":"way/114493695"},"geometry":{"type":"Point","coordinates":[-51.3186532,-30.0147676]}},{"type":"Feature","properties":{"nome":"Subestação de Charqueadas","detalhe":"substation","osm_id":"way/276433117"},"geometry":{"type":"Point","coordinates":[-51.6100636,-29.9570694]}},{"type":"Feature","properties":{"nome":"Subestação UTE Jacuí (Charqueadas)","detalhe":"substation","osm_id":"way/506144951"},"geometry":{"type":"Point","coordinates":[-51.622706,-29.951695]}},{"type":"Feature","properties":{"nome":"Subestação GKN","detalhe":"substation","osm_id":"way/529733642"},"geometry":{"type":"Point","coordinates":[-51.6073471,-29.9546116]}},{"type":"Feature","properties":{"nome":"Subestação Gerdau","detalhe":"substation","osm_id":"way/529733647"},"geometry":{"type":"Point","coordinates":[-51.6161436,-29.9513253]}},{"type":"Feature","properties":{"nome":"Subestação Guaíba 3","detalhe":"substation","osm_id":"way/969586211"},"geometry":{"type":"Point","coordinates":[-51.5288915,-30.0481579]}},{"type":"Feature","properties":{"nome":null,"detalhe":"plant","osm_id":"way/1124229997"},"geometry":{"type":"Point","coordinates":[-51.3165271,-30.0098068]}},{"type":"Feature","properties":{"nome":null,"detalhe":"plant","osm_id":"way/1124229998"},"geometry":{"type":"Point","coordinates":[-51.3165252,-30.0098788]}},{"type":"Feature","properties":{"nome":null,"detalhe":"plant","osm_id":"way/1124229999"},"geometry":{"type":"Point","coordinates":[-51.3165496,-30.0099464]}},{"type":"Feature","properties":{"nome":"Subestação Charqueadas 3","detalhe":"substation","osm_id":"way/1185389635"},"geometry":{"type":"Point","coordinates":[-51.6002287,-29.9607121]}}]}