{"type":"FeatureCollection","features":[{"type":"Feature","properties":{"nome":"Ponte do Rio Jacuí","detalhe":"via: motorway","osm_id":"way/5137075"},"geometry":{"type":"Point","coordinates":[-51.2705991,-29.9916255]}},{"type":"Feature","properties":{"nome":"Ponte do Rio Jacuí","detalhe":"via: motorway","osm_id":"way/29207737"},"geometry":{"type":"Point","coordinates":[-51.2707089,-29.9913514]}},{"type":"Feature","properties":{"nome":"BR-116;BR-290","detalhe":"via: motorway","osm_id":"way/29207876"},"geometry":{"type":"Point","coordinates":[-51.3065379,-30.0023449]}},{"type":"Feature","properties":{"nome":"BR-116;BR-290","detalhe":"via: motorway","osm_id":"way/29207879"},"geometry":{"type":"Point","coordinates":[-51.3065026,-30.0024984]}},{"type":"Feature","properties":{"nome":"BR-290","detalhe":"via: trunk","osm_id":"way/48242155"},"geometry":{"type":"Point","coordinates":[-51.3305469,-30.0429929]}},{"type":"Feature","properties":{"nome":"Ponte sobre o Arroio dos Ratos","detalhe":"via: primary","osm_id":"way/60355909"},"geometry":{"type":"Point","coordinates":[-51.5860604,-29.9493348]}},{"type":"Feature","properties":{"nome":"BR-116;BR-290","detalhe":"via: motorway","osm_id":"way/114493670"},"geometry":{"type":"Point","coordinates":[-51.3127383,-30.0057205]}},{"type":"Feature","properties":{"nome":"BR-116;BR-290","detalhe":"via: motorway","osm_id":"way/114493681"},"geometry":{"type":"Point","coordinates":[-51.3125493,-30.0058123]}},{"type":"Feature","properties":{"nome":"Rodovia General Bento Gonçalves","detalhe":"via: motorway","osm_id":"way/115436528"},"geometry":{"type":"Point","coordinates":[-51.3386696,-30.0596981]}},{"type":"Feature","properties":{"nome":"Rodovia General Bento Gonçalves","detalhe":"via: motorway","osm_id":"way/115436550"},"geometry":{"type":"Point","coordinates":[-51.3438747,-30.1065636]}},{"type":"Feature","properties":{"nome":null,"detalhe":"via: primary","osm_id":"way/193083134"},"geometry":{"type":"Point","coordinates":[-51.316007,-30.0577354]}},{"type":"Feature","properties":{"nome":"Rodovia General Bento Gonçalves","detalhe":"via: motorway","osm_id":"way/201213170"},"geometry":{"type":"Point","coordinates":[-51.3385059,-30.0597725]}},{"type":"Feature","properties":{"nome":"Rua Natal","detalhe":"via: residential","osm_id":"way/202499783"},"geometry":{"type":"Point","coordinates":[-51.3227679,-30.0936865]}},{"type":"Feature","properties":{"nome":"Travessia Oscar Ferreira de Freitas","detalhe":"via: tertiary","osm_id":"way/236845428"},"geometry":{"type":"Point","coordinates":[-51.2628737,-30.0126956]}},{"type":"Feature","properties":{"nome":"Rodovia General Bento Gonçalves","detalhe":"via: motorway","osm_id":"way/240861315"},"geometry":{"type":"Point","coordinates":[-51.3436823,-30.1065232]}},{"type":"Feature","properties":{"nome":"Rua Argentina","detalhe":"via: secondary","osm_id":"way/310862725"},"geometry":{"type":"Point","coordinates":[-51.3170913,-30.0042442]}},{"type":"Feature","properties":{"nome":null,"detalhe":"via: unclassified","osm_id":"way/331904192"},"geometry":{"type":"Point","coordinates":[-51.343308,-30.1064742]}},{"type":"Feature","properties":{"nome":"ERS-401","detalhe":"via: primary","osm_id":"way/388730676"},"geometry":{"type":"Point","coordinates":[-51.5538907,-29.9581149]}},{"type":"Feature","properties":{"nome":null,"detalhe":"via: unclassified","osm_id":"way/511191510"},"geometry":{"type":"Point","coordinates":[-51.4647536,-30.0212109]}},{"type":"Feature","properties":{"nome":null,"detalhe":"via: unclassified","osm_id":"way/511191511"},"geometry":{"type":"Point","coordinates":[-51.4644818,-30.0216572]}},{"type":"Feature","properties":{"nome":"Rua Santa Maria","detalhe":"via: tertiary","osm_id":"way/511191518"},"geometry":{"type":"Point","coordinates":[-51.3883864,-30.0983066]}},{"type":"Feature","properties":{"nome":"Avenida Senador Salgado Filho","detalhe":"via: secondary","osm_id":"way/563146203"},"geometry":{"type":"Point","coordinates":[-51.6441765,-29.9861777]}},{"type":"Feature","properties":{"nome":"Rua das Hortênsias","detalhe":"via: residential","osm_id":"way/569750445"},"geometry":{"type":"Point","coordinates":[-51.638527,-30.089226]}},{"type":"Feature","properties":{"nome":"Avenida das Acácias Norte","detalhe":"via: residential","osm_id":"way/569750450"},"geometry":{"type":"Point","coordinates":[-51.6368333,-30.0865041]}},{"type":"Feature","properties":{"nome":"Rodovia General Bento Gonçalves","detalhe":"via: motorway","osm_id":"way/629516396"},"geometry":{"type":"Point","coordinates":[-51.3422412,-30.0873361]}},{"type":"Feature","properties":{"nome":"Rodovia General Bento Gonçalves","detalhe":"via: motorway","osm_id":"way/629516398"},"geometry":{"type":"Point","coordinates":[-51.3420509,-30.0873479]}},{"type":"Feature","properties":{"nome":null,"detalhe":"via: unclassified","osm_id":"way/795816445"},"geometry":{"type":"Point","coordinates":[-51.3615102,-30.0875335]}},{"type":"Feature","properties":{"nome":null,"detalhe":"via: unclassified","osm_id":"way/795816448"},"geometry":{"type":"Point","coordinates":[-51.3563563,-30.0818259]}},{"type":"Feature","properties":{"nome":null,"detalhe":"via: cycleway","osm_id":"way/795816450"},"geometry":{"type":"Point","coordinates":[-51.3432392,-30.1064734]}},{"type":"Feature","properties":{"nome":null,"detalhe":"via: unclassified","osm_id":"way/795816452"},"geometry":{"type":"Point","coordinates":[-51.3560663,-30.1028447]}},{"type":"Feature","properties":{"nome":null,"detalhe":"via: unclassified","osm_id":"way/795816455"},"geometry":{"type":"Point","coordinates":[-51.3559534,-30.0795477]}},{"type":"Feature","properties":{"nome":null,"detalhe":"via: primary","osm_id":"way/804458786"},"geometry":{"type":"Point","coordinates":[-51.518496,-30.0596549]}},{"type":"Feature","properties":{"nome":"Rua dos Pilares","detalhe":"via: tertiary","osm_id":"way/901463740"},"geometry":{"type":"Point","coordinates":[-51.2763546,-29.9936025]}},{"type":"Feature","properties":{"nome":null,"detalhe":"via: residential","osm_id":"way/907824003"},"geometry":{"type":"Point","coordinates":[-51.3068289,-30.0101477]}},{"type":"Feature","properties":{"nome":"Estrada da Ergo","detalhe":"via: unclassified","osm_id":"way/928757925"},"geometry":{"type":"Point","coordinates":[-51.553804,-30.1098837]}},{"type":"Feature","properties":{"nome":"EM-9","detalhe":"via: unclassified","osm_id":"way/960068371"},"geometry":{"type":"Point","coordinates":[-51.6166905,-30.0732861]}},{"type":"Feature","properties":{"nome":"Avenida das Indústrias","detalhe":"via: secondary","osm_id":"way/1201840135"},"geometry":{"type":"Point","coordinates":[-51.3122931,-30.0059767]}},{"type":"Feature","properties":{"nome":"Avenida Industrial Belgraf","detalhe":"via: secondary","osm_id":"way/1201840136"},"geometry":{"type":"Point","coordinates":[-51.3130499,-30.0054998]}},{"type":"Feature","properties":{"nome":"Avenida Martinho Poeta","detalhe":"via: residential","osm_id":"way/1242079982"},"geometry":{"type":"Point","coordinates":[-51.2822226,-29.9831117]}},{"type":"Feature","properties":{"nome":"Avenida Comendador Ismael Chaves Barcellos","detalhe":"via: primary","osm_id":"way/1292755074"},"geometry":{"type":"Point","coordinates":[-51.3199208,-30.0941381]}},{"type":"Feature","properties":{"nome":null,"detalhe":"via: track","osm_id":"way/1310037662"},"geometry":{"type":"Point","coordinates":[-51.3869191,-30.0180497]}},{"type":"Feature","properties":{"nome":null,"detalhe":"via: track","osm_id":"way/1310038187"},"geometry":{"type":"Point","coordinates":[-51.3880206,-30.0293075]}},{"type":"Feature","properties":{"nome":null,"detalhe":"via: track","osm_id":"way/1310051882"},"geometry":{"type":"Point","coordinates":[-51.3599691,-30.0108399]}},{"type":"Feature","properties":{"nome":null,"detalhe":"via: track","osm_id":"way/1310051898"},"geometry":{"type":"Point","coordinates":[-51.3311892,-30.0111402]}},{"type":"Feature","properties":{"nome":null,"detalhe":"via: track","osm_id":"way/1310051900"},"geometry":{"type":"Point","coordinates":[-51.3536191,-30.018067]}},{"type":"Feature","properties":{"nome":null,"detalhe":"via: service","osm_id":"way/1310059009"},"geometry":{"type":"Point","coordinates":[-51.3104181,-30.0207654]}},{"type":"Feature","properties":{"nome":null,"detalhe":"via: residential","osm_id":"way/1499792023"},"geometry":{"type":"Point","coordinates":[-51.3309762,-30.1090928]}}]}