{"type":"FeatureCollection","features":[{"type":"Feature","properties":{"nome":null,"detalhe":"mast","osm_id":"node/1296868512"},"geometry":{"type":"Point","coordinates":[-51.2873178,-29.9979822]}},{"type":"Feature","properties":{"nome":null,"detalhe":"mast","osm_id":"node/1296868532"},"geometry":{"type":"Point","coordinates":[-51.2877196,-29.9994222]}},{"type":"Feature","properties":{"nome":null,"detalhe":"tower","osm_id":"node/2041789803"},"geometry":{"type":"Point","coordinates":[-51.517175,-30.0613247]}},{"type":"Feature","properties":{"nome":null,"detalhe":"tower","osm_id":"node/2118767033"},"geometry":{"type":"Point","coordinates":[-51.2984553,-29.9575201]}},{"type":"Feature","properties":{"nome":null,"detalhe":"tower","osm_id":"node/2118767394"},"geometry":{"type":"Point","coordinates":[-51.2959003,-29.9594101]}},{"type":"Feature","properties":{"nome":"RBS","detalhe":"tower","osm_id":"node/2131268318"},"geometry":{"type":"Point","coordinates":[-51.3088283,-30.0927859]}},{"type":"Feature","properties":{"nome":null,"detalhe":"tower","osm_id":"node/4917549284"},"geometry":{"type":"Point","coordinates":[-51.5152044,-30.0597941]}},{"type":"Feature","properties":{"nome":null,"detalhe":"tower","osm_id":"node/7055088951"},"geometry":{"type":"Point","coordinates":[-51.6363462,-29.9814259]}},{"type":"Feature","properties":{"nome":null,"detalhe":"tower","osm_id":"node/7055091672"},"geometry":{"type":"Point","coordinates":[-51.6290441,-29.9666676]}},{"type":"Feature","properties":{"nome":null,"detalhe":"tower","osm_id":"node/7055097679"},"geometry":{"type":"Point","coordinates":[-51.5981389,-29.9539103]}},{"type":"Feature","properties":{"nome":null,"detalhe":"tower","osm_id":"node/7055112725"},"geometry":{"type":"Point","coordinates":[-51.6344124,-29.9568439]}},{"type":"Feature","properties":{"nome":null,"detalhe":"tower","osm_id":"node/7055113959"},"geometry":{"type":"Point","coordinates":[-51.6248584,-29.9568778]}},{"type":"Feature","properties":{"nome":null,"detalhe":"tower","osm_id":"node/7055120828"},"geometry":{"type":"Point","coordinates":[-51.6266509,-29.9581396]}},{"type":"Feature","properties":{"nome":null,"detalhe":"tower","osm_id":"node/7055139555"},"geometry":{"type":"Point","coordinates":[-51.3068667,-30.0429417]}},{"type":"Feature","properties":{"nome":null,"detalhe":"tower","osm_id":"node/7055139564"},"geometry":{"type":"Point","coordinates":[-51.3102064,-29.9984273]}},{"type":"Feature","properties":{"nome":null,"detalhe":"tower","osm_id":"node/7055142596"},"geometry":{"type":"Point","coordinates":[-51.3265931,-30.110676]}},{"type":"Feature","properties":{"nome":null,"detalhe":"tower","osm_id":"node/7055144050"},"geometry":{"type":"Point","coordinates":[-51.3601063,-30.1151435]}},{"type":"Feature","properties":{"nome":null,"detalhe":"tower","osm_id":"node/7055144492"},"geometry":{"type":"Point","coordinates":[-51.3244586,-30.0881292]}},{"type":"Feature","properties":{"nome":null,"detalhe":"tower","osm_id":"node/7055144493"},"geometry":{"type":"Point","coordinates":[-51.3149424,-30.0117266]}},{"type":"Feature","properties":{"nome":null,"detalhe":"tower","osm_id":"node/7055144738"},"geometry":{"type":"Point","coordinates":[-51.3260151,-30.089574]}},{"type":"Feature","properties":{"nome":null,"detalhe":"tower","osm_id":"node/7055144967"},"geometry":{"type":"Point","coordinates":[-51.3136883,-29.9952369]}},{"type":"Feature","properties":{"nome":null,"detalhe":"tower","osm_id":"node/7055150855"},"geometry":{"type":"Point","coordinates":[-51.3146236,-30.0481644]}},{"type":"Feature","properties":{"nome":null,"detalhe":"tower","osm_id":"node/7468003405"},"geometry":{"type":"Point","coordinates":[-51.2638996,-30.1091923]}},{"type":"Feature","properties":{"nome":null,"detalhe":"tower","osm_id":"node/10092245797"},"geometry":{"type":"Point","coordinates":[-51.5333945,-30.06239]}},{"type":"Feature","properties":{"nome":null,"detalhe":"tower","osm_id":"node/10265120132"},"geometry":{"type":"Point","coordinates":[-51.6171326,-29.9672691]}},{"type":"Feature","properties":{"nome":null,"detalhe":"mast","osm_id":"node/12021444649"},"geometry":{"type":"Point","coordinates":[-51.3248661,-29.9916317]}},{"type":"Feature","properties":{"nome":null,"detalhe":"mast","osm_id":"node/12021555730"},"geometry":{"type":"Point","coordinates":[-51.3249037,-29.9907861]}}]}