{"type": "FeatureCollection", "features": [{"id": "0", "type": "Feature", "properties": {"cultura": "Soja", "area_ha": 0.2}, "geometry": {"type": "Polygon", "coordinates": [[[-52.189512893020265, -32.16687369375182], [-52.18870440926456, -32.166604199166585], [-52.1890447569753, -32.16718578444846], [-52.189512893020265, -32.16687369375182]]]}}, {"id": "1", "type": "Feature", "properties": {"cultura": "Soja", "area_ha": 0.27}, "geometry": {"type": "Polygon", "coordinates": [[[-52.21322841652102, -32.05153001127087], [-52.21403690027673, -32.05179950585611], [-52.214306394861964, -32.05126051668564], [-52.21322841652102, -32.05153001127087]]]}}, {"id": "2", "type": "Feature", "properties": {"cultura": "Soja", "area_ha": 0.04}, "geometry": {"type": "Polygon", "coordinates": [[[-52.21322841652102, -32.05126051668564], [-52.21322841652102, -32.0509910221004], [-52.21295892193579, -32.0509910221004], [-52.21322841652102, -32.05126051668564]]]}}, {"id": "3", "type": "Feature", "properties": {"cultura": "Soja", "area_ha": 0.04}, "geometry": {"type": "Polygon", "coordinates": [[[-52.21295892193579, -32.0509910221004], [-52.212689427350554, -32.050721527515165], [-52.212689427350554, -32.0509910221004], [-52.21295892193579, -32.0509910221004]]]}}, {"id": "4", "type": "Feature", "properties": {"cultura": "Soja", "area_ha": 0.04}, "geometry": {"type": "Polygon", "coordinates": [[[-52.21295892193579, -32.050721527515165], [-52.21322841652102, -32.050721527515165], [-52.21322841652102, -32.05045203292993], [-52.21295892193579, -32.050721527515165]]]}}, {"id": "5", "type": "Feature", "properties": {"cultura": "Soja", "area_ha": 1.67}, "geometry": {"type": "Polygon", "coordinates": [[[-52.22562516744187, -32.04290618454333], [-52.22427769451569, -32.04317567912856], [-52.22454718910093, -32.044523152054744], [-52.22589466202711, -32.04371466829903], [-52.22562516744187, -32.04290618454333]]]}}, {"id": "6", "type": "Feature", "properties": {"cultura": "Soja", "area_ha": 3.35}, "geometry": {"type": "Polygon", "coordinates": [[[-52.20595206271965, -32.042097700787615], [-52.20756903023107, -32.04101972244668], [-52.20595206271965, -32.03994174410573], [-52.204604589793476, -32.04075022786144], [-52.20595206271965, -32.042097700787615]]]}}, {"id": "7", "type": "Feature", "properties": {"cultura": "Soja", "area_ha": 0.04}, "geometry": {"type": "Polygon", "coordinates": [[[-52.20622155730489, -32.040211238690965], [-52.206491051890126, -32.040211238690965], [-52.206491051890126, -32.03994174410573], [-52.20622155730489, -32.040211238690965]]]}}, {"id": "8", "type": "Feature", "properties": {"cultura": "Soja", "area_ha": 0.04}, "geometry": {"type": "Polygon", "coordinates": [[[-52.20622155730489, -32.03967224952049], [-52.20595206271965, -32.03967224952049], [-52.20595206271965, -32.03994174410573], [-52.20622155730489, -32.03967224952049]]]}}, {"id": "9", "type": "Feature", "properties": {"cultura": "Outras Lavouras Temporárias", "area_ha": 0.08}, "geometry": {"type": "Polygon", "coordinates": [[[-52.1288766113422, -32.16094481287663], [-52.1288766113422, -32.16121430746187], [-52.12941560051267, -32.16121430746187], [-52.1288766113422, -32.16094481287663]]]}}, {"id": "10", "type": "Feature", "properties": {"cultura": "Outras Lavouras Temporárias", "area_ha": 0.08}, "geometry": {"type": "Polygon", "coordinates": [[[-52.12941560051267, -32.16094481287663], [-52.129954589683145, -32.16094481287663], [-52.129954589683145, -32.160675318291396], [-52.12941560051267, -32.16094481287663]]]}}, {"id": "11", "type": "Feature", "properties": {"cultura": "Outras Lavouras Temporárias", "area_ha": 0.0}, "geometry": {"type": "Polygon", "coordinates": [[[-52.17437115143316, -32.14911832913494], [-52.17440266408687, -32.14912411544663], [-52.17442119624706, -32.14908705112625], [-52.17437115143316, -32.14911832913494]]]}}, {"id": "12", "type": "Feature", "properties": {"cultura": "Outras Lavouras Temporárias", "area_ha": 0.04}, "geometry": {"type": "Polygon", "coordinates": [[[-52.16525838034904, -32.13884625688729], [-52.16552787493428, -32.13884625688729], [-52.16552787493428, -32.13857676230205], [-52.16525838034904, -32.13884625688729]]]}}, {"id": "13", "type": "Feature", "properties": {"cultura": "Outras Lavouras Temporárias", "area_ha": 0.04}, "geometry": {"type": "Polygon", "coordinates": [[[-52.16525838034904, -32.13830726771682], [-52.164988885763805, -32.13830726771682], [-52.164988885763805, -32.13857676230205], [-52.16525838034904, -32.13830726771682]]]}}, {"id": "14", "type": "Feature", "properties": {"cultura": "Outras Lavouras Temporárias", "area_ha": 2.13}, "geometry": {"type": "Polygon", "coordinates": [[[-52.16229393991144, -32.13884625688729], [-52.16364141283763, -32.139115751472524], [-52.164988885763805, -32.138037773131586], [-52.16391090742286, -32.137498783961114], [-52.16229393991144, -32.13884625688729]], [[-52.16391090742286, -32.138037773131586], [-52.1641804020081, -32.138037773131586], [-52.1641804020081, -32.13830726771682], [-52.16391090742286, -32.138037773131586]]]}}, {"id": "15", "type": "Feature", "properties": {"cultura": "Outras Lavouras Temporárias", "area_ha": 0.23}, "geometry": {"type": "Polygon", "coordinates": [[[-52.253922098891636, -32.05961484882795], [-52.254191593476875, -32.059075859657476], [-52.25311361513593, -32.05961484882795], [-52.253922098891636, -32.05961484882795]]]}}, {"id": "16", "type": "Feature", "properties": {"cultura": "Outras Lavouras Temporárias", "area_ha": 0.23}, "geometry": {"type": "Polygon", "coordinates": [[[-52.206760546475365, -32.052877484197055], [-52.206760546475365, -32.052607989611815], [-52.20514357896395, -32.05233849502658], [-52.206760546475365, -32.052877484197055]]]}}, {"id": "17", "type": "Feature", "properties": {"cultura": "Outras Lavouras Temporárias", "area_ha": 0.04}, "geometry": {"type": "Polygon", "coordinates": [[[-52.206760546475365, -32.05206900044134], [-52.206760546475365, -32.05233849502658], [-52.2070300410606, -32.05233849502658], [-52.206760546475365, -32.05206900044134]]]}}, {"id": "18", "type": "Feature", "properties": {"cultura": "Outras Lavouras Temporárias", "area_ha": 0.04}, "geometry": {"type": "Polygon", "coordinates": [[[-52.2070300410606, -32.05206900044134], [-52.20729953564583, -32.05206900044134], [-52.20729953564583, -32.05179950585611], [-52.2070300410606, -32.05206900044134]]]}}, {"id": "19", "type": "Feature", "properties": {"cultura": "Outras Lavouras Temporárias", "area_ha": 0.04}, "geometry": {"type": "Polygon", "coordinates": [[[-52.20756903023107, -32.05153001127087], [-52.20729953564583, -32.05153001127087], [-52.20729953564583, -32.05179950585611], [-52.20756903023107, -32.05153001127087]]]}}, {"id": "20", "type": "Feature", "properties": {"cultura": "Outras Lavouras Temporárias", "area_ha": 0.27}, "geometry": {"type": "Polygon", "coordinates": [[[-52.20622155730489, -32.05126051668564], [-52.20729953564583, -32.05153001127087], [-52.2070300410606, -32.0509910221004], [-52.20622155730489, -32.05126051668564]]]}}, {"id": "21", "type": "Feature", "properties": {"cultura": "Outras Lavouras Temporárias", "area_ha": 0.08}, "geometry": {"type": "Polygon", "coordinates": [[[-52.20568256813442, -32.05126051668564], [-52.20568256813442, -32.05153001127087], [-52.20622155730489, -32.05153001127087], [-52.20568256813442, -32.05126051668564]]]}}, {"id": "22", "type": "Feature", "properties": {"cultura": "Outras Lavouras Temporárias", "area_ha": 0.04}, "geometry": {"type": "Polygon", "coordinates": [[[-52.20541307354918, -32.05126051668564], [-52.20568256813442, -32.05126051668564], [-52.20568256813442, -32.0509910221004], [-52.20541307354918, -32.05126051668564]]]}}, {"id": "23", "type": "Feature", "properties": {"cultura": "Outras Lavouras Temporárias", "area_ha": 0.95}, "geometry": {"type": "Polygon", "coordinates": [[[-52.20541307354918, -32.0509910221004], [-52.202179138526354, -32.04964354917422], [-52.204065600623004, -32.0509910221004], [-52.20541307354918, -32.0509910221004]]]}}, {"id": "24", "type": "Feature", "properties": {"cultura": "Outras Lavouras Temporárias", "area_ha": 0.04}, "geometry": {"type": "Polygon", "coordinates": [[[-52.20164014935588, -32.04991304375946], [-52.201909643941114, -32.04991304375946], [-52.201909643941114, -32.04964354917422], [-52.20164014935588, -32.04991304375946]]]}}, {"id": "25", "type": "Feature", "properties": {"cultura": "Outras Lavouras Temporárias", "area_ha": 0.04}, "geometry": {"type": "Polygon", "coordinates": [[[-52.201909643941114, -32.04937405458899], [-52.201909643941114, -32.04964354917422], [-52.202179138526354, -32.04964354917422], [-52.201909643941114, -32.04937405458899]]]}}, {"id": "26", "type": "Feature", "properties": {"cultura": "Outras Lavouras Temporárias", "area_ha": 0.08}, "geometry": {"type": "Polygon", "coordinates": [[[-52.20999448149819, -32.04910456000375], [-52.20999448149819, -32.04937405458899], [-52.210533470668665, -32.04937405458899], [-52.20999448149819, -32.04910456000375]]]}}, {"id": "27", "type": "Feature", "properties": {"cultura": "Outras Lavouras Temporárias", "area_ha": 0.08}, "geometry": {"type": "Polygon", "coordinates": [[[-52.20945549232772, -32.04910456000375], [-52.20999448149819, -32.04910456000375], [-52.20999448149819, -32.048835065418515], [-52.20945549232772, -32.04910456000375]]]}}, {"id": "28", "type": "Feature", "properties": {"cultura": "Outras Lavouras Temporárias", "area_ha": 0.68}, "geometry": {"type": "Polygon", "coordinates": [[[-52.20729953564583, -32.04937405458899], [-52.20568256813442, -32.04775708707757], [-52.20595206271965, -32.048835065418515], [-52.20729953564583, -32.04937405458899]]]}}, {"id": "29", "type": "Feature", "properties": {"cultura": "Outras Lavouras Temporárias", "area_ha": 0.11}, "geometry": {"type": "Polygon", "coordinates": [[[-52.20945549232772, -32.048835065418515], [-52.208647008572015, -32.048565570833276], [-52.208647008572015, -32.048835065418515], [-52.20945549232772, -32.048835065418515]]]}}, {"id": "30", "type": "Feature", "properties": {"cultura": "Outras Lavouras Temporárias", "area_ha": 0.38}, "geometry": {"type": "Polygon", "coordinates": [[[-52.204065600623004, -32.048835065418515], [-52.20514357896395, -32.04829607624804], [-52.204335095208236, -32.0480265816628], [-52.204065600623004, -32.048835065418515]]]}}, {"id": "31", "type": "Feature", "properties": {"cultura": "Outras Lavouras Temporárias", "area_ha": 0.04}, "geometry": {"type": "Polygon", "coordinates": [[[-52.20756903023107, -32.04829607624804], [-52.20756903023107, -32.048565570833276], [-52.2078385248163, -32.048565570833276], [-52.20756903023107, -32.04829607624804]]]}}, {"id": "32", "type": "Feature", "properties": {"cultura": "Outras Lavouras Temporárias", "area_ha": 0.53}, "geometry": {"type": "Polygon", "coordinates": [[[-52.202718127696826, -32.0480265816628], [-52.20379610603777, -32.048565570833276], [-52.204065600623004, -32.04775708707757], [-52.202718127696826, -32.0480265816628]]]}}, {"id": "33", "type": "Feature", "properties": {"cultura": "Outras Lavouras Temporárias", "area_ha": 0.3}, "geometry": {"type": "Polygon", "coordinates": [[[-52.2078385248163, -32.04829607624804], [-52.20891650315725, -32.04829607624804], [-52.208647008572015, -32.04775708707757], [-52.2078385248163, -32.04829607624804]]]}}, {"id": "34", "type": "Feature", "properties": {"cultura": "Outras Lavouras Temporárias", "area_ha": 0.04}, "geometry": {"type": "Polygon", "coordinates": [[[-52.20244863311159, -32.04775708707757], [-52.20244863311159, -32.0480265816628], [-52.202718127696826, -32.0480265816628], [-52.20244863311159, -32.04775708707757]]]}}, {"id": "35", "type": "Feature", "properties": {"cultura": "Outras Lavouras Temporárias", "area_ha": 0.08}, "geometry": {"type": "Polygon", "coordinates": [[[-52.204604589793476, -32.04775708707757], [-52.204604589793476, -32.0480265816628], [-52.20514357896395, -32.0480265816628], [-52.204604589793476, -32.04775708707757]]]}}, {"id": "36", "type": "Feature", "properties": {"cultura": "Outras Lavouras Temporárias", "area_ha": 0.08}, "geometry": {"type": "Polygon", "coordinates": [[[-52.20298762228206, -32.04775708707757], [-52.20352661145253, -32.04775708707757], [-52.20352661145253, -32.04748759249234], [-52.20298762228206, -32.04775708707757]]]}}, {"id": "37", "type": "Feature", "properties": {"cultura": "Outras Lavouras Temporárias", "area_ha": 0.04}, "geometry": {"type": "Polygon", "coordinates": [[[-52.20568256813442, -32.04748759249234], [-52.20595206271965, -32.04748759249234], [-52.20595206271965, -32.0472180979071], [-52.20568256813442, -32.04748759249234]]]}}, {"id": "38", "type": "Feature", "properties": {"cultura": "Outras Lavouras Temporárias", "area_ha": 0.04}, "geometry": {"type": "Polygon", "coordinates": [[[-52.20541307354918, -32.046948603321866], [-52.20541307354918, -32.0472180979071], [-52.20568256813442, -32.0472180979071], [-52.20541307354918, -32.046948603321866]]]}}, {"id": "39", "type": "Feature", "properties": {"cultura": "Outras Lavouras Temporárias", "area_ha": 1.33}, "geometry": {"type": "Polygon", "coordinates": [[[-52.20622155730489, -32.0472180979071], [-52.206491051890126, -32.04640961415139], [-52.20379610603777, -32.04506214122521], [-52.20622155730489, -32.0472180979071]]]}}, {"id": "40", "type": "Feature", "properties": {"cultura": "Outras Lavouras Temporárias", "area_ha": 0.15}, "geometry": {"type": "Polygon", "coordinates": [[[-52.20298762228206, -32.04560113039568], [-52.20298762228206, -32.04587062498092], [-52.204065600623004, -32.046140119566154], [-52.20298762228206, -32.04560113039568]]]}}, {"id": "41", "type": "Feature", "properties": {"cultura": "Outras Lavouras Temporárias", "area_ha": 0.15}, "geometry": {"type": "Polygon", "coordinates": [[[-52.21188094359484, -32.04560113039568], [-52.21161144900961, -32.04506214122521], [-52.21107245983914, -32.04506214122521], [-52.21188094359484, -32.04560113039568]]]}}, {"id": "42", "type": "Feature", "properties": {"cultura": "Outras Lavouras Temporárias", "area_ha": 0.04}, "geometry": {"type": "Polygon", "coordinates": [[[-52.216192856958614, -32.04560113039568], [-52.21646235154385, -32.04560113039568], [-52.21646235154385, -32.04533163581045], [-52.216192856958614, -32.04560113039568]]]}}, {"id": "43", "type": "Feature", "properties": {"cultura": "Outras Lavouras Temporárias", "area_ha": 1.37}, "geometry": {"type": "Polygon", "coordinates": [[[-52.21107245983914, -32.046140119566154], [-52.20891650315725, -32.044523152054744], [-52.20945549232772, -32.046140119566154], [-52.21107245983914, -32.046140119566154]]]}}, {"id": "44", "type": "Feature", "properties": {"cultura": "Outras Lavouras Temporárias", "area_ha": 0.53}, "geometry": {"type": "Polygon", "coordinates": [[[-52.20568256813442, -32.044792646639976], [-52.20729953564583, -32.04533163581045], [-52.206760546475365, -32.044523152054744], [-52.20568256813442, -32.044792646639976]]]}}, {"id": "45", "type": "Feature", "properties": {"cultura": "Outras Lavouras Temporárias", "area_ha": 1.18}, "geometry": {"type": "Polygon", "coordinates": [[[-52.22346921075999, -32.04587062498092], [-52.22373870534522, -32.04398416288427], [-52.222660727004275, -32.044523152054744], [-52.22319971617475, -32.04506214122521], [-52.222660727004275, -32.04587062498092], [-52.22346921075999, -32.04587062498092]]]}}, {"id": "46", "type": "Feature", "properties": {"cultura": "Outras Lavouras Temporárias", "area_ha": 0.04}, "geometry": {"type": "Polygon", "coordinates": [[[-52.21161144900961, -32.04506214122521], [-52.21188094359484, -32.04506214122521], [-52.21188094359484, -32.044792646639976], [-52.21161144900961, -32.04506214122521]]]}}, {"id": "47", "type": "Feature", "properties": {"cultura": "Outras Lavouras Temporárias", "area_ha": 0.08}, "geometry": {"type": "Polygon", "coordinates": [[[-52.208377513986775, -32.044523152054744], [-52.20891650315725, -32.044523152054744], [-52.20891650315725, -32.044253657469504], [-52.208377513986775, -32.044523152054744]]]}}, {"id": "48", "type": "Feature", "properties": {"cultura": "Outras Lavouras Temporárias", "area_ha": 1.06}, "geometry": {"type": "Polygon", "coordinates": [[[-52.21646235154385, -32.04533163581045], [-52.21727083529956, -32.04182820620238], [-52.216192856958614, -32.04398416288427], [-52.21646235154385, -32.04533163581045]]]}}, {"id": "49", "type": "Feature", "properties": {"cultura": "Outras Lavouras Temporárias", "area_ha": 0.8}, "geometry": {"type": "Polygon", "coordinates": [[[-52.22643365119758, -32.042097700787615], [-52.22589466202711, -32.04398416288427], [-52.226703145782814, -32.04398416288427], [-52.22643365119758, -32.042097700787615]]]}}, {"id": "50", "type": "Feature", "properties": {"cultura": "Outras Lavouras Temporárias", "area_ha": 0.04}, "geometry": {"type": "Polygon", "coordinates": [[[-52.22562516744187, -32.04290618454333], [-52.22562516744187, -32.04317567912856], [-52.22589466202711, -32.04317567912856], [-52.22562516744187, -32.04290618454333]]]}}, {"id": "51", "type": "Feature", "properties": {"cultura": "Outras Lavouras Temporárias", "area_ha": 4.11}, "geometry": {"type": "Polygon", "coordinates": [[[-52.22023527573715, -32.044523152054744], [-52.22185224324857, -32.04398416288427], [-52.221043759492865, -32.04263668995809], [-52.222660727004275, -32.04155871161715], [-52.222660727004275, -32.04075022786144], [-52.221043759492865, -32.04101972244668], [-52.22023527573715, -32.044523152054744]]]}}, {"id": "52", "type": "Feature", "properties": {"cultura": "Outras Lavouras Temporárias", "area_ha": 0.23}, "geometry": {"type": "Polygon", "coordinates": [[[-52.22427769451569, -32.042097700787615], [-52.22373870534522, -32.04182820620238], [-52.22373870534522, -32.04263668995809], [-52.22427769451569, -32.042097700787615]]]}}, {"id": "53", "type": "Feature", "properties": {"cultura": "Outras Lavouras Temporárias", "area_ha": 1.41}, "geometry": {"type": "Polygon", "coordinates": [[[-52.224816683686164, -32.04128921703191], [-52.22454718910093, -32.042367195372854], [-52.22562516744187, -32.04263668995809], [-52.22589466202711, -32.04128921703191], [-52.224816683686164, -32.04128921703191]]]}}, {"id": "54", "type": "Feature", "properties": {"cultura": "Outras Lavouras Temporárias", "area_ha": 0.23}, "geometry": {"type": "Polygon", "coordinates": [[[-52.22454718910093, -32.04128921703191], [-52.22400819993046, -32.04101972244668], [-52.22400819993046, -32.04182820620238], [-52.22454718910093, -32.04128921703191]]]}}, {"id": "55", "type": "Feature", "properties": {"cultura": "Outras Lavouras Temporárias", "area_ha": 0.34}, "geometry": {"type": "Polygon", "coordinates": [[[-52.21727083529956, -32.04101972244668], [-52.21807931905527, -32.04101972244668], [-52.21807931905527, -32.040211238690965], [-52.21727083529956, -32.04101972244668]]]}}, {"id": "56", "type": "Feature", "properties": {"cultura": "Outras Lavouras Temporárias", "area_ha": 0.04}, "geometry": {"type": "Polygon", "coordinates": [[[-52.222660727004275, -32.040480733276205], [-52.222660727004275, -32.04075022786144], [-52.222930221589515, -32.04075022786144], [-52.222660727004275, -32.040480733276205]]]}}, {"id": "57", "type": "Feature", "properties": {"cultura": "Outras Lavouras Temporárias", "area_ha": 0.23}, "geometry": {"type": "Polygon", "coordinates": [[[-52.22239123241904, -32.04075022786144], [-52.22239123241904, -32.03994174410573], [-52.22185224324857, -32.04101972244668], [-52.22239123241904, -32.04075022786144]]]}}, {"id": "58", "type": "Feature", "properties": {"cultura": "Outras Lavouras Temporárias", "area_ha": 1.03}, "geometry": {"type": "Polygon", "coordinates": [[[-52.2175403298848, -32.03805528200908], [-52.216731846129086, -32.040480733276205], [-52.21780982447003, -32.03967224952049], [-52.2175403298848, -32.03805528200908]]]}}, {"id": "59", "type": "Feature", "properties": {"cultura": "Outras Lavouras Temporárias", "area_ha": 0.08}, "geometry": {"type": "Polygon", "coordinates": [[[-52.20622155730489, -32.03940275493526], [-52.206760546475365, -32.03940275493526], [-52.206760546475365, -32.03913326035002], [-52.20622155730489, -32.03940275493526]]]}}, {"id": "60", "type": "Feature", "properties": {"cultura": "Outras Lavouras Temporárias", "area_ha": 0.23}, "geometry": {"type": "Polygon", "coordinates": [[[-52.2070300410606, -32.03940275493526], [-52.2078385248163, -32.03940275493526], [-52.2078385248163, -32.03886376576479], [-52.2070300410606, -32.03940275493526]]]}}, {"id": "61", "type": "Feature", "properties": {"cultura": "Arroz", "area_ha": 0.15}, "geometry": {"type": "Polygon", "coordinates": [[[-52.15097516733154, -32.13076141933021], [-52.153555085290755, -32.1306258902804], [-52.15388717229269, -32.13049590825694], [-52.15097516733154, -32.13076141933021]]]}}, {"id": "61", "type": "Feature", "properties": {"cultura": "Arroz", "area_ha": 10.96}, "geometry": {"type": "Polygon", "coordinates": [[[-52.15340061859866, -32.13183939767116], [-52.15509963402633, -32.13520608075214], [-52.15582606986579, -32.13399535435305], [-52.15690404820673, -32.13426484893828], [-52.15690404820673, -32.1329173760121], [-52.15528708069532, -32.1329173760121], [-52.15690404820673, -32.13264788142686], [-52.15690404820673, -32.131300408500685], [-52.15442357921189, -32.13063895010206], [-52.15206596867489, -32.131246219927256], [-52.15340061859866, -32.13183939767116]], [[-52.15528708069532, -32.131569903085925], [-52.15501758611008, -32.13237838684163], [-52.15393960776913, -32.13183939767116], [-52.15528708069532, -32.131569903085925]]]}}, {"id": "62", "type": "Feature", "properties": {"cultura": "Arroz", "area_ha": 0.23}, "geometry": {"type": "Polygon", "coordinates": [[[-52.15097516733154, -32.13022243015974], [-52.15178365108725, -32.13022243015974], [-52.15178365108725, -32.12968344098927], [-52.15097516733154, -32.13022243015974]]]}}, {"id": "63", "type": "Feature", "properties": {"cultura": "Arroz", "area_ha": 0.46}, "geometry": {"type": "Polygon", "coordinates": [[[-52.15340061859866, -32.12833596806309], [-52.152592134842955, -32.129413946404036], [-52.15340061859866, -32.129413946404036], [-52.15340061859866, -32.12833596806309]]]}}, {"id": "64", "type": "Feature", "properties": {"cultura": "Arroz", "area_ha": 7.06}, "geometry": {"type": "Polygon", "coordinates": [[[-52.14720224313824, -32.129144451818796], [-52.15097516733154, -32.13049192474498], [-52.14935819982013, -32.12968344098927], [-52.14935819982013, -32.12806647347786], [-52.15151415650201, -32.12779697889262], [-52.15151415650201, -32.127257989722146], [-52.14935819982013, -32.127527484307386], [-52.148819210649656, -32.126719000551674], [-52.14720224313824, -32.127257989722146], [-52.14720224313824, -32.129144451818796]]]}}, {"id": "65", "type": "Feature", "properties": {"cultura": "Arroz", "area_ha": 0.99}, "geometry": {"type": "Polygon", "coordinates": [[[-52.15286162942819, -32.12860546264833], [-52.15205314567248, -32.12779697889262], [-52.15151415650201, -32.12833596806309], [-52.15178365108725, -32.129144451818796], [-52.15286162942819, -32.12860546264833]]]}}, {"id": "66", "type": "Feature", "properties": {"cultura": "Arroz", "area_ha": 0.15}, "geometry": {"type": "Polygon", "coordinates": [[[-52.14639375938253, -32.12833596806309], [-52.14585477021206, -32.12806647347786], [-52.14585477021206, -32.12860546264833], [-52.14639375938253, -32.12833596806309]]]}}, {"id": "67", "type": "Feature", "properties": {"cultura": "Arroz", "area_ha": 0.04}, "geometry": {"type": "Polygon", "coordinates": [[[-52.14558527562682, -32.12806647347786], [-52.14585477021206, -32.12806647347786], [-52.14585477021206, -32.12779697889262], [-52.14558527562682, -32.12806647347786]]]}}, {"id": "68", "type": "Feature", "properties": {"cultura": "Arroz", "area_ha": 0.04}, "geometry": {"type": "Polygon", "coordinates": [[[-52.14531578104159, -32.12779697889262], [-52.14558527562682, -32.12779697889262], [-52.14558527562682, -32.127527484307386], [-52.14531578104159, -32.12779697889262]]]}}, {"id": "69", "type": "Feature", "properties": {"cultura": "Arroz", "area_ha": 0.04}, "geometry": {"type": "Polygon", "coordinates": [[[-52.14585477021206, -32.127257989722146], [-52.14558527562682, -32.127257989722146], [-52.14558527562682, -32.127527484307386], [-52.14585477021206, -32.127257989722146]]]}}, {"id": "70", "type": "Feature", "properties": {"cultura": "Arroz", "area_ha": 0.76}, "geometry": {"type": "Polygon", "coordinates": [[[-52.15340061859866, -32.127527484307386], [-52.15313112401343, -32.12644950596644], [-52.152592134842955, -32.12644950596644], [-52.152592134842955, -32.127527484307386], [-52.15340061859866, -32.127527484307386]]]}}, {"id": "71", "type": "Feature", "properties": {"cultura": "Arroz", "area_ha": 0.68}, "geometry": {"type": "Polygon", "coordinates": [[[-52.15690404820673, -32.125102033040264], [-52.15609556445102, -32.1261800113812], [-52.15690404820673, -32.126719000551674], [-52.15690404820673, -32.125102033040264]]]}}, {"id": "72", "type": "Feature", "properties": {"cultura": "Arroz", "area_ha": 0.46}, "geometry": {"type": "Polygon", "coordinates": [[[-52.1536701131839, -32.12132910884696], [-52.152592134842955, -32.1215986034322], [-52.152592134842955, -32.1224070871879], [-52.1536701131839, -32.12132910884696]]]}}, {"id": "73", "type": "Feature", "properties": {"cultura": "Arroz", "area_ha": 0.23}, "geometry": {"type": "Polygon", "coordinates": [[[-52.23397949958419, -32.065274235117904], [-52.23424899416942, -32.06446575136219], [-52.23371000499895, -32.06446575136219], [-52.23397949958419, -32.065274235117904]]]}}, {"id": "74", "type": "Feature", "properties": {"cultura": "Arroz", "area_ha": 0.15}, "geometry": {"type": "Polygon", "coordinates": [[[-52.23371000499895, -32.06365726760649], [-52.23371000499895, -32.06419625677696], [-52.23424899416942, -32.06419625677696], [-52.23371000499895, -32.06365726760649]]]}}]}