{"type":"FeatureCollection","features":[{"type":"Feature","properties":{"nome":null,"detalhe":"water_tower","osm_id":"node/2901726777"},"geometry":{"type":"Point","coordinates":[-52.0863365,-32.0309198]}},{"type":"Feature","properties":{"nome":null,"detalhe":"water_tower","osm_id":"node/2901732407"},"geometry":{"type":"Point","coordinates":[-52.1263696,-32.0495819]}},{"type":"Feature","properties":{"nome":null,"detalhe":"water_tower","osm_id":"node/3132292939"},"geometry":{"type":"Point","coordinates":[-52.0871633,-32.0388175]}},{"type":"Feature","properties":{"nome":null,"detalhe":"water_tower","osm_id":"node/3135983994"},"geometry":{"type":"Point","coordinates":[-52.0998615,-32.0374389]}},{"type":"Feature","properties":{"nome":null,"detalhe":"storage_tank","osm_id":"node/12438777504"},"geometry":{"type":"Point","coordinates":[-52.0895445,-32.0407164]}},{"type":"Feature","properties":{"nome":null,"detalhe":"storage_tank","osm_id":"node/12438777505"},"geometry":{"type":"Point","coordinates":[-52.0895769,-32.0407057]}},{"type":"Feature","properties":{"nome":null,"detalhe":"storage_tank","osm_id":"way/359565787"},"geometry":{"type":"Point","coordinates":[-52.0926873,-32.0726303]}},{"type":"Feature","properties":{"nome":null,"detalhe":"storage_tank","osm_id":"way/359565788"},"geometry":{"type":"Point","coordinates":[-52.0925928,-32.0718683]}},{"type":"Feature","properties":{"nome":null,"detalhe":"storage_tank","osm_id":"way/359565789"},"geometry":{"type":"Point","coordinates":[-52.0923401,-32.0715814]}},{"type":"Feature","properties":{"nome":null,"detalhe":"storage_tank","osm_id":"way/359565790"},"geometry":{"type":"Point","coordinates":[-52.0923742,-32.0723115]}},{"type":"Feature","properties":{"nome":null,"detalhe":"storage_tank","osm_id":"way/359565791"},"geometry":{"type":"Point","coordinates":[-52.0922012,-32.0720842]}},{"type":"Feature","properties":{"nome":null,"detalhe":"storage_tank","osm_id":"way/359565792"},"geometry":{"type":"Point","coordinates":[-52.091864,-32.0720246]}},{"type":"Feature","properties":{"nome":null,"detalhe":"storage_tank","osm_id":"way/359565793"},"geometry":{"type":"Point","coordinates":[-52.091489,-32.072137]}},{"type":"Feature","properties":{"nome":null,"detalhe":"storage_tank","osm_id":"way/359565794"},"geometry":{"type":"Point","coordinates":[-52.0913818,-32.0719808]}},{"type":"Feature","properties":{"nome":null,"detalhe":"storage_tank","osm_id":"way/359565795"},"geometry":{"type":"Point","coordinates":[-52.0905966,-32.0715189]}},{"type":"Feature","properties":{"nome":null,"detalhe":"storage_tank","osm_id":"way/359565796"},"geometry":{"type":"Point","coordinates":[-52.0904048,-32.0713018]}},{"type":"Feature","properties":{"nome":null,"detalhe":"storage_tank","osm_id":"way/359565797"},"geometry":{"type":"Point","coordinates":[-52.090626,-32.0704591]}},{"type":"Feature","properties":{"nome":null,"detalhe":"storage_tank","osm_id":"way/359565798"},"geometry":{"type":"Point","coordinates":[-52.0915581,-32.0708653]}},{"type":"Feature","properties":{"nome":null,"detalhe":"storage_tank","osm_id":"way/359565799"},"geometry":{"type":"Point","coordinates":[-52.091253,-32.0703233]}},{"type":"Feature","properties":{"nome":null,"detalhe":"storage_tank","osm_id":"way/359565801"},"geometry":{"type":"Point","coordinates":[-52.0904571,-32.0705608]}},{"type":"Feature","properties":{"nome":null,"detalhe":"storage_tank","osm_id":"way/398991456"},"geometry":{"type":"Point","coordinates":[-52.0910767,-32.0713097]}},{"type":"Feature","properties":{"nome":null,"detalhe":"storage_tank","osm_id":"way/398991467"},"geometry":{"type":"Point","coordinates":[-52.0908728,-32.0710642]}},{"type":"Feature","properties":{"nome":null,"detalhe":"storage_tank","osm_id":"way/398991477"},"geometry":{"type":"Point","coordinates":[-52.0906234,-32.0707381]}},{"type":"Feature","properties":{"nome":null,"detalhe":"storage_tank","osm_id":"way/398991491"},"geometry":{"type":"Point","coordinates":[-52.0907548,-32.0708802]}},{"type":"Feature","properties":{"nome":"CORSAN","detalhe":"storage_tank","osm_id":"way/1332884714"},"geometry":{"type":"Point","coordinates":[-52.0998434,-32.0374333]}},{"type":"Feature","properties":{"nome":"Corsan","detalhe":"water_works","osm_id":"way/1341405464"},"geometry":{"type":"Point","coordinates":[-52.0946653,-32.0395317]}}]}