{"type":"FeatureCollection","features":[{"type":"Feature","properties":{"nome":"Rua Baden Powel","detalhe":"via: tertiary","osm_id":"way/392469354"},"geometry":{"type":"Point","coordinates":[-52.1087746,-32.0310109]}},{"type":"Feature","properties":{"nome":null,"detalhe":"via: residential","osm_id":"way/957388966"},"geometry":{"type":"Point","coordinates":[-52.1020184,-32.0425036]}},{"type":"Feature","properties":{"nome":null,"detalhe":"via: footway","osm_id":"way/1336016643"},"geometry":{"type":"Point","coordinates":[-52.0914171,-32.039418]}}]}