{"type":"FeatureCollection","features":[{"type":"Feature","properties":{"nome":null,"detalhe":"water_tower","osm_id":"node/2901726777"},"geometry":{"type":"Point","coordinates":[-52.0863365,-32.0309198]}},{"type":"Feature","properties":{"nome":null,"detalhe":"water_tower","osm_id":"node/3132292939"},"geometry":{"type":"Point","coordinates":[-52.0871633,-32.0388175]}},{"type":"Feature","properties":{"nome":null,"detalhe":"storage_tank","osm_id":"node/12438777504"},"geometry":{"type":"Point","coordinates":[-52.0895445,-32.0407164]}},{"type":"Feature","properties":{"nome":null,"detalhe":"storage_tank","osm_id":"node/12438777505"},"geometry":{"type":"Point","coordinates":[-52.0895769,-32.0407057]}},{"type":"Feature","properties":{"nome":"Corsan","detalhe":"water_works","osm_id":"way/1341405464"},"geometry":{"type":"Point","coordinates":[-52.0946653,-32.0395317]}}]}