{"type":"FeatureCollection","features":[{"type":"Feature","properties":{"nome":null,"detalhe":"tower","osm_id":"node/2901726781"},"geometry":{"type":"Point","coordinates":[-52.0828887,-32.0316158]}},{"type":"Feature","properties":{"nome":null,"detalhe":"tower","osm_id":"node/2901726785"},"geometry":{"type":"Point","coordinates":[-52.0838555,-32.0320488]}},{"type":"Feature","properties":{"nome":null,"detalhe":"tower","osm_id":"node/6853639544"},"geometry":{"type":"Point","coordinates":[-52.0870835,-32.038995]}},{"type":"Feature","properties":{"nome":null,"detalhe":"tower","osm_id":"node/6853639561"},"geometry":{"type":"Point","coordinates":[-52.0924824,-32.0411682]}},{"type":"Feature","properties":{"nome":null,"detalhe":"tower","osm_id":"node/6853639564"},"geometry":{"type":"Point","coordinates":[-52.0886571,-32.0377636]}}]}