{"type":"FeatureCollection","features":[{"type":"Feature","properties":{"nome":null,"detalhe":"via: unclassified","osm_id":"way/384287788"},"geometry":{"type":"Point","coordinates":[-52.2000975,-32.0351209]}},{"type":"Feature","properties":{"nome":"Rua Baden Powel","detalhe":"via: tertiary","osm_id":"way/392469354"},"geometry":{"type":"Point","coordinates":[-52.1087746,-32.0310109]}},{"type":"Feature","properties":{"nome":"Avenida Rheingantz","detalhe":"via: primary","osm_id":"way/957110969"},"geometry":{"type":"Point","coordinates":[-52.1025571,-32.0416343]}},{"type":"Feature","properties":{"nome":"Avenida Rheingantz","detalhe":"via: primary","osm_id":"way/957110971"},"geometry":{"type":"Point","coordinates":[-52.1025973,-32.041567]}},{"type":"Feature","properties":{"nome":null,"detalhe":"via: residential","osm_id":"way/957388966"},"geometry":{"type":"Point","coordinates":[-52.1020184,-32.0425036]}},{"type":"Feature","properties":{"nome":null,"detalhe":"via: residential","osm_id":"way/957388968"},"geometry":{"type":"Point","coordinates":[-52.1023609,-32.0419569]}},{"type":"Feature","properties":{"nome":"Rua Valporto","detalhe":"via: service","osm_id":"way/957393740"},"geometry":{"type":"Point","coordinates":[-52.1029099,-32.0410059]}},{"type":"Feature","properties":{"nome":null,"detalhe":"via: service","osm_id":"way/957393741"},"geometry":{"type":"Point","coordinates":[-52.102755,-32.0412659]}},{"type":"Feature","properties":{"nome":null,"detalhe":"via: footway","osm_id":"way/1336016643"},"geometry":{"type":"Point","coordinates":[-52.0914171,-32.039418]}},{"type":"Feature","properties":{"nome":null,"detalhe":"via: footway","osm_id":"way/1432460731"},"geometry":{"type":"Point","coordinates":[-52.0986338,-32.0334165]}},{"type":"Feature","properties":{"nome":null,"detalhe":"via: footway","osm_id":"way/1432460733"},"geometry":{"type":"Point","coordinates":[-52.0983851,-32.0327288]}}]}