{"type": "FeatureCollection", "features": [{"id": "1", "type": "Feature", "properties": {"cultura": "Outras Lavouras Temporárias", "area_ha": 0.02}, "geometry": {"type": "Polygon", "coordinates": [[[-52.051921983371194, -29.42395780522127], [-52.05197074843058, -29.423688310636035], [-52.05185735642424, -29.423688310636035], [-52.051921983371194, -29.42395780522127]]]}}, {"id": "2", "type": "Feature", "properties": {"cultura": "Outras Lavouras Temporárias", "area_ha": 0.42}, "geometry": {"type": "Polygon", "coordinates": [[[-52.04775874118621, -29.42207134312462], [-52.04857874565047, -29.422631082312677], [-52.04883671952715, -29.423856398249328], [-52.04883671952715, -29.422340837709857], [-52.04775874118621, -29.42207134312462]]]}}, {"id": "4", "type": "Feature", "properties": {"cultura": "Outras Lavouras Temporárias", "area_ha": 0.05}, "geometry": {"type": "Polygon", "coordinates": [[[-52.046699719221216, -29.42230292495796], [-52.0469502574305, -29.422156562278513], [-52.0469502574305, -29.421801848539385], [-52.046699719221216, -29.42230292495796]]]}}, {"id": "5", "type": "Feature", "properties": {"cultura": "Outras Lavouras Temporárias", "area_ha": 0.12}, "geometry": {"type": "Polygon", "coordinates": [[[-52.05432915884058, -29.420480135360332], [-52.054166195430206, -29.41967203496625], [-52.05384657598033, -29.41940382559437], [-52.05432915884058, -29.420480135360332]]]}}, {"id": "6", "type": "Feature", "properties": {"cultura": "Outras Lavouras Temporárias", "area_ha": 2.88}, "geometry": {"type": "Polygon", "coordinates": [[[-52.04587227908956, -29.419106902687027], [-52.04479430074861, -29.419376397272263], [-52.04506379533385, -29.420454375613204], [-52.04587227908956, -29.420454375613204], [-52.045602784504325, -29.419376397272263], [-52.04751285414796, -29.41820838242327], [-52.04793373756908, -29.416030139197094], [-52.04587227908956, -29.419106902687027]]]}}, {"id": "7", "type": "Feature", "properties": {"cultura": "Outras Lavouras Temporárias", "area_ha": 0.86}, "geometry": {"type": "Polygon", "coordinates": [[[-52.0469502574305, -29.41695094600514], [-52.04641126826003, -29.415872967664196], [-52.0461417736748, -29.415872967664196], [-52.0461417736748, -29.41748993517561], [-52.0469502574305, -29.41695094600514]]]}}, {"id": "8", "type": "Feature", "properties": {"cultura": "Outras Lavouras Temporárias", "area_ha": 0.0}, "geometry": {"type": "Polygon", "coordinates": [[[-52.0472661413294, -29.4155570837653], [-52.04721975201574, -29.415548423787843], [-52.04721975201574, -29.41560347307896], [-52.0472661413294, -29.4155570837653]]]}}, {"id": "9", "type": "Feature", "properties": {"cultura": "Outras Lavouras Temporárias", "area_ha": 0.06}, "geometry": {"type": "Polygon", "coordinates": [[[-52.045975310532455, -29.422019827403172], [-52.04641126826003, -29.42207134312462], [-52.04641126826003, -29.421801848539385], [-52.045975310532455, -29.422019827403172]]]}}, {"id": "10", "type": "Feature", "properties": {"cultura": "Outras Lavouras Temporárias", "area_ha": 0.47}, "geometry": {"type": "Polygon", "coordinates": [[[-52.04506379533385, -29.42072387019844], [-52.04506379533385, -29.421262859368913], [-52.04668076284527, -29.421801848539385], [-52.04506379533385, -29.42072387019844]]]}}, {"id": "11", "type": "Feature", "properties": {"cultura": "Outras Lavouras Temporárias", "area_ha": 0.46}, "geometry": {"type": "Polygon", "coordinates": [[[-52.045333289919085, -29.419106902687027], [-52.0461417736748, -29.41748993517561], [-52.04512412566959, -29.418470808388133], [-52.045333289919085, -29.419106902687027]]]}}, {"id": "12", "type": "Feature", "properties": {"cultura": "Outras Lavouras Temporárias", "area_ha": 0.01}, "geometry": {"type": "Polygon", "coordinates": [[[-52.0430854804057, -29.415517684156733], [-52.0431773332372, -29.415607211259125], [-52.0431773332372, -29.415333978493724], [-52.0430854804057, -29.415517684156733]]]}}, {"id": "13", "type": "Feature", "properties": {"cultura": "Outras Lavouras Temporárias", "area_ha": 0.32}, "geometry": {"type": "Polygon", "coordinates": [[[-52.04479430074861, -29.41425600015278], [-52.04350901138248, -29.413741884406328], [-52.044031202229185, -29.414409271870902], [-52.04479430074861, -29.41425600015278]]]}}, {"id": "13", "type": "Feature", "properties": {"cultura": "Outras Lavouras Temporárias", "area_ha": 1.14}, "geometry": {"type": "Polygon", "coordinates": [[[-52.043446827822436, -29.415316312746523], [-52.04479430074861, -29.415333978493724], [-52.043447117240255, -29.413737000405256], [-52.043446827822436, -29.413737002671894], [-52.043446827822436, -29.415316312746523]]]}}, {"id": "14", "type": "Feature", "properties": {"cultura": "Outras Lavouras Temporárias", "area_ha": 0.02}, "geometry": {"type": "Polygon", "coordinates": [[[-52.03536199026536, -29.409944086789007], [-52.03536199026536, -29.41034363702042], [-52.03544682248925, -29.410198583460673], [-52.03536199026536, -29.409944086789007]]]}}, {"id": "15", "type": "Feature", "properties": {"cultura": "Outras Lavouras Temporárias", "area_ha": 0.31}, "geometry": {"type": "Polygon", "coordinates": [[[-52.039134914458664, -29.409944086789007], [-52.03805693611772, -29.409944086789007], [-52.03805693611772, -29.41039486583067], [-52.038156773959436, -29.41043315703862], [-52.039134914458664, -29.409944086789007]]]}}, {"id": "16", "type": "Feature", "properties": {"cultura": "Outras Lavouras Temporárias", "area_ha": 0.08}, "geometry": {"type": "Polygon", "coordinates": [[[-52.03967390362914, -29.41048307595948], [-52.03967390362914, -29.409944086789007], [-52.0394044090439, -29.409944086789007], [-52.03967390362914, -29.41048307595948]]]}}, {"id": "17", "type": "Feature", "properties": {"cultura": "Outras Lavouras Temporárias", "area_ha": 0.04}, "geometry": {"type": "Polygon", "coordinates": [[[-52.039134914458664, -29.409944086789007], [-52.0394044090439, -29.409944086789007], [-52.0394044090439, -29.40967459220377], [-52.039134914458664, -29.409944086789007]]]}}, {"id": "18", "type": "Feature", "properties": {"cultura": "Outras Lavouras Temporárias", "area_ha": 0.51}, "geometry": {"type": "Polygon", "coordinates": [[[-52.037248452362014, -29.4091356030333], [-52.03626689481286, -29.410020739790653], [-52.03701483108105, -29.410303709438093], [-52.037248452362014, -29.4091356030333]]]}}, {"id": "19", "type": "Feature", "properties": {"cultura": "Outras Lavouras Temporárias", "area_ha": 0.02}, "geometry": {"type": "Polygon", "coordinates": [[[-52.026464939215664, -29.415200163635333], [-52.02663125217929, -29.415338655393942], [-52.02672198194534, -29.415135902952912], [-52.026464939215664, -29.415200163635333]]]}}, {"id": "20", "type": "Feature", "properties": {"cultura": "Outras Lavouras Temporárias", "area_ha": 0.04}, "geometry": {"type": "Polygon", "coordinates": [[[-52.02431271227069, -29.4129085272266], [-52.024582206855925, -29.4129085272266], [-52.024582206855925, -29.412639032641366], [-52.02431271227069, -29.4129085272266]]]}}, {"id": "21", "type": "Feature", "properties": {"cultura": "Outras Lavouras Temporárias", "area_ha": 0.31}, "geometry": {"type": "Polygon", "coordinates": [[[-52.024851701441165, -29.41156105430042], [-52.024582206855925, -29.412639032641366], [-52.0251211960264, -29.412639032641366], [-52.024851701441165, -29.41156105430042]]]}}, {"id": "22", "type": "Feature", "properties": {"cultura": "Outras Lavouras Temporárias", "area_ha": 0.94}, "geometry": {"type": "Polygon", "coordinates": [[[-52.02539069061164, -29.41156105430042], [-52.026468668952575, -29.41156105430042], [-52.026468668952575, -29.410752570544716], [-52.02539069061164, -29.410752570544716], [-52.02539069061164, -29.41156105430042]]]}}, {"id": "23", "type": "Feature", "properties": {"cultura": "Outras Lavouras Temporárias", "area_ha": 0.04}, "geometry": {"type": "Polygon", "coordinates": [[[-52.02754664729352, -29.410213581374244], [-52.02727715270829, -29.410213581374244], [-52.02727715270829, -29.41048307595948], [-52.02754664729352, -29.410213581374244]]]}}, {"id": "24", "type": "Feature", "properties": {"cultura": "Outras Lavouras Temporárias", "area_ha": 0.12}, "geometry": {"type": "Polygon", "coordinates": [[[-52.02727715270829, -29.410213581374244], [-52.02727715270829, -29.409405097618535], [-52.02700765812305, -29.409405097618535], [-52.02727715270829, -29.410213581374244]]]}}, {"id": "25", "type": "Feature", "properties": {"cultura": "Outras Lavouras Temporárias", "area_ha": 0.35}, "geometry": {"type": "Polygon", "coordinates": [[[-52.02242625017404, -29.409944086789007], [-52.02323473392975, -29.409944086789007], [-52.02323473392975, -29.4091356030333], [-52.02242625017404, -29.409944086789007]]]}}, {"id": "26", "type": "Feature", "properties": {"cultura": "Outras Lavouras Temporárias", "area_ha": 0.23}, "geometry": {"type": "Polygon", "coordinates": [[[-52.02781614187876, -29.4091356030333], [-52.028624625634464, -29.4091356030333], [-52.02754664729352, -29.408596613862827], [-52.02781614187876, -29.4091356030333]]]}}, {"id": "27", "type": "Feature", "properties": {"cultura": "Outras Lavouras Temporárias", "area_ha": 0.62}, "geometry": {"type": "Polygon", "coordinates": [[[-52.026738163537814, -29.40832711927759], [-52.02727715270829, -29.406979646351413], [-52.026738163537814, -29.406171162595705], [-52.026738163537814, -29.40832711927759]]]}}, {"id": "28", "type": "Feature", "properties": {"cultura": "Outras Lavouras Temporárias", "area_ha": 0.51}, "geometry": {"type": "Polygon", "coordinates": [[[-52.028624625634464, -29.40644065718094], [-52.02781614187876, -29.407518635521885], [-52.028894120219704, -29.40724914093665], [-52.028624625634464, -29.40644065718094]]]}}, {"id": "29", "type": "Feature", "properties": {"cultura": "Outras Lavouras Temporárias", "area_ha": 0.2}, "geometry": {"type": "Polygon", "coordinates": [[[-52.024851701441165, -29.406979646351413], [-52.024851701441165, -29.406710151766177], [-52.02350422851498, -29.406710151766177], [-52.024851701441165, -29.406979646351413]]]}}, {"id": "30", "type": "Feature", "properties": {"cultura": "Outras Lavouras Temporárias", "area_ha": 0.04}, "geometry": {"type": "Polygon", "coordinates": [[[-52.02808563646399, -29.406979646351413], [-52.02808563646399, -29.406710151766177], [-52.02781614187876, -29.406710151766177], [-52.02808563646399, -29.406979646351413]]]}}, {"id": "31", "type": "Feature", "properties": {"cultura": "Outras Lavouras Temporárias", "area_ha": 0.04}, "geometry": {"type": "Polygon", "coordinates": [[[-52.02781614187876, -29.406710151766177], [-52.02754664729352, -29.40644065718094], [-52.02754664729352, -29.406710151766177], [-52.02781614187876, -29.406710151766177]]]}}, {"id": "32", "type": "Feature", "properties": {"cultura": "Outras Lavouras Temporárias", "area_ha": 0.04}, "geometry": {"type": "Polygon", "coordinates": [[[-52.02727715270829, -29.40644065718094], [-52.02754664729352, -29.40644065718094], [-52.02754664729352, -29.406171162595705], [-52.02727715270829, -29.40644065718094]]]}}, {"id": "33", "type": "Feature", "properties": {"cultura": "Outras Lavouras Temporárias", "area_ha": 0.27}, "geometry": {"type": "Polygon", "coordinates": [[[-52.01595838012838, -29.410752570544716], [-52.01568888554314, -29.41156105430042], [-52.016227874713614, -29.411830548885657], [-52.01595838012838, -29.410752570544716]]]}}, {"id": "34", "type": "Feature", "properties": {"cultura": "Outras Lavouras Temporárias", "area_ha": 0.74}, "geometry": {"type": "Polygon", "coordinates": [[[-52.0146109072022, -29.410752570544716], [-52.01595838012838, -29.410752570544716], [-52.01595838012838, -29.410213581374244], [-52.014341412616965, -29.41048307595948], [-52.0146109072022, -29.411291559715185], [-52.0146109072022, -29.410752570544716]]]}}, {"id": "35", "type": "Feature", "properties": {"cultura": "Outras Lavouras Temporárias", "area_ha": 0.04}, "geometry": {"type": "Polygon", "coordinates": [[[-52.01407191803173, -29.41048307595948], [-52.014341412616965, -29.41048307595948], [-52.014341412616965, -29.410213581374244], [-52.01407191803173, -29.41048307595948]]]}}, {"id": "36", "type": "Feature", "properties": {"cultura": "Outras Lavouras Temporárias", "area_ha": 0.04}, "geometry": {"type": "Polygon", "coordinates": [[[-52.01272444510555, -29.408866108448063], [-52.01299393969079, -29.408866108448063], [-52.01299393969079, -29.408596613862827], [-52.01272444510555, -29.408866108448063]]]}}, {"id": "37", "type": "Feature", "properties": {"cultura": "Outras Lavouras Temporárias", "area_ha": 0.04}, "geometry": {"type": "Polygon", "coordinates": [[[-52.01326343427602, -29.408596613862827], [-52.01326343427602, -29.40832711927759], [-52.01299393969079, -29.40832711927759], [-52.01326343427602, -29.408596613862827]]]}}, {"id": "38", "type": "Feature", "properties": {"cultura": "Outras Lavouras Temporárias", "area_ha": 0.1}, "geometry": {"type": "Polygon", "coordinates": [[[-52.006256575059886, -29.463451094524434], [-52.005987080474654, -29.463001900746786], [-52.005987080474654, -29.46371484571464], [-52.006256575059886, -29.463451094524434]]]}}, {"id": "38", "type": "Feature", "properties": {"cultura": "Outras Lavouras Temporárias", "area_ha": 0.27}, "geometry": {"type": "Polygon", "coordinates": [[[-52.00733455340083, -29.46195654173953], [-52.00609133394129, -29.46270247341525], [-52.006112677901235, -29.462775335874042], [-52.00634127321208, -29.46294982192828], [-52.00733455340083, -29.46195654173953]]]}}, {"id": "39", "type": "Feature", "properties": {"cultura": "Outras Lavouras Temporárias", "area_ha": 0.12}, "geometry": {"type": "Polygon", "coordinates": [[[-52.00760404798607, -29.46303452008047], [-52.00760404798607, -29.462226036324765], [-52.00733455340083, -29.462226036324765], [-52.00760404798607, -29.46303452008047]]]}}, {"id": "40", "type": "Feature", "properties": {"cultura": "Outras Lavouras Temporárias", "area_ha": 0.01}, "geometry": {"type": "Polygon", "coordinates": [[[-52.003831123792764, -29.4196458918575], [-52.003896312826754, -29.41989790153892], [-52.00401983593953, -29.42002331615102], [-52.003831123792764, -29.4196458918575]]]}}, {"id": "41", "type": "Feature", "properties": {"cultura": "Outras Lavouras Temporárias", "area_ha": 3.32}, "geometry": {"type": "Polygon", "coordinates": [[[-52.006256575059886, -29.413178021811838], [-52.006526069645126, -29.41048307595948], [-52.005717585889414, -29.411830548885657], [-52.00463960754848, -29.410213581374244], [-52.00517859671894, -29.412100043470893], [-52.00356162920753, -29.412639032641366], [-52.006256575059886, -29.413178021811838]]]}}, {"id": "42", "type": "Feature", "properties": {"cultura": "Outras Lavouras Temporárias", "area_ha": 0.62}, "geometry": {"type": "Polygon", "coordinates": [[[-52.01002949925319, -29.410213581374244], [-52.00949051008272, -29.410752570544716], [-52.01110747759413, -29.411291559715185], [-52.01002949925319, -29.410213581374244]]]}}, {"id": "43", "type": "Feature", "properties": {"cultura": "Outras Lavouras Temporárias", "area_ha": 1.76}, "geometry": {"type": "Polygon", "coordinates": [[[-52.01299393969079, -29.4091356030333], [-52.01110747759413, -29.408596613862827], [-52.0116464667646, -29.41048307595948], [-52.01299393969079, -29.4091356030333]]]}}, {"id": "44", "type": "Feature", "properties": {"cultura": "Outras Lavouras Temporárias", "area_ha": 0.23}, "geometry": {"type": "Polygon", "coordinates": [[[-52.004100618378004, -29.40967459220377], [-52.00490910213371, -29.40967459220377], [-52.00490910213371, -29.4091356030333], [-52.004100618378004, -29.40967459220377]]]}}, {"id": "45", "type": "Feature", "properties": {"cultura": "Outras Lavouras Temporárias", "area_ha": 0.01}, "geometry": {"type": "Polygon", "coordinates": [[[-51.99951921042899, -29.464920982177123], [-51.999420683796, -29.46495556638492], [-51.999598721257044, -29.46505350022387], [-51.99951921042899, -29.464920982177123]]]}}, {"id": "45", "type": "Feature", "properties": {"cultura": "Outras Lavouras Temporárias", "area_ha": 0.03}, "geometry": {"type": "Polygon", "coordinates": [[[-51.99844123208805, -29.46519047676236], [-51.99852726446099, -29.465341306720244], [-51.99872104166236, -29.465120524368782], [-51.99844123208805, -29.46519047676236]]]}}, {"id": "46", "type": "Feature", "properties": {"cultura": "Outras Lavouras Temporárias", "area_ha": 0.0}, "geometry": {"type": "Polygon", "coordinates": [[[-51.99723781843917, -29.416356084926566], [-51.9973632537471, -29.417220440590373], [-51.99724394426617, -29.416356039073115], [-51.99723781843917, -29.416356084926566]]]}}, {"id": "47", "type": "Feature", "properties": {"cultura": "Outras Lavouras Temporárias", "area_ha": 2.19}, "geometry": {"type": "Polygon", "coordinates": [[[-51.99682426457663, -29.41560347307896], [-51.99709375916187, -29.413986505567546], [-51.995476791650454, -29.41425600015278], [-51.99514918692894, -29.415063121292697], [-51.99682426457663, -29.41560347307896]]]}}, {"id": "48", "type": "Feature", "properties": {"cultura": "Outras Lavouras Temporárias", "area_ha": 0.04}, "geometry": {"type": "Polygon", "coordinates": [[[-51.99493780247998, -29.414525494738015], [-51.99493780247998, -29.41425600015278], [-51.99466830789475, -29.41425600015278], [-51.99493780247998, -29.414525494738015]]]}}, {"id": "49", "type": "Feature", "properties": {"cultura": "Outras Lavouras Temporárias", "area_ha": 0.12}, "geometry": {"type": "Polygon", "coordinates": [[[-51.99385982413904, -29.413986505567546], [-51.99466830789475, -29.41425600015278], [-51.99466830789475, -29.413986505567546], [-51.99385982413904, -29.413986505567546]]]}}, {"id": "50", "type": "Feature", "properties": {"cultura": "Outras Lavouras Temporárias", "area_ha": 0.62}, "geometry": {"type": "Polygon", "coordinates": [[[-51.999788705014225, -29.4129085272266], [-51.99924971584375, -29.4129085272266], [-51.99951921042899, -29.415064483908488], [-51.999788705014225, -29.4129085272266]]]}}, {"id": "51", "type": "Feature", "properties": {"cultura": "Outras Lavouras Temporárias", "area_ha": 0.26}, "geometry": {"type": "Polygon", "coordinates": [[[-52.00077778410127, -29.414078201644976], [-52.00086668335517, -29.413178021811838], [-52.0003276941847, -29.413178021811838], [-52.00077778410127, -29.414078201644976]]]}}, {"id": "52", "type": "Feature", "properties": {"cultura": "Outras Lavouras Temporárias", "area_ha": 0.04}, "geometry": {"type": "Polygon", "coordinates": [[[-51.99682523962469, -29.41358859069616], [-51.99709375916187, -29.41371701098231], [-51.997122811972524, -29.41345099353778], [-51.99682523962469, -29.41358859069616]]]}}, {"id": "53", "type": "Feature", "properties": {"cultura": "Outras Lavouras Temporárias", "area_ha": 0.04}, "geometry": {"type": "Polygon", "coordinates": [[[-51.993320834968564, -29.4129085272266], [-51.993590329553804, -29.4129085272266], [-51.993590329553804, -29.412639032641366], [-51.993320834968564, -29.4129085272266]]]}}, {"id": "54", "type": "Feature", "properties": {"cultura": "Outras Lavouras Temporárias", "area_ha": 0.08}, "geometry": {"type": "Polygon", "coordinates": [[[-51.99844123208805, -29.41156105430042], [-51.99844123208805, -29.411830548885657], [-51.99898022125852, -29.411830548885657], [-51.99844123208805, -29.41156105430042]]]}}, {"id": "55", "type": "Feature", "properties": {"cultura": "Outras Lavouras Temporárias", "area_ha": 0.04}, "geometry": {"type": "Polygon", "coordinates": [[[-51.9973632537471, -29.411291559715185], [-51.9973632537471, -29.411022065129952], [-51.99709375916187, -29.411022065129952], [-51.9973632537471, -29.411291559715185]]]}}, {"id": "56", "type": "Feature", "properties": {"cultura": "Outras Lavouras Temporárias", "area_ha": 1.33}, "geometry": {"type": "Polygon", "coordinates": [[[-52.000058199599465, -29.41236953805613], [-51.99951921042899, -29.409944086789007], [-51.99898022125852, -29.412100043470893], [-52.000058199599465, -29.41236953805613]]]}}, {"id": "57", "type": "Feature", "properties": {"cultura": "Outras Lavouras Temporárias", "area_ha": 0.08}, "geometry": {"type": "Polygon", "coordinates": [[[-51.99628527540616, -29.411291559715185], [-51.99682426457663, -29.411291559715185], [-51.99682426457663, -29.411022065129952], [-51.99628527540616, -29.411291559715185]]]}}, {"id": "58", "type": "Feature", "properties": {"cultura": "Outras Lavouras Temporárias", "area_ha": 0.04}, "geometry": {"type": "Polygon", "coordinates": [[[-51.99682426457663, -29.411022065129952], [-51.99709375916187, -29.410752570544716], [-51.99682426457663, -29.410752570544716], [-51.99682426457663, -29.411022065129952]]]}}, {"id": "59", "type": "Feature", "properties": {"cultura": "Outras Lavouras Temporárias", "area_ha": 0.04}, "geometry": {"type": "Polygon", "coordinates": [[[-51.996015780820926, -29.411022065129952], [-51.996015780820926, -29.410752570544716], [-51.99574628623569, -29.410752570544716], [-51.996015780820926, -29.411022065129952]]]}}, {"id": "60", "type": "Feature", "properties": {"cultura": "Outras Lavouras Temporárias", "area_ha": 0.12}, "geometry": {"type": "Polygon", "coordinates": [[[-51.996015780820926, -29.410752570544716], [-51.99682426457663, -29.410752570544716], [-51.99682426457663, -29.41048307595948], [-51.996015780820926, -29.410752570544716]]]}}, {"id": "61", "type": "Feature", "properties": {"cultura": "Outras Lavouras Temporárias", "area_ha": 0.04}, "geometry": {"type": "Polygon", "coordinates": [[[-51.99951921042899, -29.40967459220377], [-51.99924971584375, -29.40967459220377], [-51.99924971584375, -29.409944086789007], [-51.99951921042899, -29.40967459220377]]]}}, {"id": "62", "type": "Feature", "properties": {"cultura": "Outras Lavouras Temporárias", "area_ha": 0.04}, "geometry": {"type": "Polygon", "coordinates": [[[-51.99898022125852, -29.40967459220377], [-51.99924971584375, -29.40967459220377], [-51.99924971584375, -29.409405097618535], [-51.99898022125852, -29.40967459220377]]]}}, {"id": "63", "type": "Feature", "properties": {"cultura": "Outras Lavouras Temporárias", "area_ha": 0.23}, "geometry": {"type": "Polygon", "coordinates": [[[-51.99924971584375, -29.40832711927759], [-51.99871072667329, -29.40832711927759], [-51.99898022125852, -29.4091356030333], [-51.99924971584375, -29.40832711927759]]]}}, {"id": "64", "type": "Feature", "properties": {"cultura": "Outras Lavouras Temporárias", "area_ha": 0.04}, "geometry": {"type": "Polygon", "coordinates": [[[-51.999788705014225, -29.40832711927759], [-51.99951921042899, -29.40832711927759], [-51.99951921042899, -29.408596613862827], [-51.999788705014225, -29.40832711927759]]]}}, {"id": "65", "type": "Feature", "properties": {"cultura": "Outras Lavouras Temporárias", "area_ha": 0.04}, "geometry": {"type": "Polygon", "coordinates": [[[-51.99844123208805, -29.40832711927759], [-51.99871072667329, -29.40832711927759], [-51.99871072667329, -29.408057624692354], [-51.99844123208805, -29.40832711927759]]]}}, {"id": "66", "type": "Feature", "properties": {"cultura": "Outras Lavouras Temporárias", "area_ha": 0.02}, "geometry": {"type": "Polygon", "coordinates": [[[-51.97983576942347, -29.47448287181134], [-51.979865464054846, -29.474353292660375], [-51.97957661112154, -29.474353292660375], [-51.97983576942347, -29.47448287181134]]]}}, {"id": "67", "type": "Feature", "properties": {"cultura": "Outras Lavouras Temporárias", "area_ha": 0.04}, "geometry": {"type": "Polygon", "coordinates": [[[-51.98712245950814, -29.472466830563725], [-51.98712245950814, -29.47219733597849], [-51.98685296492291, -29.47219733597849], [-51.98712245950814, -29.472466830563725]]]}}, {"id": "68", "type": "Feature", "properties": {"cultura": "Outras Lavouras Temporárias", "area_ha": 0.16}, "geometry": {"type": "Polygon", "coordinates": [[[-51.97769014902489, -29.47219733597849], [-51.97769014902489, -29.471658346808017], [-51.977151159854415, -29.471658346808017], [-51.97769014902489, -29.47219733597849]]]}}, {"id": "69", "type": "Feature", "properties": {"cultura": "Outras Lavouras Temporárias", "area_ha": 0.08}, "geometry": {"type": "Polygon", "coordinates": [[[-51.97769014902489, -29.471658346808017], [-51.97822913819536, -29.471658346808017], [-51.97822913819536, -29.47138885222278], [-51.97769014902489, -29.471658346808017]]]}}, {"id": "70", "type": "Feature", "properties": {"cultura": "Outras Lavouras Temporárias", "area_ha": 0.08}, "geometry": {"type": "Polygon", "coordinates": [[[-51.98685296492291, -29.471119357637548], [-51.98685296492291, -29.471658346808017], [-51.98712245950814, -29.471658346808017], [-51.98685296492291, -29.471119357637548]]]}}, {"id": "71", "type": "Feature", "properties": {"cultura": "Outras Lavouras Temporárias", "area_ha": 5.16}, "geometry": {"type": "Polygon", "coordinates": [[[-51.98631397575244, -29.469232895540895], [-51.98173256780343, -29.46896340095566], [-51.98254105155913, -29.469771884711367], [-51.98200206238866, -29.47138885222278], [-51.983619029900076, -29.469771884711367], [-51.98594665611254, -29.47075963876213], [-51.98685296492291, -29.47219733597849], [-51.985774986581966, -29.470041379296603], [-51.98631397575244, -29.469232895540895]]]}}, {"id": "72", "type": "Feature", "properties": {"cultura": "Outras Lavouras Temporárias", "area_ha": 0.12}, "geometry": {"type": "Polygon", "coordinates": [[[-51.98712245950814, -29.47084986305231], [-51.987391954093376, -29.47084986305231], [-51.987391954093376, -29.470041379296603], [-51.98712245950814, -29.47084986305231]]]}}, {"id": "73", "type": "Feature", "properties": {"cultura": "Outras Lavouras Temporárias", "area_ha": 0.04}, "geometry": {"type": "Polygon", "coordinates": [[[-51.983888524485316, -29.47031087388184], [-51.983888524485316, -29.470041379296603], [-51.983619029900076, -29.470041379296603], [-51.983888524485316, -29.47031087388184]]]}}, {"id": "74", "type": "Feature", "properties": {"cultura": "Outras Lavouras Temporárias", "area_ha": 0.04}, "geometry": {"type": "Polygon", "coordinates": [[[-51.98712245950814, -29.470041379296603], [-51.98712245950814, -29.469771884711367], [-51.98685296492291, -29.469771884711367], [-51.98712245950814, -29.470041379296603]]]}}, {"id": "75", "type": "Feature", "properties": {"cultura": "Outras Lavouras Temporárias", "area_ha": 0.04}, "geometry": {"type": "Polygon", "coordinates": [[[-51.98658347033767, -29.469771884711367], [-51.98685296492291, -29.46950239012613], [-51.98658347033767, -29.46950239012613], [-51.98658347033767, -29.469771884711367]]]}}, {"id": "76", "type": "Feature", "properties": {"cultura": "Outras Lavouras Temporárias", "area_ha": 0.62}, "geometry": {"type": "Polygon", "coordinates": [[[-51.95208816342748, -29.467346433444245], [-51.952357658012716, -29.466537949688536], [-51.950740690501306, -29.46707693885901], [-51.95208816342748, -29.467346433444245]]]}}, {"id": "77", "type": "Feature", "properties": {"cultura": "Outras Lavouras Temporárias", "area_ha": 1.6}, "geometry": {"type": "Polygon", "coordinates": [[[-51.95154917425701, -29.464920982177123], [-51.95181866884224, -29.464112498421414], [-51.95020170133083, -29.464112498421414], [-51.94993220674559, -29.46519047676236], [-51.95154917425701, -29.464920982177123]]]}}, {"id": "78", "type": "Feature", "properties": {"cultura": "Outras Lavouras Temporárias", "area_ha": 0.0}, "geometry": {"type": "Polygon", "coordinates": [[[-51.95316614176843, -29.46384300383618], [-51.95321986549366, -29.46384300383618], [-51.95319878245306, -29.463794042809234], [-51.95316614176843, -29.46384300383618]]]}}, {"id": "79", "type": "Feature", "properties": {"cultura": "Outras Lavouras Temporárias", "area_ha": 0.06}, "geometry": {"type": "Polygon", "coordinates": [[[-51.94535079879658, -29.439318996579715], [-51.945687502392836, -29.440042908092465], [-51.945889787967054, -29.440127480335423], [-51.94535079879658, -29.439318996579715]]]}}, {"id": "80", "type": "Feature", "properties": {"cultura": "Outras Lavouras Temporárias", "area_ha": 0.23}, "geometry": {"type": "Polygon", "coordinates": [[[-51.946967766308, -29.43958849116495], [-51.946967766308, -29.43904950199448], [-51.946159282552294, -29.43958849116495], [-51.946967766308, -29.43958849116495]]]}}, {"id": "81", "type": "Feature", "properties": {"cultura": "Outras Lavouras Temporárias", "area_ha": 0.0}, "geometry": {"type": "Polygon", "coordinates": [[[-51.94481180962611, -29.43849686944177], [-51.94453670047566, -29.43824101823877], [-51.94453674777713, -29.438246128037186], [-51.94481180962611, -29.43849686944177]]]}}, {"id": "82", "type": "Feature", "properties": {"cultura": "Outras Lavouras Temporárias", "area_ha": 0.02}, "geometry": {"type": "Polygon", "coordinates": [[[-51.94750675547847, -29.43904950199448], [-51.947739764145716, -29.438990473311637], [-51.94755728694085, -29.438847376144956], [-51.94750675547847, -29.43904950199448]]]}}, {"id": "83", "type": "Feature", "properties": {"cultura": "Outras Lavouras Temporárias", "area_ha": 0.03}, "geometry": {"type": "Polygon", "coordinates": [[[-51.94723726089324, -29.436624050727357], [-51.94717795818974, -29.43622387659872], [-51.947037672674654, -29.43622487429019], [-51.94723726089324, -29.436624050727357]]]}}, {"id": "84", "type": "Feature", "properties": {"cultura": "Outras Lavouras Temporárias", "area_ha": 0.08}, "geometry": {"type": "Polygon", "coordinates": [[[-51.944003325870405, -29.435815566971648], [-51.944003325870405, -29.435276577801176], [-51.94373383128517, -29.435276577801176], [-51.944003325870405, -29.435815566971648]]]}}, {"id": "85", "type": "Feature", "properties": {"cultura": "Outras Lavouras Temporárias", "area_ha": 0.04}, "geometry": {"type": "Polygon", "coordinates": [[[-51.94346433669993, -29.435276577801176], [-51.94373383128517, -29.435276577801176], [-51.94373383128517, -29.435007083215943], [-51.94346433669993, -29.435276577801176]]]}}, {"id": "87", "type": "Feature", "properties": {"cultura": "Outras Lavouras Temporárias", "area_ha": 0.12}, "geometry": {"type": "Polygon", "coordinates": [[[-51.9431948421147, -29.433659610289762], [-51.94346433669993, -29.433659610289762], [-51.94346433669993, -29.432851126534054], [-51.9431948421147, -29.433659610289762]]]}}, {"id": "88", "type": "Feature", "properties": {"cultura": "Outras Lavouras Temporárias", "area_ha": 3.58}, "geometry": {"type": "Polygon", "coordinates": [[[-51.94535079879658, -29.431503653607876], [-51.94730383202894, -29.432784555398346], [-51.94750675547847, -29.429617191511223], [-51.946159282552294, -29.42988668609646], [-51.94642877713753, -29.431503653607876], [-51.94535079879658, -29.431503653607876]]]}}, {"id": "89", "type": "Feature", "properties": {"cultura": "Outras Lavouras Temporárias", "area_ha": 0.02}, "geometry": {"type": "Polygon", "coordinates": [[[-51.949522633627936, -29.431514316087487], [-51.94966271216036, -29.431459168908408], [-51.94966271216036, -29.43123415902264], [-51.949522633627936, -29.431514316087487]]]}}, {"id": "90", "type": "Feature", "properties": {"cultura": "Outras Lavouras Temporárias", "area_ha": 0.02}, "geometry": {"type": "Polygon", "coordinates": [[[-51.95555136249266, -29.429233064904814], [-51.95586108762078, -29.429194743557517], [-51.95586108762078, -29.429078202340754], [-51.95555136249266, -29.429233064904814]]]}}, {"id": "91", "type": "Feature", "properties": {"cultura": "Outras Lavouras Temporárias", "area_ha": 0.04}, "geometry": {"type": "Polygon", "coordinates": [[[-51.95613058220602, -29.429078202340754], [-51.95613058220602, -29.42880870775552], [-51.95586108762078, -29.42880870775552], [-51.95613058220602, -29.429078202340754]]]}}, {"id": "92", "type": "Feature", "properties": {"cultura": "Outras Lavouras Temporárias", "area_ha": 4.16}, "geometry": {"type": "Polygon", "coordinates": [[[-51.954513614694605, -29.428269718585046], [-51.95499400648642, -29.427540411713032], [-51.95423842868704, -29.42611376190316], [-51.95343563635366, -29.42611376190316], [-51.95381787750119, -29.429362811657114], [-51.954869826716866, -29.42940039791865], [-51.95532209845031, -29.428269718585046], [-51.954513614694605, -29.428269718585046]]]}}, {"id": "93", "type": "Feature", "properties": {"cultura": "Outras Lavouras Temporárias", "area_ha": 0.35}, "geometry": {"type": "Polygon", "coordinates": [[[-51.97688166526918, -29.42611376190316], [-51.97607318151347, -29.42611376190316], [-51.97607318151347, -29.426922245658865], [-51.97688166526918, -29.42611376190316]]]}}, {"id": "94", "type": "Feature", "properties": {"cultura": "Outras Lavouras Temporárias", "area_ha": 0.04}, "geometry": {"type": "Polygon", "coordinates": [[[-51.97607318151347, -29.42611376190316], [-51.97607318151347, -29.425844267317924], [-51.97580368692824, -29.425844267317924], [-51.97607318151347, -29.42611376190316]]]}}, {"id": "95", "type": "Feature", "properties": {"cultura": "Outras Lavouras Temporárias", "area_ha": 0.31}, "geometry": {"type": "Polygon", "coordinates": [[[-51.968796827712104, -29.424496794391743], [-51.968796827712104, -29.4234188160508], [-51.96825783854163, -29.4234188160508], [-51.968796827712104, -29.424496794391743]]]}}, {"id": "96", "type": "Feature", "properties": {"cultura": "Outras Lavouras Temporárias", "area_ha": 0.94}, "geometry": {"type": "Polygon", "coordinates": [[[-51.96529339810404, -29.42530527814745], [-51.96556289268928, -29.422610332295093], [-51.965023903518805, -29.42395780522127], [-51.96448491434833, -29.423688310636035], [-51.96529339810404, -29.42530527814745]]]}}, {"id": "97", "type": "Feature", "properties": {"cultura": "Outras Lavouras Temporárias", "area_ha": 0.47}, "geometry": {"type": "Polygon", "coordinates": [[[-51.96205946308121, -29.422610332295093], [-51.96205946308121, -29.4234188160508], [-51.96313744142215, -29.42287982688033], [-51.96205946308121, -29.422610332295093]]]}}, {"id": "98", "type": "Feature", "properties": {"cultura": "Outras Lavouras Temporárias", "area_ha": 0.08}, "geometry": {"type": "Polygon", "coordinates": [[[-51.96529339810404, -29.42207134312462], [-51.965023903518805, -29.42207134312462], [-51.965023903518805, -29.422610332295093], [-51.96529339810404, -29.42207134312462]]]}}, {"id": "99", "type": "Feature", "properties": {"cultura": "Outras Lavouras Temporárias", "area_ha": 0.04}, "geometry": {"type": "Polygon", "coordinates": [[[-51.964754408933565, -29.42207134312462], [-51.965023903518805, -29.42207134312462], [-51.965023903518805, -29.421801848539385], [-51.964754408933565, -29.42207134312462]]]}}, {"id": "100", "type": "Feature", "properties": {"cultura": "Outras Lavouras Temporárias", "area_ha": 0.01}, "geometry": {"type": "Polygon", "coordinates": [[[-51.98685296492291, -29.418298418931318], [-51.98685296492291, -29.41849104679441], [-51.98691179234213, -29.41844548747936], [-51.98685296492291, -29.418298418931318]]]}}, {"id": "101", "type": "Feature", "properties": {"cultura": "Outras Lavouras Temporárias", "area_ha": 0.08}, "geometry": {"type": "Polygon", "coordinates": [[[-51.98658347033767, -29.418298418931318], [-51.98685296492291, -29.418298418931318], [-51.98685296492291, -29.417759429760846], [-51.98658347033767, -29.418298418931318]]]}}, {"id": "102", "type": "Feature", "properties": {"cultura": "Outras Lavouras Temporárias", "area_ha": 1.05}, "geometry": {"type": "Polygon", "coordinates": [[[-51.98523599741149, -29.414525494738015], [-51.98523599741149, -29.41560347307896], [-51.9860444811672, -29.41560347307896], [-51.9860444811672, -29.41425600015278], [-51.98523599741149, -29.414525494738015]]]}}, {"id": "103", "type": "Feature", "properties": {"cultura": "Outras Lavouras Temporárias", "area_ha": 0.31}, "geometry": {"type": "Polygon", "coordinates": [[[-51.98523599741149, -29.413986505567546], [-51.98415801907055, -29.414525494738015], [-51.98469700824102, -29.41479498932325], [-51.98523599741149, -29.413986505567546]]]}}, {"id": "104", "type": "Feature", "properties": {"cultura": "Outras Lavouras Temporárias", "area_ha": 0.04}, "geometry": {"type": "Polygon", "coordinates": [[[-51.98631397575244, -29.41425600015278], [-51.98631397575244, -29.413986505567546], [-51.9860444811672, -29.413986505567546], [-51.98631397575244, -29.41425600015278]]]}}, {"id": "105", "type": "Feature", "properties": {"cultura": "Outras Lavouras Temporárias", "area_ha": 0.04}, "geometry": {"type": "Polygon", "coordinates": [[[-51.985505491996726, -29.413986505567546], [-51.985505491996726, -29.41371701098231], [-51.98523599741149, -29.41371701098231], [-51.985505491996726, -29.413986505567546]]]}}, {"id": "106", "type": "Feature", "properties": {"cultura": "Outras Lavouras Temporárias", "area_ha": 0.04}, "geometry": {"type": "Polygon", "coordinates": [[[-51.98496650282625, -29.41371701098231], [-51.98523599741149, -29.41371701098231], [-51.98523599741149, -29.413447516397074], [-51.98496650282625, -29.41371701098231]]]}}, {"id": "107", "type": "Feature", "properties": {"cultura": "Outras Lavouras Temporárias", "area_ha": 0.82}, "geometry": {"type": "Polygon", "coordinates": [[[-51.993590329553804, -29.41156105430042], [-51.9927818457981, -29.412100043470893], [-51.9927818457981, -29.413979768982763], [-51.9927840969179, -29.413979752208146], [-51.993590329553804, -29.41156105430042]]]}}, {"id": "108", "type": "Feature", "properties": {"cultura": "Outras Lavouras Temporárias", "area_ha": 0.23}, "geometry": {"type": "Polygon", "coordinates": [[[-51.923521737392484, -29.45279372584151], [-51.923521737392484, -29.452524231256273], [-51.92190476988107, -29.452524231256273], [-51.923521737392484, -29.45279372584151]]]}}, {"id": "109", "type": "Feature", "properties": {"cultura": "Outras Lavouras Temporárias", "area_ha": 0.35}, "geometry": {"type": "Polygon", "coordinates": [[[-51.92433022114819, -29.452524231256273], [-51.92379123197772, -29.451715747500565], [-51.923521737392484, -29.452524231256273], [-51.92433022114819, -29.452524231256273]]]}}, {"id": "110", "type": "Feature", "properties": {"cultura": "Outras Lavouras Temporárias", "area_ha": 0.04}, "geometry": {"type": "Polygon", "coordinates": [[[-51.92459971573342, -29.452254736671037], [-51.92459971573342, -29.4519852420858], [-51.92433022114819, -29.4519852420858], [-51.92459971573342, -29.452254736671037]]]}}, {"id": "111", "type": "Feature", "properties": {"cultura": "Outras Lavouras Temporárias", "area_ha": 0.66}, "geometry": {"type": "Polygon", "coordinates": [[[-51.92163527529583, -29.450368274574384], [-51.92190476988107, -29.45144625291533], [-51.92298274822201, -29.451176758330092], [-51.92163527529583, -29.450368274574384]]]}}, {"id": "112", "type": "Feature", "properties": {"cultura": "Outras Lavouras Temporárias", "area_ha": 0.04}, "geometry": {"type": "Polygon", "coordinates": [[[-51.92298274822201, -29.450907263744856], [-51.923252242807244, -29.450907263744856], [-51.923252242807244, -29.45063776915962], [-51.92298274822201, -29.450907263744856]]]}}, {"id": "113", "type": "Feature", "properties": {"cultura": "Outras Lavouras Temporárias", "area_ha": 5.19}, "geometry": {"type": "Polygon", "coordinates": [[[-51.92486921031866, -29.450907263744856], [-51.92459971573342, -29.45009877998915], [-51.925947188659606, -29.450368274574384], [-51.92648617783008, -29.449290296233443], [-51.92486921031866, -29.448481812477734], [-51.92244375905154, -29.45009877998915], [-51.92486921031866, -29.450907263744856]]]}}, {"id": "114", "type": "Feature", "properties": {"cultura": "Outras Lavouras Temporárias", "area_ha": 0.04}, "geometry": {"type": "Polygon", "coordinates": [[[-51.9221742644663, -29.449829285403915], [-51.9221742644663, -29.44955979081868], [-51.92190476988107, -29.44955979081868], [-51.9221742644663, -29.449829285403915]]]}}, {"id": "115", "type": "Feature", "properties": {"cultura": "Outras Lavouras Temporárias", "area_ha": 0.31}, "geometry": {"type": "Polygon", "coordinates": [[[-51.92163527529583, -29.44875130706297], [-51.92163527529583, -29.44955979081868], [-51.92190476988107, -29.44955979081868], [-51.9221742644663, -29.449020801648206], [-51.92163527529583, -29.44875130706297]]]}}, {"id": "116", "type": "Feature", "properties": {"cultura": "Outras Lavouras Temporárias", "area_ha": 0.04}, "geometry": {"type": "Polygon", "coordinates": [[[-51.925677694074366, -29.448481812477734], [-51.925947188659606, -29.448481812477734], [-51.925947188659606, -29.448212317892498], [-51.925677694074366, -29.448481812477734]]]}}, {"id": "117", "type": "Feature", "properties": {"cultura": "Outras Lavouras Temporárias", "area_ha": 0.04}, "geometry": {"type": "Polygon", "coordinates": [[[-51.925408199489134, -29.448212317892498], [-51.925677694074366, -29.448212317892498], [-51.925677694074366, -29.44794282330726], [-51.925408199489134, -29.448212317892498]]]}}, {"id": "118", "type": "Feature", "properties": {"cultura": "Outras Lavouras Temporárias", "area_ha": 0.08}, "geometry": {"type": "Polygon", "coordinates": [[[-51.92486921031866, -29.447134339551557], [-51.92486921031866, -29.44686484496632], [-51.92433022114819, -29.44686484496632], [-51.92486921031866, -29.447134339551557]]]}}, {"id": "119", "type": "Feature", "properties": {"cultura": "Outras Lavouras Temporárias", "area_ha": 0.39}, "geometry": {"type": "Polygon", "coordinates": [[[-51.92837263992673, -29.44686484496632], [-51.92945061826767, -29.44740383413679], [-51.92918112368243, -29.446595350381084], [-51.92837263992673, -29.44686484496632]]]}}, {"id": "120", "type": "Feature", "properties": {"cultura": "Outras Lavouras Temporárias", "area_ha": 0.12}, "geometry": {"type": "Polygon", "coordinates": [[[-51.923521737392484, -29.44686484496632], [-51.92433022114819, -29.44686484496632], [-51.92433022114819, -29.446595350381084], [-51.923521737392484, -29.44686484496632]]]}}, {"id": "121", "type": "Feature", "properties": {"cultura": "Outras Lavouras Temporárias", "area_ha": 0.09}, "geometry": {"type": "Polygon", "coordinates": [[[-51.93360403444162, -29.446812012569712], [-51.933762531631444, -29.446595350381084], [-51.93295404787573, -29.446595350381084], [-51.93360403444162, -29.446812012569712]]]}}, {"id": "123", "type": "Feature", "properties": {"cultura": "Outras Lavouras Temporárias", "area_ha": 0.12}, "geometry": {"type": "Polygon", "coordinates": [[[-51.923252242807244, -29.446595350381084], [-51.923252242807244, -29.44632585579585], [-51.92244375905154, -29.44632585579585], [-51.923252242807244, -29.446595350381084]]]}}, {"id": "124", "type": "Feature", "properties": {"cultura": "Outras Lavouras Temporárias", "area_ha": 0.08}, "geometry": {"type": "Polygon", "coordinates": [[[-51.93403202621668, -29.44632585579585], [-51.933762531631444, -29.446056361210612], [-51.933762531631444, -29.446595350381084], [-51.93403202621668, -29.44632585579585]]]}}, {"id": "125", "type": "Feature", "properties": {"cultura": "Outras Lavouras Temporárias", "area_ha": 0.08}, "geometry": {"type": "Polygon", "coordinates": [[[-51.9221742644663, -29.44632585579585], [-51.92244375905154, -29.445786866625376], [-51.9221742644663, -29.445786866625376], [-51.9221742644663, -29.44632585579585]]]}}, {"id": "126", "type": "Feature", "properties": {"cultura": "Outras Lavouras Temporárias", "area_ha": 0.04}, "geometry": {"type": "Polygon", "coordinates": [[[-51.92190476988107, -29.445786866625376], [-51.9221742644663, -29.445786866625376], [-51.9221742644663, -29.44551737204014], [-51.92190476988107, -29.445786866625376]]]}}, {"id": "127", "type": "Feature", "properties": {"cultura": "Outras Lavouras Temporárias", "area_ha": 0.08}, "geometry": {"type": "Polygon", "coordinates": [[[-51.93430152080192, -29.445786866625376], [-51.93430152080192, -29.445247877454904], [-51.93403202621668, -29.445247877454904], [-51.93430152080192, -29.445786866625376]]]}}, {"id": "128", "type": "Feature", "properties": {"cultura": "Outras Lavouras Temporárias", "area_ha": 1.64}, "geometry": {"type": "Polygon", "coordinates": [[[-51.92837263992673, -29.44551737204014], [-51.92621668324484, -29.44470888828443], [-51.92675567241531, -29.44632585579585], [-51.92837263992673, -29.44551737204014]]]}}, {"id": "129", "type": "Feature", "properties": {"cultura": "Outras Lavouras Temporárias", "area_ha": 0.04}, "geometry": {"type": "Polygon", "coordinates": [[[-51.929720112852905, -29.44551737204014], [-51.92998960743814, -29.44551737204014], [-51.92998960743814, -29.445247877454904], [-51.929720112852905, -29.44551737204014]]]}}, {"id": "130", "type": "Feature", "properties": {"cultura": "Outras Lavouras Temporárias", "area_ha": 0.12}, "geometry": {"type": "Polygon", "coordinates": [[[-51.93106758577908, -29.445247877454904], [-51.93025910202338, -29.445247877454904], [-51.93025910202338, -29.44551737204014], [-51.93106758577908, -29.445247877454904]]]}}, {"id": "131", "type": "Feature", "properties": {"cultura": "Outras Lavouras Temporárias", "area_ha": 0.04}, "geometry": {"type": "Polygon", "coordinates": [[[-51.92998960743814, -29.445247877454904], [-51.93025910202338, -29.445247877454904], [-51.93025910202338, -29.444978382869667], [-51.92998960743814, -29.445247877454904]]]}}, {"id": "132", "type": "Feature", "properties": {"cultura": "Outras Lavouras Temporárias", "area_ha": 0.39}, "geometry": {"type": "Polygon", "coordinates": [[[-51.93430152080192, -29.443900404528726], [-51.93403202621668, -29.44470888828443], [-51.93295404787573, -29.44470888828443], [-51.93403202621668, -29.445247877454904], [-51.93430152080192, -29.443900404528726]]]}}, {"id": "133", "type": "Feature", "properties": {"cultura": "Outras Lavouras Temporárias", "area_ha": 0.23}, "geometry": {"type": "Polygon", "coordinates": [[[-51.93079809119385, -29.443900404528726], [-51.93079809119385, -29.443361415358254], [-51.92998960743814, -29.443361415358254], [-51.93079809119385, -29.443900404528726]]]}}, {"id": "134", "type": "Feature", "properties": {"cultura": "Outras Lavouras Temporárias", "area_ha": 0.08}, "geometry": {"type": "Polygon", "coordinates": [[[-51.93403202621668, -29.44363090994349], [-51.93430152080192, -29.44363090994349], [-51.93430152080192, -29.443091920773018], [-51.93403202621668, -29.44363090994349]]]}}, {"id": "135", "type": "Feature", "properties": {"cultura": "Outras Lavouras Temporárias", "area_ha": 0.59}, "geometry": {"type": "Polygon", "coordinates": [[[-51.93106758577908, -29.442552931602545], [-51.931876069534795, -29.443361415358254], [-51.93241505870527, -29.442552931602545], [-51.93106758577908, -29.442552931602545]]]}}, {"id": "136", "type": "Feature", "properties": {"cultura": "Outras Lavouras Temporárias", "area_ha": 0.08}, "geometry": {"type": "Polygon", "coordinates": [[[-51.93403202621668, -29.443091920773018], [-51.93403202621668, -29.44282242618778], [-51.933493037046205, -29.44282242618778], [-51.93403202621668, -29.443091920773018]]]}}, {"id": "137", "type": "Feature", "properties": {"cultura": "Outras Lavouras Temporárias", "area_ha": 0.03}, "geometry": {"type": "Polygon", "coordinates": [[[-51.93537949914286, -29.442552931602545], [-51.935637270692226, -29.442532535428988], [-51.935648993728094, -29.44228343701731], [-51.93537949914286, -29.442552931602545]]]}}, {"id": "138", "type": "Feature", "properties": {"cultura": "Outras Lavouras Temporárias", "area_ha": 0.08}, "geometry": {"type": "Polygon", "coordinates": [[[-51.93295404787573, -29.442552931602545], [-51.93295404787573, -29.44228343701731], [-51.93241505870527, -29.44228343701731], [-51.93295404787573, -29.442552931602545]]]}}, {"id": "139", "type": "Feature", "properties": {"cultura": "Outras Lavouras Temporárias", "area_ha": 1.05}, "geometry": {"type": "Polygon", "coordinates": [[[-51.93052859660861, -29.442552931602545], [-51.93079809119385, -29.4414749532616], [-51.9289116290972, -29.441744447846837], [-51.93052859660861, -29.442552931602545]]]}}, {"id": "140", "type": "Feature", "properties": {"cultura": "Outras Lavouras Temporárias", "area_ha": 1.72}, "geometry": {"type": "Polygon", "coordinates": [[[-51.925138704903894, -29.441205458676365], [-51.92433022114819, -29.440935964091132], [-51.92298274822201, -29.441744447846837], [-51.92486921031866, -29.44228343701731], [-51.925138704903894, -29.441205458676365]]]}}, {"id": "141", "type": "Feature", "properties": {"cultura": "Outras Lavouras Temporárias", "area_ha": 2.93}, "geometry": {"type": "Polygon", "coordinates": [[[-51.93484050997239, -29.44282242618778], [-51.93537949914286, -29.441744447846837], [-51.93672697206904, -29.441744447846837], [-51.936187982898566, -29.440666469505896], [-51.93457101538715, -29.440935964091132], [-51.93511000455762, -29.440127480335423], [-51.93430152080192, -29.440127480335423], [-51.93484050997239, -29.442013942432073], [-51.93403202621668, -29.44282242618778], [-51.93484050997239, -29.44282242618778]]]}}, {"id": "142", "type": "Feature", "properties": {"cultura": "Outras Lavouras Temporárias", "area_ha": 0.86}, "geometry": {"type": "Polygon", "coordinates": [[[-51.933493037046205, -29.442013942432073], [-51.93403202621668, -29.440935964091132], [-51.9326845532905, -29.440666469505896], [-51.933493037046205, -29.442013942432073]]]}}, {"id": "143", "type": "Feature", "properties": {"cultura": "Outras Lavouras Temporárias", "area_ha": 0.16}, "geometry": {"type": "Polygon", "coordinates": [[[-51.92998960743814, -29.4414749532616], [-51.92998960743814, -29.440935964091132], [-51.92945061826767, -29.440935964091132], [-51.92998960743814, -29.4414749532616]]]}}, {"id": "144", "type": "Feature", "properties": {"cultura": "Outras Lavouras Temporárias", "area_ha": 0.04}, "geometry": {"type": "Polygon", "coordinates": [[[-51.93241505870527, -29.440935964091132], [-51.93241505870527, -29.440666469505896], [-51.93214556412003, -29.440666469505896], [-51.93241505870527, -29.440935964091132]]]}}, {"id": "145", "type": "Feature", "properties": {"cultura": "Outras Lavouras Temporárias", "area_ha": 2.03}, "geometry": {"type": "Polygon", "coordinates": [[[-51.92998960743814, -29.440127480335423], [-51.9289116290972, -29.439857985750187], [-51.927833650756256, -29.4414749532616], [-51.92918112368243, -29.4414749532616], [-51.92998960743814, -29.440127480335423]], [[-51.9289116290972, -29.440935964091132], [-51.92864213451196, -29.440935964091132], [-51.92864213451196, -29.440666469505896], [-51.9289116290972, -29.440935964091132]]]}}, {"id": "146", "type": "Feature", "properties": {"cultura": "Outras Lavouras Temporárias", "area_ha": 1.17}, "geometry": {"type": "Polygon", "coordinates": [[[-51.93322354246097, -29.43958849116495], [-51.93241505870527, -29.439318996579715], [-51.931606574949555, -29.44039697492066], [-51.93295404787573, -29.44039697492066], [-51.93322354246097, -29.43958849116495]]]}}, {"id": "147", "type": "Feature", "properties": {"cultura": "Outras Lavouras Temporárias", "area_ha": 0.03}, "geometry": {"type": "Polygon", "coordinates": [[[-51.931606574949555, -29.439857985750187], [-51.9315481824948, -29.439601086506737], [-51.93133708036432, -29.43958849116495], [-51.931606574949555, -29.439857985750187]]]}}, {"id": "148", "type": "Feature", "properties": {"cultura": "Outras Lavouras Temporárias", "area_ha": 0.35}, "geometry": {"type": "Polygon", "coordinates": [[[-51.925138704903894, -29.43958849116495], [-51.925947188659606, -29.439857985750187], [-51.925947188659606, -29.43904950199448], [-51.925138704903894, -29.43958849116495]]]}}, {"id": "149", "type": "Feature", "properties": {"cultura": "Outras Lavouras Temporárias", "area_ha": 0.04}, "geometry": {"type": "Polygon", "coordinates": [[[-51.93591848831333, -29.43904950199448], [-51.93591848831333, -29.438780007409243], [-51.935648993728094, -29.438780007409243], [-51.93591848831333, -29.43904950199448]]]}}, {"id": "150", "type": "Feature", "properties": {"cultura": "Outras Lavouras Temporárias", "area_ha": 0.08}, "geometry": {"type": "Polygon", "coordinates": [[[-51.93537949914286, -29.438780007409243], [-51.935648993728094, -29.438510512824006], [-51.93511000455762, -29.438510512824006], [-51.93537949914286, -29.438780007409243]]]}}, {"id": "151", "type": "Feature", "properties": {"cultura": "Outras Lavouras Temporárias", "area_ha": 0.04}, "geometry": {"type": "Polygon", "coordinates": [[[-51.935648993728094, -29.43824101823877], [-51.935648993728094, -29.438510512824006], [-51.93591848831333, -29.438510512824006], [-51.935648993728094, -29.43824101823877]]]}}, {"id": "152", "type": "Feature", "properties": {"cultura": "Outras Lavouras Temporárias", "area_ha": 0.08}, "geometry": {"type": "Polygon", "coordinates": [[[-51.93591848831333, -29.43824101823877], [-51.9364574774838, -29.43824101823877], [-51.9364574774838, -29.437971523653538], [-51.93591848831333, -29.43824101823877]]]}}, {"id": "153", "type": "Feature", "properties": {"cultura": "Outras Lavouras Temporárias", "area_ha": 0.04}, "geometry": {"type": "Polygon", "coordinates": [[[-51.92648617783008, -29.437971523653538], [-51.92648617783008, -29.4377020290683], [-51.92621668324484, -29.4377020290683], [-51.92648617783008, -29.437971523653538]]]}}, {"id": "154", "type": "Feature", "properties": {"cultura": "Outras Lavouras Temporárias", "area_ha": 0.49}, "geometry": {"type": "Polygon", "coordinates": [[[-51.932702022795944, -29.43724704825776], [-51.931606574949555, -29.438510512824006], [-51.932321789914646, -29.438510512824006], [-51.932702022795944, -29.43724704825776]]]}}, {"id": "155", "type": "Feature", "properties": {"cultura": "Outras Lavouras Temporárias", "area_ha": 0.39}, "geometry": {"type": "Polygon", "coordinates": [[[-51.937535455824744, -29.43824101823877], [-51.938074444995216, -29.438510512824006], [-51.938074444995216, -29.43716303989783], [-51.937535455824744, -29.43824101823877]]]}}, {"id": "156", "type": "Feature", "properties": {"cultura": "Outras Lavouras Temporárias", "area_ha": 0.04}, "geometry": {"type": "Polygon", "coordinates": [[[-51.92648617783008, -29.4377020290683], [-51.92675567241531, -29.4377020290683], [-51.92675567241531, -29.437432534483065], [-51.92648617783008, -29.4377020290683]]]}}, {"id": "157", "type": "Feature", "properties": {"cultura": "Outras Lavouras Temporárias", "area_ha": 0.35}, "geometry": {"type": "Polygon", "coordinates": [[[-51.935648993728094, -29.43824101823877], [-51.9364574774838, -29.43716303989783], [-51.93484050997239, -29.438510512824006], [-51.935648993728094, -29.43824101823877]]]}}, {"id": "158", "type": "Feature", "properties": {"cultura": "Outras Lavouras Temporárias", "area_ha": 0.08}, "geometry": {"type": "Polygon", "coordinates": [[[-51.92729466158578, -29.437432534483065], [-51.92729466158578, -29.43716303989783], [-51.92675567241531, -29.43716303989783], [-51.92729466158578, -29.437432534483065]]]}}, {"id": "159", "type": "Feature", "properties": {"cultura": "Outras Lavouras Temporárias", "area_ha": 0.04}, "geometry": {"type": "Polygon", "coordinates": [[[-51.92729466158578, -29.436893545312593], [-51.92729466158578, -29.43716303989783], [-51.927564156171016, -29.43716303989783], [-51.92729466158578, -29.436893545312593]]]}}, {"id": "160", "type": "Feature", "properties": {"cultura": "Outras Lavouras Temporárias", "area_ha": 0.08}, "geometry": {"type": "Polygon", "coordinates": [[[-51.92810314534149, -29.436893545312593], [-51.92810314534149, -29.436624050727357], [-51.927564156171016, -29.436624050727357], [-51.92810314534149, -29.436893545312593]]]}}, {"id": "161", "type": "Feature", "properties": {"cultura": "Outras Lavouras Temporárias", "area_ha": 0.04}, "geometry": {"type": "Polygon", "coordinates": [[[-51.93780495040998, -29.436085061556884], [-51.938074444995216, -29.436085061556884], [-51.938074444995216, -29.435815566971648], [-51.93780495040998, -29.436085061556884]]]}}, {"id": "162", "type": "Feature", "properties": {"cultura": "Outras Lavouras Temporárias", "area_ha": 0.08}, "geometry": {"type": "Polygon", "coordinates": [[[-51.93861343416569, -29.435815566971648], [-51.93861343416569, -29.435546072386412], [-51.938074444995216, -29.435546072386412], [-51.93861343416569, -29.435815566971648]]]}}, {"id": "163", "type": "Feature", "properties": {"cultura": "Outras Lavouras Temporárias", "area_ha": 0.04}, "geometry": {"type": "Polygon", "coordinates": [[[-51.94238635835899, -29.435546072386412], [-51.94238635835899, -29.435276577801176], [-51.942116863773755, -29.435276577801176], [-51.94238635835899, -29.435546072386412]]]}}, {"id": "164", "type": "Feature", "properties": {"cultura": "Outras Lavouras Temporárias", "area_ha": 0.23}, "geometry": {"type": "Polygon", "coordinates": [[[-51.933762531631444, -29.435007083215943], [-51.93295404787573, -29.435007083215943], [-51.93295404787573, -29.435546072386412], [-51.933762531631444, -29.435007083215943]]]}}, {"id": "165", "type": "Feature", "properties": {"cultura": "Outras Lavouras Temporárias", "area_ha": 0.43}, "geometry": {"type": "Polygon", "coordinates": [[[-51.93969141250663, -29.435007083215943], [-51.93888292875092, -29.435546072386412], [-51.939960907091866, -29.435815566971648], [-51.93969141250663, -29.435007083215943]]]}}, {"id": "166", "type": "Feature", "properties": {"cultura": "Outras Lavouras Temporárias", "area_ha": 0.08}, "geometry": {"type": "Polygon", "coordinates": [[[-51.94346433669993, -29.435546072386412], [-51.94346433669993, -29.435276577801176], [-51.94292534752946, -29.435276577801176], [-51.94346433669993, -29.435546072386412]]]}}, {"id": "167", "type": "Feature", "properties": {"cultura": "Outras Lavouras Temporárias", "area_ha": 1.16}, "geometry": {"type": "Polygon", "coordinates": [[[-51.93438828990553, -29.435511024502276], [-51.93537594373062, -29.435395794165846], [-51.93537949914286, -29.434737588630707], [-51.933762531631444, -29.43446809404547], [-51.93438828990553, -29.435511024502276]]]}}, {"id": "168", "type": "Feature", "properties": {"cultura": "Outras Lavouras Temporárias", "area_ha": 0.16}, "geometry": {"type": "Polygon", "coordinates": [[[-51.937535455824744, -29.435546072386412], [-51.938074444995216, -29.435007083215943], [-51.937535455824744, -29.435007083215943], [-51.937535455824744, -29.435546072386412]]]}}, {"id": "169", "type": "Feature", "properties": {"cultura": "Outras Lavouras Temporárias", "area_ha": 0.08}, "geometry": {"type": "Polygon", "coordinates": [[[-51.94238635835899, -29.435276577801176], [-51.94292534752946, -29.435007083215943], [-51.94238635835899, -29.435007083215943], [-51.94238635835899, -29.435276577801176]]]}}, {"id": "170", "type": "Feature", "properties": {"cultura": "Outras Lavouras Temporárias", "area_ha": 0.04}, "geometry": {"type": "Polygon", "coordinates": [[[-51.94292534752946, -29.435007083215943], [-51.9431948421147, -29.435007083215943], [-51.9431948421147, -29.434737588630707], [-51.94292534752946, -29.435007083215943]]]}}, {"id": "171", "type": "Feature", "properties": {"cultura": "Outras Lavouras Temporárias", "area_ha": 0.59}, "geometry": {"type": "Polygon", "coordinates": [[[-51.93969141250663, -29.434737588630707], [-51.940230401677105, -29.433929104875], [-51.93888292875092, -29.433929104875], [-51.93969141250663, -29.434737588630707]]]}}, {"id": "172", "type": "Feature", "properties": {"cultura": "Outras Lavouras Temporárias", "area_ha": 0.16}, "geometry": {"type": "Polygon", "coordinates": [[[-51.94292534752946, -29.433929104875], [-51.94292534752946, -29.433390115704526], [-51.94238635835899, -29.433390115704526], [-51.94292534752946, -29.433929104875]]]}}, {"id": "173", "type": "Feature", "properties": {"cultura": "Outras Lavouras Temporárias", "area_ha": 0.31}, "geometry": {"type": "Polygon", "coordinates": [[[-51.94238635835899, -29.43312062111929], [-51.94130838001805, -29.432851126534054], [-51.94130838001805, -29.433390115704526], [-51.94238635835899, -29.43312062111929]]]}}, {"id": "174", "type": "Feature", "properties": {"cultura": "Outras Lavouras Temporárias", "area_ha": 0.12}, "geometry": {"type": "Polygon", "coordinates": [[[-51.9431948421147, -29.432851126534054], [-51.9431948421147, -29.432581631948818], [-51.94238635835899, -29.432581631948818], [-51.9431948421147, -29.432851126534054]]]}}, {"id": "175", "type": "Feature", "properties": {"cultura": "Outras Lavouras Temporárias", "area_ha": 0.2}, "geometry": {"type": "Polygon", "coordinates": [[[-51.94373383128517, -29.43042567526693], [-51.94373383128517, -29.430156180681696], [-51.94238635835899, -29.430156180681696], [-51.94373383128517, -29.43042567526693]]]}}, {"id": "176", "type": "Feature", "properties": {"cultura": "Soja", "area_ha": 0.01}, "geometry": {"type": "Polygon", "coordinates": [[[-52.0543482967812, -29.420336987964628], [-52.05428467825724, -29.420165525352843], [-52.05422661123187, -29.420184881027968], [-52.0543482967812, -29.420336987964628]]]}}, {"id": "176", "type": "Feature", "properties": {"cultura": "Soja", "area_ha": 0.0}, "geometry": {"type": "Polygon", "coordinates": [[[-52.05441095369564, -29.420415309107682], [-52.054379419414126, -29.420356217518076], [-52.05434943093846, -29.42033840566121], [-52.05441095369564, -29.420415309107682]]]}}, {"id": "177", "type": "Feature", "properties": {"cultura": "Soja", "area_ha": 0.0}, "geometry": {"type": "Polygon", "coordinates": [[[-52.047969495722356, -29.42252758144037], [-52.04764802364075, -29.422340837709857], [-52.04764811372773, -29.42234961716786], [-52.047969495722356, -29.42252758144037]]]}}, {"id": "178", "type": "Feature", "properties": {"cultura": "Soja", "area_ha": 0.01}, "geometry": {"type": "Polygon", "coordinates": [[[-52.045602784504325, -29.419376397272263], [-52.04548845724617, -29.41960505178856], [-52.04566515158617, -29.419423172583645], [-52.045602784504325, -29.419376397272263]]]}}, {"id": "179", "type": "Feature", "properties": {"cultura": "Soja", "area_ha": 0.17}, "geometry": {"type": "Polygon", "coordinates": [[[-52.04790166350758, -29.41692247408628], [-52.04817246029099, -29.41619070439218], [-52.047826839224925, -29.41594975841181], [-52.04790166350758, -29.41692247408628]]]}}, {"id": "180", "type": "Feature", "properties": {"cultura": "Soja", "area_ha": 0.03}, "geometry": {"type": "Polygon", "coordinates": [[[-52.0461417736748, -29.41748993517561], [-52.0461417736748, -29.417136201690248], [-52.04600045410436, -29.417480246951197], [-52.0461417736748, -29.41748993517561]]]}}, {"id": "180", "type": "Feature", "properties": {"cultura": "Soja", "area_ha": 0.39}, "geometry": {"type": "Polygon", "coordinates": [[[-52.0461417736748, -29.415872967664196], [-52.04458929149306, -29.415562471227847], [-52.046133103364, -29.416342103031262], [-52.0461417736748, -29.415872967664196]]]}}, {"id": "181", "type": "Feature", "properties": {"cultura": "Soja", "area_ha": 1.06}, "geometry": {"type": "Polygon", "coordinates": [[[-52.03504782831096, -29.413858032872653], [-52.03474853357383, -29.4128031061367], [-52.0337680523062, -29.411917277257846], [-52.03392092418797, -29.41308929501805], [-52.03504782831096, -29.413858032872653]]]}}, {"id": "181", "type": "Feature", "properties": {"cultura": "Soja", "area_ha": 1.82}, "geometry": {"type": "Polygon", "coordinates": [[[-52.03536199026536, -29.409944086789007], [-52.03347552816871, -29.40967459220377], [-52.033685736653446, -29.41128619058677], [-52.03416914211408, -29.410551442965488], [-52.03512079257747, -29.410886989820252], [-52.03536199026536, -29.409944086789007]]]}}, {"id": "182", "type": "Feature", "properties": {"cultura": "Soja", "area_ha": 0.04}, "geometry": {"type": "Polygon", "coordinates": [[[-52.039134914458664, -29.409944086789007], [-52.039134914458664, -29.410205970403954], [-52.0394044090439, -29.410213581374244], [-52.039134914458664, -29.409944086789007]]]}}, {"id": "183", "type": "Feature", "properties": {"cultura": "Soja", "area_ha": 0.16}, "geometry": {"type": "Polygon", "coordinates": [[[-52.039134914458664, -29.409944086789007], [-52.039134914458664, -29.40967459220377], [-52.03805693611772, -29.409405097618535], [-52.039134914458664, -29.409944086789007]]]}}, {"id": "184", "type": "Feature", "properties": {"cultura": "Soja", "area_ha": 10.81}, "geometry": {"type": "Polygon", "coordinates": [[[-52.02619917436734, -29.409944086789007], [-52.02727715270829, -29.409405097618535], [-52.02754664729352, -29.41048307595948], [-52.02835513104923, -29.410213581374244], [-52.026738163537814, -29.40832711927759], [-52.026738163537814, -29.40644065718094], [-52.02323473392975, -29.406979646351413], [-52.02350422851498, -29.408596613862827], [-52.02619917436734, -29.409944086789007]]]}}, {"id": "185", "type": "Feature", "properties": {"cultura": "Soja", "area_ha": 10.7}, "geometry": {"type": "Polygon", "coordinates": [[[-52.02781614187876, -29.407518635521885], [-52.02781614187876, -29.408596613862827], [-52.02973368122555, -29.408167187471474], [-52.03078058231635, -29.404823689669527], [-52.029163614804936, -29.405632173425232], [-52.029163614804936, -29.40455419508429], [-52.02808563646399, -29.404284700499055], [-52.0251211960264, -29.405632173425232], [-52.02566018519687, -29.406171162595705], [-52.02754664729352, -29.405632173425232], [-52.02754664729352, -29.40644065718094], [-52.028894120219704, -29.40644065718094], [-52.028894120219704, -29.40724914093665], [-52.02781614187876, -29.407518635521885]], [[-52.02700765812305, -29.405362678839996], [-52.02727715270829, -29.405362678839996], [-52.02727715270829, -29.405632173425232], [-52.02700765812305, -29.405362678839996]]]}}, {"id": "186", "type": "Feature", "properties": {"cultura": "Soja", "area_ha": 24.86}, "geometry": {"type": "Polygon", "coordinates": [[[-52.016227874713614, -29.411830548885657], [-52.018114336810264, -29.41156105430042], [-52.01919231515121, -29.40967459220377], [-52.023193647160895, -29.410455684780246], [-52.02242625017404, -29.409944086789007], [-52.02242625017404, -29.40724914093665], [-52.01272444510555, -29.408866108448063], [-52.01299393969079, -29.410213581374244], [-52.01488040178744, -29.409944086789007], [-52.016497369298854, -29.411022065129952], [-52.016227874713614, -29.411830548885657]], [[-52.01568888554314, -29.40967459220377], [-52.01568888554314, -29.409944086789007], [-52.01488040178744, -29.409944086789007], [-52.01568888554314, -29.40967459220377]], [[-52.01649039593577, -29.408268872049018], [-52.01648000006165, -29.408259926676536], [-52.016490306145776, -29.408259848056968], [-52.01649039593577, -29.408268872049018]], [[-52.01651118768947, -29.408286762791388], [-52.01652140398339, -29.4082776601774], [-52.0165214937762, -29.40828668416934], [-52.01651118768947, -29.408286762791388]], [[-52.01651109789757, -29.40827773879941], [-52.016500702020764, -29.40826879342862], [-52.01651100810572, -29.40826871480743], [-52.01651109789757, -29.40827773879941]], [[-52.016531710069174, -29.408277581554586], [-52.016841072265684, -29.408293270481714], [-52.01653188965665, -29.4082956295384], [-52.016531710069174, -29.408277581554586]], [[-52.01688202713681, -29.408265883913835], [-52.016892423045775, -29.40827482925408], [-52.01688211696142, -29.408274907904783], [-52.01688202713681, -29.408265883913835]], [[-52.01688211696142, -29.408274907904783], [-52.016861594615435, -29.408284089194794], [-52.0168615047926, -29.40827506520381], [-52.01688211696142, -29.408274907904783]], [[-52.01702622246391, -29.408255758741316], [-52.01695399005818, -29.408247285360854], [-52.01702613262665, -29.40824673475075], [-52.01702622246391, -29.408255758741316]], [[-52.017159482734485, -29.408182544153846], [-52.01716987865835, -29.40819148947217], [-52.017159572583296, -29.408191568144122], [-52.017159482734485, -29.408182544153846]], [[-52.017159572583296, -29.408191568144122], [-52.0171390502801, -29.408200749475977], [-52.017138960433066, -29.408191725485654], [-52.017159572583296, -29.408191568144122]], [[-52.01719049080833, -29.408191332125853], [-52.01718009488273, -29.408182386809184], [-52.01719040095679, -29.408182308135657], [-52.01719049080833, -29.408191332125853]], [[-52.017211013104784, -29.408182150786224], [-52.017200617178396, -29.408173205471165], [-52.01721092325146, -29.408173126796076], [-52.017211013104784, -29.408182150786224]], [[-52.01723162525263, -29.4081819934336], [-52.01722122932449, -29.4081730481202], [-52.01723153539748, -29.408172969443505], [-52.01723162525263, -29.4081819934336]], [[-52.01732411032598, -29.40815421333781], [-52.01730340832295, -29.40814534671468], [-52.017324020462766, -29.408145189347938], [-52.01732411032598, -29.40815421333781]], [[-52.01734454273743, -29.40813600798819], [-52.01736524474191, -29.408144874604904], [-52.01734463260242, -29.408145031978005], [-52.01734454273743, -29.40813600798819]], [[-52.01739589334234, -29.40811756657018], [-52.01740628927955, -29.408126511869803], [-52.017395983211806, -29.40812659055988], [-52.01739589334234, -29.40811756657018]], [[-52.017395983211806, -29.40812659055988], [-52.017375460943875, -29.408135771927416], [-52.0173753710762, -29.408126747937665], [-52.017395983211806, -29.40812659055988]], [[-52.01769413999401, -29.408052116312614], [-52.01768374404009, -29.408043171035786], [-52.01769405009849, -29.408043092323652], [-52.01769413999401, -29.408052116312614]]]}}, {"id": "187", "type": "Feature", "properties": {"cultura": "Soja", "area_ha": 0.08}, "geometry": {"type": "Polygon", "coordinates": [[[-51.98685296492291, -29.471658346808017], [-51.98685296492291, -29.47219733597849], [-51.98712245950814, -29.47219733597849], [-51.98685296492291, -29.471658346808017]]]}}, {"id": "188", "type": "Feature", "properties": {"cultura": "Soja", "area_ha": 1.37}, "geometry": {"type": "Polygon", "coordinates": [[[-51.989547910775265, -29.467346433444245], [-51.98793094326385, -29.466537949688536], [-51.987661448678615, -29.467346433444245], [-51.98846993243432, -29.467885422614717], [-51.989547910775265, -29.467346433444245]]]}}, {"id": "189", "type": "Feature", "properties": {"cultura": "Soja", "area_ha": 0.05}, "geometry": {"type": "Polygon", "coordinates": [[[-52.00329213462229, -29.46519047676236], [-52.00271925046191, -29.465021001812808], [-52.00275314545182, -29.46519047676236], [-52.00329213462229, -29.46519047676236]]]}}, {"id": "190", "type": "Feature", "properties": {"cultura": "Soja", "area_ha": 0.87}, "geometry": {"type": "Polygon", "coordinates": [[[-52.00733455340083, -29.462226036324765], [-52.006256575059886, -29.46303452008047], [-52.006353766494904, -29.46342328582052], [-52.00749355114247, -29.463180022774562], [-52.00733455340083, -29.462226036324765]]]}}, {"id": "191", "type": "Feature", "properties": {"cultura": "Soja", "area_ha": 0.55}, "geometry": {"type": "Polygon", "coordinates": [[[-51.99709375916187, -29.415333978493724], [-51.99614169202023, -29.415651334207602], [-51.9967713519603, -29.416516138232804], [-51.99709375916187, -29.415333978493724]]]}}, {"id": "192", "type": "Feature", "properties": {"cultura": "Soja", "area_ha": 4.31}, "geometry": {"type": "Polygon", "coordinates": [[[-51.999788705014225, -29.419376397272263], [-51.999788705014225, -29.41641195683467], [-51.99804743502815, -29.414463861171072], [-51.99844123208805, -29.417220440590373], [-51.999788705014225, -29.419376397272263]]]}}, {"id": "192", "type": "Feature", "properties": {"cultura": "Soja", "area_ha": 0.11}, "geometry": {"type": "Polygon", "coordinates": [[[-51.998171737502815, -29.412147471742436], [-51.99763274833234, -29.41156105430042], [-51.99770675954676, -29.412029744402886], [-51.998171737502815, -29.412147471742436]]]}}, {"id": "194", "type": "Feature", "properties": {"cultura": "Soja", "area_ha": 0.47}, "geometry": {"type": "Polygon", "coordinates": [[[-52.00517859671894, -29.413447516397074], [-52.00517859671894, -29.412639032641366], [-52.004100618378004, -29.412639032641366], [-52.00517859671894, -29.413447516397074]]]}}, {"id": "195", "type": "Feature", "properties": {"cultura": "Soja", "area_ha": 6.5}, "geometry": {"type": "Polygon", "coordinates": [[[-51.99493780247998, -29.414525494738015], [-51.99709375916187, -29.413986505567546], [-51.994632839980255, -29.41284690062345], [-51.99454733796877, -29.41147578394474], [-51.99609858929653, -29.412005678029455], [-51.99628527540616, -29.410752570544716], [-51.993590329553804, -29.411291559715185], [-51.993320834968564, -29.412639032641366], [-51.99493780247998, -29.414525494738015]]]}}, {"id": "196", "type": "Feature", "properties": {"cultura": "Soja", "area_ha": 2.73}, "geometry": {"type": "Polygon", "coordinates": [[[-51.987391954093376, -29.41371701098231], [-51.987391954093376, -29.412100043470893], [-51.987657520448685, -29.413133432363026], [-51.98900892160479, -29.41156105430042], [-51.987391954093376, -29.411291559715185], [-51.98658347033767, -29.413447516397074], [-51.987391954093376, -29.41371701098231]]]}}, {"id": "197", "type": "Feature", "properties": {"cultura": "Soja", "area_ha": 52.15}, "geometry": {"type": "Polygon", "coordinates": [[[-52.00167516711088, -29.410752570544716], [-52.00248365086659, -29.4129085272266], [-52.00356162920753, -29.413178021811838], [-52.004100618378004, -29.412100043470893], [-52.00517859671894, -29.412100043470893], [-52.00463960754848, -29.410213581374244], [-52.005717585889414, -29.411830548885657], [-52.006526069645126, -29.41048307595948], [-52.006526069645126, -29.41236953805613], [-52.00970945813828, -29.413211806404647], [-52.00868202632701, -29.412100043470893], [-52.01002949925319, -29.411291559715185], [-52.00949051008272, -29.41048307595948], [-52.0116464667646, -29.409944086789007], [-52.0116464667646, -29.408866108448063], [-52.00437011296324, -29.408057624692354], [-51.99898022125852, -29.4091356030333], [-51.99844123208805, -29.40778813010712], [-51.99628527540616, -29.408596613862827], [-51.99628527540616, -29.41048307595948], [-51.9973632537471, -29.411291559715185], [-51.99924971584375, -29.411830548885657], [-51.99951921042899, -29.409944086789007], [-52.000058199599465, -29.41236953805613], [-52.00167516711088, -29.410752570544716]], [[-51.99924971584375, -29.40967459220377], [-51.99951921042899, -29.40967459220377], [-51.99951921042899, -29.409944086789007], [-51.99924971584375, -29.40967459220377]], [[-51.99898022125852, -29.409405097618535], [-51.99924971584375, -29.409405097618535], [-51.99924971584375, -29.40967459220377], [-51.99898022125852, -29.409405097618535]], [[-52.003831123792764, -29.4091356030333], [-52.00490910213371, -29.4091356030333], [-52.00490910213371, -29.40967459220377], [-52.003831123792764, -29.4091356030333]], [[-52.008412531741776, -29.410213581374244], [-52.00868202632701, -29.410213581374244], [-52.00868202632701, -29.41048307595948], [-52.008412531741776, -29.410213581374244]], [[-52.008412531741776, -29.41156105430042], [-52.008143037156536, -29.41048307595948], [-52.008412531741776, -29.41048307595948], [-52.008412531741776, -29.41156105430042]]]}}, {"id": "198", "type": "Feature", "properties": {"cultura": "Soja", "area_ha": 2.57}, "geometry": {"type": "Polygon", "coordinates": [[[-51.98038509487725, -29.485672065240284], [-51.98038509487725, -29.487289032751697], [-51.98200206238866, -29.487289032751697], [-51.98200206238866, -29.48594155982552], [-51.98038509487725, -29.485672065240284]]]}}, {"id": "199", "type": "Feature", "properties": {"cultura": "Soja", "area_ha": 0.32}, "geometry": {"type": "Polygon", "coordinates": [[[-51.98398027604648, -29.47056662623346], [-51.984778600993636, -29.470678041268602], [-51.983619029900076, -29.469771884711367], [-51.98398027604648, -29.47056662623346]]]}}, {"id": "200", "type": "Feature", "properties": {"cultura": "Soja", "area_ha": 1.33}, "geometry": {"type": "Polygon", "coordinates": [[[-51.98712245950814, -29.470041379296603], [-51.985774986581966, -29.46950239012613], [-51.98658347033767, -29.471658346808017], [-51.98712245950814, -29.470041379296603]]]}}, {"id": "201", "type": "Feature", "properties": {"cultura": "Soja", "area_ha": 4.25}, "geometry": {"type": "Polygon", "coordinates": [[[-51.979307116536305, -29.470041379296603], [-51.979037621951065, -29.468693906370422], [-51.977151159854415, -29.469232895540895], [-51.977151159854415, -29.471658346808017], [-51.979307116536305, -29.470041379296603]]]}}, {"id": "202", "type": "Feature", "properties": {"cultura": "Soja", "area_ha": 0.04}, "geometry": {"type": "Polygon", "coordinates": [[[-51.92406072656295, -29.4519852420858], [-51.92406072656295, -29.452254736671037], [-51.92433022114819, -29.452254736671037], [-51.92406072656295, -29.4519852420858]]]}}, {"id": "203", "type": "Feature", "properties": {"cultura": "Soja", "area_ha": 3.51}, "geometry": {"type": "Polygon", "coordinates": [[[-51.92379123197772, -29.44955979081868], [-51.92379123197772, -29.447673328722026], [-51.9221742644663, -29.447673328722026], [-51.9221742644663, -29.449829285403915], [-51.92379123197772, -29.44955979081868]]]}}, {"id": "204", "type": "Feature", "properties": {"cultura": "Soja", "area_ha": 0.59}, "geometry": {"type": "Polygon", "coordinates": [[[-51.925677694074366, -29.448481812477734], [-51.92433022114819, -29.44794282330726], [-51.92433022114819, -29.44875130706297], [-51.925677694074366, -29.448481812477734]]]}}, {"id": "205", "type": "Feature", "properties": {"cultura": "Soja", "area_ha": 88.83}, "geometry": {"type": "Polygon", "coordinates": [[[-51.93079809119385, -29.439318996579715], [-51.93052859660861, -29.442552931602545], [-51.9289116290972, -29.44228343701731], [-51.9289116290972, -29.441744447846837], [-51.92998960743814, -29.442013942432073], [-51.92945061826767, -29.440935964091132], [-51.927833650756256, -29.441744447846837], [-51.92648617783008, -29.441205458676365], [-51.92648617783008, -29.440127480335423], [-51.927564156171016, -29.440127480335423], [-51.92945061826767, -29.438510512824006], [-51.93025910202338, -29.436085061556884], [-51.925138704903894, -29.43824101823877], [-51.92486921031866, -29.43904950199448], [-51.925947188659606, -29.43904950199448], [-51.925947188659606, -29.439857985750187], [-51.92459971573342, -29.439318996579715], [-51.92379123197772, -29.44039697492066], [-51.925138704903894, -29.441205458676365], [-51.92486921031866, -29.44228343701731], [-51.92298274822201, -29.442013942432073], [-51.92271325363677, -29.443091920773018], [-51.92271325363677, -29.444439393699195], [-51.92459971573342, -29.444978382869667], [-51.92486921031866, -29.446056361210612], [-51.9221742644663, -29.445786866625376], [-51.92648617783008, -29.44740383413679], [-51.92675567241531, -29.44794282330726], [-51.925677694074366, -29.448481812477734], [-51.92648617783008, -29.449829285403915], [-51.92459971573342, -29.45009877998915], [-51.92486921031866, -29.450907263744856], [-51.92271325363677, -29.45009877998915], [-51.923252242807244, -29.450907263744856], [-51.92244375905154, -29.45144625291533], [-51.921365780710595, -29.450368274574384], [-51.92082679154012, -29.451715747500565], [-51.92163527529583, -29.452524231256273], [-51.925138704903894, -29.4519852420858], [-51.927025167000544, -29.44955979081868], [-51.93241505870527, -29.447673328722026], [-51.933762531631444, -29.446056361210612], [-51.93537949914286, -29.446595350381084], [-51.93511000455762, -29.445786866625376], [-51.93295404787573, -29.444978382869667], [-51.93403202621668, -29.44470888828443], [-51.93430152080192, -29.44363090994349], [-51.93241505870527, -29.441205458676365], [-51.9326845532905, -29.44039697492066], [-51.93079809119385, -29.439318996579715]], [[-51.93214556412003, -29.440666469505896], [-51.93241505870527, -29.440666469505896], [-51.93241505870527, -29.440935964091132], [-51.93214556412003, -29.440666469505896]], [[-51.93241505870527, -29.44228343701731], [-51.93295404787573, -29.44228343701731], [-51.93295404787573, -29.442552931602545], [-51.93241505870527, -29.44228343701731]], [[-51.93241505870527, -29.44282242618778], [-51.93106758577908, -29.443091920773018], [-51.93106758577908, -29.442552931602545], [-51.93241505870527, -29.44282242618778]], [[-51.93079809119385, -29.443900404528726], [-51.92998960743814, -29.443900404528726], [-51.92998960743814, -29.443361415358254], [-51.93079809119385, -29.443900404528726]], [[-51.92918112368243, -29.44551737204014], [-51.9289116290972, -29.44632585579585], [-51.931606574949555, -29.447134339551557], [-51.92918112368243, -29.446595350381084], [-51.92945061826767, -29.44740383413679], [-51.92864213451196, -29.44740383413679], [-51.92675567241531, -29.44632585579585], [-51.92621668324484, -29.44470888828443], [-51.92810314534149, -29.445247877454904], [-51.92810314534149, -29.443900404528726], [-51.93106758577908, -29.44470888828443], [-51.93106758577908, -29.44551737204014], [-51.92918112368243, -29.44551737204014]], [[-51.93275236074975, -29.447263692700513], [-51.93274196794609, -29.44725474076623], [-51.93275227822496, -29.447254668536083], [-51.93275236074975, -29.447263692700513]], [[-51.932762340926914, -29.447227523811858], [-51.93277273372948, -29.447236475744596], [-51.9327624234525, -29.447236547976296], [-51.932762340926914, -29.447227523811858]], [[-51.9327624234525, -29.447236547976296], [-51.93275219570021, -29.44724564437164], [-51.932752113175496, -29.44723662020719], [-51.9327624234525, -29.447236547976296]]]}}, {"id": "206", "type": "Feature", "properties": {"cultura": "Soja", "area_ha": 0.16}, "geometry": {"type": "Polygon", "coordinates": [[[-51.92945061826767, -29.44039697492066], [-51.92945061826767, -29.440935964091132], [-51.92998960743814, -29.440935964091132], [-51.92945061826767, -29.44039697492066]]]}}, {"id": "207", "type": "Feature", "properties": {"cultura": "Soja", "area_ha": 3.24}, "geometry": {"type": "Polygon", "coordinates": [[[-51.93457101538715, -29.44039697492066], [-51.93457101538715, -29.440935964091132], [-51.93748635652089, -29.440670933078973], [-51.938343939580456, -29.439318996579715], [-51.93699646665427, -29.43904950199448], [-51.936187982898566, -29.44039697492066], [-51.93457101538715, -29.44039697492066]]]}}, {"id": "208", "type": "Feature", "properties": {"cultura": "Soja", "area_ha": 0.04}, "geometry": {"type": "Polygon", "coordinates": [[[-51.94535079879658, -29.43904950199448], [-51.945204068755565, -29.43905361949277], [-51.94562029338182, -29.43958849116495], [-51.94535079879658, -29.43904950199448]]]}}, {"id": "209", "type": "Feature", "properties": {"cultura": "Soja", "area_ha": 0.16}, "geometry": {"type": "Polygon", "coordinates": [[[-51.93511000455762, -29.43904950199448], [-51.93511000455762, -29.43958849116495], [-51.935648993728094, -29.439318996579715], [-51.93511000455762, -29.43904950199448]]]}}, {"id": "210", "type": "Feature", "properties": {"cultura": "Soja", "area_ha": 0.04}, "geometry": {"type": "Polygon", "coordinates": [[[-51.935648993728094, -29.438510512824006], [-51.935648993728094, -29.438780007409243], [-51.93591848831333, -29.438780007409243], [-51.935648993728094, -29.438510512824006]]]}}, {"id": "211", "type": "Feature", "properties": {"cultura": "Soja", "area_ha": 0.08}, "geometry": {"type": "Polygon", "coordinates": [[[-51.9364574774838, -29.43824101823877], [-51.93591848831333, -29.43824101823877], [-51.93591848831333, -29.438510512824006], [-51.9364574774838, -29.43824101823877]]]}}, {"id": "212", "type": "Feature", "properties": {"cultura": "Soja", "area_ha": 0.23}, "geometry": {"type": "Polygon", "coordinates": [[[-51.935648993728094, -29.437971523653538], [-51.9364574774838, -29.437971523653538], [-51.9364574774838, -29.437432534483065], [-51.935648993728094, -29.437971523653538]]]}}, {"id": "213", "type": "Feature", "properties": {"cultura": "Soja", "area_ha": 2.03}, "geometry": {"type": "Polygon", "coordinates": [[[-51.944003325870405, -29.436624050727357], [-51.94373383128517, -29.435276577801176], [-51.94238635835899, -29.435546072386412], [-51.94265585294423, -29.436893545312593], [-51.944003325870405, -29.436624050727357]]]}}, {"id": "214", "type": "Feature", "properties": {"cultura": "Soja", "area_ha": 0.66}, "geometry": {"type": "Polygon", "coordinates": [[[-51.931876069534795, -29.436085061556884], [-51.931606574949555, -29.434737588630707], [-51.93079809119385, -29.435276577801176], [-51.931876069534795, -29.436085061556884]]]}}, {"id": "215", "type": "Feature", "properties": {"cultura": "Soja", "area_ha": 0.03}, "geometry": {"type": "Polygon", "coordinates": [[[-51.93484050997239, -29.435007083215943], [-51.93484050997239, -29.435363454725923], [-51.93502256906887, -29.435371201408902], [-51.93484050997239, -29.435007083215943]]]}}, {"id": "216", "type": "Feature", "properties": {"cultura": "Soja", "area_ha": 45.83}, "geometry": {"type": "Polygon", "coordinates": [[[-51.942116863773755, -29.435815566971648], [-51.9431948421147, -29.434737588630707], [-51.94238635835899, -29.433390115704526], [-51.94130838001805, -29.433390115704526], [-51.94238635835899, -29.432581631948818], [-51.94346433669993, -29.432851126534054], [-51.944003325870405, -29.435007083215943], [-51.94454231504088, -29.432581631948818], [-51.94561143662988, -29.434060046474887], [-51.94494927469317, -29.432692985224733], [-51.94619312388325, -29.432287065380972], [-51.94535079879658, -29.43123415902264], [-51.94642877713753, -29.431503653607876], [-51.94642877713753, -29.430156180681696], [-51.94130838001805, -29.43042567526693], [-51.93969141250663, -29.431503653607876], [-51.93537949914286, -29.43231213736358], [-51.93322354246097, -29.434198599460235], [-51.93322354246097, -29.435007083215943], [-51.93591848831333, -29.434737588630707], [-51.93672697206904, -29.43635455614212], [-51.93942191792139, -29.435007083215943], [-51.939960907091866, -29.435815566971648], [-51.942116863773755, -29.435815566971648]], [[-51.937535455824744, -29.435007083215943], [-51.938074444995216, -29.435007083215943], [-51.938074444995216, -29.435546072386412], [-51.937535455824744, -29.435007083215943]], [[-51.93969141250663, -29.434737588630707], [-51.93888292875092, -29.43446809404547], [-51.93888292875092, -29.433929104875], [-51.940230401677105, -29.433929104875], [-51.93969141250663, -29.434737588630707]]]}}, {"id": "217", "type": "Feature", "properties": {"cultura": "Soja", "area_ha": 0.78}, "geometry": {"type": "Polygon", "coordinates": [[[-51.95101018508654, -29.429078202340754], [-51.94966271216036, -29.42988668609646], [-51.95101018508654, -29.430156180681696], [-51.95101018508654, -29.429078202340754]]]}}, {"id": "218", "type": "Feature", "properties": {"cultura": "Soja", "area_ha": 0.23}, "geometry": {"type": "Polygon", "coordinates": [[[-51.95505260386508, -29.429078202340754], [-51.95586108762078, -29.429078202340754], [-51.95586108762078, -29.428539213170282], [-51.95505260386508, -29.429078202340754]]]}}, {"id": "219", "type": "Feature", "properties": {"cultura": "Soja", "area_ha": 0.23}, "geometry": {"type": "Polygon", "coordinates": [[[-51.97634267609871, -29.426383256488393], [-51.97634267609871, -29.4271917402441], [-51.97688166526918, -29.4271917402441], [-51.97634267609871, -29.426383256488393]]]}}, {"id": "220", "type": "Feature", "properties": {"cultura": "Soja", "area_ha": 1.72}, "geometry": {"type": "Polygon", "coordinates": [[[-51.975534192343, -29.42530527814745], [-51.977151159854415, -29.42611376190316], [-51.97634267609871, -29.425574772732688], [-51.9770445023875, -29.42428501312947], [-51.97661217068394, -29.4234188160508], [-51.975534192343, -29.42530527814745]]]}}, {"id": "221", "type": "Feature", "properties": {"cultura": "Soja", "area_ha": 0.24}, "geometry": {"type": "Polygon", "coordinates": [[[-51.96152047391074, -29.423688310636035], [-51.96171319241601, -29.425037340172974], [-51.961722758643376, -29.42503727110568], [-51.96201998081291, -29.42485382674111], [-51.96152047391074, -29.423688310636035]]]}}, {"id": "222", "type": "Feature", "properties": {"cultura": "Soja", "area_ha": 3.98}, "geometry": {"type": "Polygon", "coordinates": [[[-51.96529339810404, -29.423688310636035], [-51.964754408933565, -29.421801848539385], [-51.962867946836916, -29.42153235395415], [-51.96313744142215, -29.4234188160508], [-51.96529339810404, -29.423688310636035]]]}}, {"id": "223", "type": "Feature", "properties": {"cultura": "Soja", "area_ha": 1.33}, "geometry": {"type": "Polygon", "coordinates": [[[-51.960981484740266, -29.421262859368913], [-51.96152047391074, -29.423149321465562], [-51.96205946308121, -29.423149321465562], [-51.96205946308121, -29.421801848539385], [-51.960981484740266, -29.421262859368913]]]}}, {"id": "224", "type": "Feature", "properties": {"cultura": "Soja", "area_ha": 0.53}, "geometry": {"type": "Polygon", "coordinates": [[[-51.986150285991954, -29.41929455239202], [-51.98631397575244, -29.418298418931318], [-51.98523599741149, -29.41883740810179], [-51.986150285991954, -29.41929455239202]]]}}, {"id": "225", "type": "Feature", "properties": {"cultura": "Soja", "area_ha": 0.04}, "geometry": {"type": "Polygon", "coordinates": [[[-51.98658347033767, -29.418298418931318], [-51.98658347033767, -29.418028924346082], [-51.98631397575244, -29.418028924346082], [-51.98658347033767, -29.418298418931318]]]}}, {"id": "226", "type": "Feature", "properties": {"cultura": "Soja", "area_ha": 1.95}, "geometry": {"type": "Polygon", "coordinates": [[[-51.98658347033767, -29.417220440590373], [-51.98658347033767, -29.41425600015278], [-51.9860444811672, -29.41425600015278], [-51.9860444811672, -29.41560347307896], [-51.98523599741149, -29.41560347307896], [-51.98658347033767, -29.417220440590373]]]}}, {"id": "227", "type": "Feature", "properties": {"cultura": "Soja", "area_ha": 1.09}, "geometry": {"type": "Polygon", "coordinates": [[[-51.98523599741149, -29.413178021811838], [-51.983349535314844, -29.413178021811838], [-51.983080040729604, -29.41425600015278], [-51.98523599741149, -29.413178021811838]]]}}]}