{"type": "FeatureCollection", "features": [{"id": "2", "type": "Feature", "properties": {"cultura": "Outras Lavouras Temporárias", "area_ha": 0.19}, "geometry": {"type": "Polygon", "coordinates": [[[-52.039134914458664, -29.409944086789007], [-52.03805693611772, -29.409944086789007], [-52.03805693611772, -29.410069978695127], [-52.03847421870271, -29.41022917068365], [-52.039134914458664, -29.409944086789007]]]}}, {"id": "3", "type": "Feature", "properties": {"cultura": "Outras Lavouras Temporárias", "area_ha": 0.05}, "geometry": {"type": "Polygon", "coordinates": [[[-52.039574248233194, -29.410283765167602], [-52.03967390362914, -29.409944086789007], [-52.0394044090439, -29.409944086789007], [-52.039574248233194, -29.410283765167602]]]}}, {"id": "4", "type": "Feature", "properties": {"cultura": "Outras Lavouras Temporárias", "area_ha": 0.04}, "geometry": {"type": "Polygon", "coordinates": [[[-52.039134914458664, -29.409944086789007], [-52.0394044090439, -29.409944086789007], [-52.0394044090439, -29.40967459220377], [-52.039134914458664, -29.409944086789007]]]}}, {"id": "5", "type": "Feature", "properties": {"cultura": "Outras Lavouras Temporárias", "area_ha": 0.44}, "geometry": {"type": "Polygon", "coordinates": [[[-52.037248452362014, -29.4091356030333], [-52.03631219419383, -29.409930141028717], [-52.03704013947974, -29.410177167444637], [-52.037248452362014, -29.4091356030333]]]}}, {"id": "6", "type": "Feature", "properties": {"cultura": "Outras Lavouras Temporárias", "area_ha": 0.04}, "geometry": {"type": "Polygon", "coordinates": [[[-52.02432859183129, -29.412892647666006], [-52.024582206855925, -29.4129085272266], [-52.024582206855925, -29.412639032641366], [-52.02432859183129, -29.412892647666006]]]}}, {"id": "7", "type": "Feature", "properties": {"cultura": "Outras Lavouras Temporárias", "area_ha": 0.31}, "geometry": {"type": "Polygon", "coordinates": [[[-52.024851701441165, -29.41156105430042], [-52.024582206855925, -29.412639032641366], [-52.0251211960264, -29.412639032641366], [-52.024851701441165, -29.41156105430042]]]}}, {"id": "8", "type": "Feature", "properties": {"cultura": "Outras Lavouras Temporárias", "area_ha": 0.94}, "geometry": {"type": "Polygon", "coordinates": [[[-52.02539069061164, -29.41156105430042], [-52.026468668952575, -29.41156105430042], [-52.026468668952575, -29.410752570544716], [-52.02539069061164, -29.410752570544716], [-52.02539069061164, -29.41156105430042]]]}}, {"id": "9", "type": "Feature", "properties": {"cultura": "Outras Lavouras Temporárias", "area_ha": 0.04}, "geometry": {"type": "Polygon", "coordinates": [[[-52.02754664729352, -29.410213581374244], [-52.02727715270829, -29.410213581374244], [-52.02727715270829, -29.41048307595948], [-52.02754664729352, -29.410213581374244]]]}}, {"id": "10", "type": "Feature", "properties": {"cultura": "Outras Lavouras Temporárias", "area_ha": 0.12}, "geometry": {"type": "Polygon", "coordinates": [[[-52.02727715270829, -29.410213581374244], [-52.02727715270829, -29.409405097618535], [-52.02700765812305, -29.409405097618535], [-52.02727715270829, -29.410213581374244]]]}}, {"id": "11", "type": "Feature", "properties": {"cultura": "Outras Lavouras Temporárias", "area_ha": 0.35}, "geometry": {"type": "Polygon", "coordinates": [[[-52.02242625017404, -29.409944086789007], [-52.02323473392975, -29.409944086789007], [-52.02323473392975, -29.4091356030333], [-52.02242625017404, -29.409944086789007]]]}}, {"id": "12", "type": "Feature", "properties": {"cultura": "Outras Lavouras Temporárias", "area_ha": 0.09}, "geometry": {"type": "Polygon", "coordinates": [[[-52.02754664729352, -29.408596613862827], [-52.02841384841933, -29.4091356030333], [-52.02857806421553, -29.409042480195424], [-52.02754664729352, -29.408596613862827]]]}}, {"id": "13", "type": "Feature", "properties": {"cultura": "Outras Lavouras Temporárias", "area_ha": 0.7}, "geometry": {"type": "Polygon", "coordinates": [[[-52.026738163537814, -29.406592937462868], [-52.026738163537814, -29.40832711927759], [-52.02700765812305, -29.40832711927759], [-52.02727715270829, -29.406979646351413], [-52.026738163537814, -29.406592937462868]]]}}, {"id": "14", "type": "Feature", "properties": {"cultura": "Outras Lavouras Temporárias", "area_ha": 0.51}, "geometry": {"type": "Polygon", "coordinates": [[[-52.028624625634464, -29.40644065718094], [-52.02781614187876, -29.407518635521885], [-52.028894120219704, -29.40724914093665], [-52.028624625634464, -29.40644065718094]]]}}, {"id": "15", "type": "Feature", "properties": {"cultura": "Outras Lavouras Temporárias", "area_ha": 0.01}, "geometry": {"type": "Polygon", "coordinates": [[[-52.02350422851498, -29.406710151766177], [-52.02398868720293, -29.40673141492703], [-52.02419460802955, -29.406710151766177], [-52.02350422851498, -29.406710151766177]]]}}, {"id": "15", "type": "Feature", "properties": {"cultura": "Outras Lavouras Temporárias", "area_ha": 0.0}, "geometry": {"type": "Polygon", "coordinates": [[[-52.02433025147939, -29.40687535635906], [-52.024851701441165, -29.406787952932877], [-52.02433022970433, -29.40687318457207], [-52.02433025147939, -29.40687535635906]]]}}, {"id": "16", "type": "Feature", "properties": {"cultura": "Outras Lavouras Temporárias", "area_ha": 0.04}, "geometry": {"type": "Polygon", "coordinates": [[[-52.02808563646399, -29.406979646351413], [-52.02808563646399, -29.406710151766177], [-52.02781614187876, -29.406710151766177], [-52.02808563646399, -29.406979646351413]]]}}, {"id": "17", "type": "Feature", "properties": {"cultura": "Outras Lavouras Temporárias", "area_ha": 0.04}, "geometry": {"type": "Polygon", "coordinates": [[[-52.02781614187876, -29.406710151766177], [-52.02754664729352, -29.40644065718094], [-52.02754664729352, -29.406710151766177], [-52.02781614187876, -29.406710151766177]]]}}, {"id": "18", "type": "Feature", "properties": {"cultura": "Outras Lavouras Temporárias", "area_ha": 0.04}, "geometry": {"type": "Polygon", "coordinates": [[[-52.02727715270829, -29.40644065718094], [-52.02754664729352, -29.40644065718094], [-52.02754664729352, -29.406171162595705], [-52.02727715270829, -29.40644065718094]]]}}, {"id": "19", "type": "Feature", "properties": {"cultura": "Outras Lavouras Temporárias", "area_ha": 0.27}, "geometry": {"type": "Polygon", "coordinates": [[[-52.01595838012838, -29.410752570544716], [-52.01568888554314, -29.41156105430042], [-52.016227874713614, -29.411830548885657], [-52.01595838012838, -29.410752570544716]]]}}, {"id": "20", "type": "Feature", "properties": {"cultura": "Outras Lavouras Temporárias", "area_ha": 0.74}, "geometry": {"type": "Polygon", "coordinates": [[[-52.0146109072022, -29.410752570544716], [-52.01595838012838, -29.410752570544716], [-52.01595838012838, -29.410213581374244], [-52.014341412616965, -29.41048307595948], [-52.0146109072022, -29.411291559715185], [-52.0146109072022, -29.410752570544716]]]}}, {"id": "21", "type": "Feature", "properties": {"cultura": "Outras Lavouras Temporárias", "area_ha": 0.04}, "geometry": {"type": "Polygon", "coordinates": [[[-52.01407191803173, -29.41048307595948], [-52.014341412616965, -29.41048307595948], [-52.014341412616965, -29.410213581374244], [-52.01407191803173, -29.41048307595948]]]}}, {"id": "22", "type": "Feature", "properties": {"cultura": "Outras Lavouras Temporárias", "area_ha": 0.04}, "geometry": {"type": "Polygon", "coordinates": [[[-52.01272444510555, -29.408866108448063], [-52.01299393969079, -29.408866108448063], [-52.01299393969079, -29.408596613862827], [-52.01272444510555, -29.408866108448063]]]}}, {"id": "23", "type": "Feature", "properties": {"cultura": "Outras Lavouras Temporárias", "area_ha": 0.04}, "geometry": {"type": "Polygon", "coordinates": [[[-52.01326343427602, -29.408596613862827], [-52.01326343427602, -29.40832711927759], [-52.01299393969079, -29.40832711927759], [-52.01326343427602, -29.408596613862827]]]}}, {"id": "24", "type": "Feature", "properties": {"cultura": "Outras Lavouras Temporárias", "area_ha": 3.32}, "geometry": {"type": "Polygon", "coordinates": [[[-52.006256575059886, -29.413178021811838], [-52.006526069645126, -29.41048307595948], [-52.005717585889414, -29.411830548885657], [-52.00463960754848, -29.410213581374244], [-52.00517859671894, -29.412100043470893], [-52.00356162920753, -29.412639032641366], [-52.006256575059886, -29.413178021811838]]]}}, {"id": "25", "type": "Feature", "properties": {"cultura": "Outras Lavouras Temporárias", "area_ha": 0.62}, "geometry": {"type": "Polygon", "coordinates": [[[-52.01002949925319, -29.410213581374244], [-52.00949051008272, -29.410752570544716], [-52.01110747759413, -29.411291559715185], [-52.01002949925319, -29.410213581374244]]]}}, {"id": "26", "type": "Feature", "properties": {"cultura": "Outras Lavouras Temporárias", "area_ha": 1.76}, "geometry": {"type": "Polygon", "coordinates": [[[-52.01299393969079, -29.4091356030333], [-52.01110747759413, -29.408596613862827], [-52.0116464667646, -29.41048307595948], [-52.01299393969079, -29.4091356030333]]]}}, {"id": "27", "type": "Feature", "properties": {"cultura": "Outras Lavouras Temporárias", "area_ha": 0.23}, "geometry": {"type": "Polygon", "coordinates": [[[-52.004100618378004, -29.40967459220377], [-52.00490910213371, -29.40967459220377], [-52.00490910213371, -29.4091356030333], [-52.004100618378004, -29.40967459220377]]]}}, {"id": "28", "type": "Feature", "properties": {"cultura": "Outras Lavouras Temporárias", "area_ha": 0.0}, "geometry": {"type": "Polygon", "coordinates": [[[-51.997188711130114, -29.417033304533685], [-51.9973632537471, -29.417220440590373], [-51.9973632537471, -29.41716736836358], [-51.997188711130114, -29.417033304533685]]]}}, {"id": "29", "type": "Feature", "properties": {"cultura": "Outras Lavouras Temporárias", "area_ha": 1.86}, "geometry": {"type": "Polygon", "coordinates": [[[-51.99682426457663, -29.41560347307896], [-51.99709375916187, -29.413986505567546], [-51.995476791650454, -29.41425600015278], [-51.99527438934866, -29.414728272190306], [-51.99682426457663, -29.41560347307896]]]}}, {"id": "30", "type": "Feature", "properties": {"cultura": "Outras Lavouras Temporárias", "area_ha": 0.03}, "geometry": {"type": "Polygon", "coordinates": [[[-51.99485492240218, -29.414442614660217], [-51.99493780247998, -29.41425600015278], [-51.99466830789475, -29.41425600015278], [-51.99485492240218, -29.414442614660217]]]}}, {"id": "31", "type": "Feature", "properties": {"cultura": "Outras Lavouras Temporárias", "area_ha": 0.12}, "geometry": {"type": "Polygon", "coordinates": [[[-51.99385982413904, -29.413986505567546], [-51.99466830789475, -29.41425600015278], [-51.99466830789475, -29.413986505567546], [-51.99385982413904, -29.413986505567546]]]}}, {"id": "32", "type": "Feature", "properties": {"cultura": "Outras Lavouras Temporárias", "area_ha": 0.62}, "geometry": {"type": "Polygon", "coordinates": [[[-51.999788705014225, -29.4129085272266], [-51.99924971584375, -29.4129085272266], [-51.99951921042899, -29.415064483908488], [-51.999788705014225, -29.4129085272266]]]}}, {"id": "33", "type": "Feature", "properties": {"cultura": "Outras Lavouras Temporárias", "area_ha": 0.19}, "geometry": {"type": "Polygon", "coordinates": [[[-52.000662135701695, -29.413846904845837], [-52.00086668335517, -29.413178021811838], [-52.0003276941847, -29.413178021811838], [-52.000662135701695, -29.413846904845837]]]}}, {"id": "34", "type": "Feature", "properties": {"cultura": "Outras Lavouras Temporárias", "area_ha": 0.04}, "geometry": {"type": "Polygon", "coordinates": [[[-51.993320834968564, -29.4129085272266], [-51.993590329553804, -29.4129085272266], [-51.993590329553804, -29.412639032641366], [-51.993320834968564, -29.4129085272266]]]}}, {"id": "35", "type": "Feature", "properties": {"cultura": "Outras Lavouras Temporárias", "area_ha": 0.08}, "geometry": {"type": "Polygon", "coordinates": [[[-51.99844123208805, -29.41156105430042], [-51.99844123208805, -29.411830548885657], [-51.99898022125852, -29.411830548885657], [-51.99844123208805, -29.41156105430042]]]}}, {"id": "36", "type": "Feature", "properties": {"cultura": "Outras Lavouras Temporárias", "area_ha": 0.04}, "geometry": {"type": "Polygon", "coordinates": [[[-51.9973632537471, -29.411291559715185], [-51.9973632537471, -29.411022065129952], [-51.99709375916187, -29.411022065129952], [-51.9973632537471, -29.411291559715185]]]}}, {"id": "37", "type": "Feature", "properties": {"cultura": "Outras Lavouras Temporárias", "area_ha": 1.33}, "geometry": {"type": "Polygon", "coordinates": [[[-52.000058199599465, -29.41236953805613], [-51.99951921042899, -29.409944086789007], [-51.99898022125852, -29.412100043470893], [-52.000058199599465, -29.41236953805613]]]}}, {"id": "38", "type": "Feature", "properties": {"cultura": "Outras Lavouras Temporárias", "area_ha": 0.08}, "geometry": {"type": "Polygon", "coordinates": [[[-51.99628527540616, -29.411291559715185], [-51.99682426457663, -29.411291559715185], [-51.99682426457663, -29.411022065129952], [-51.99628527540616, -29.411291559715185]]]}}, {"id": "39", "type": "Feature", "properties": {"cultura": "Outras Lavouras Temporárias", "area_ha": 0.04}, "geometry": {"type": "Polygon", "coordinates": [[[-51.99682426457663, -29.411022065129952], [-51.99709375916187, -29.410752570544716], [-51.99682426457663, -29.410752570544716], [-51.99682426457663, -29.411022065129952]]]}}, {"id": "40", "type": "Feature", "properties": {"cultura": "Outras Lavouras Temporárias", "area_ha": 0.04}, "geometry": {"type": "Polygon", "coordinates": [[[-51.996015780820926, -29.411022065129952], [-51.996015780820926, -29.410752570544716], [-51.99574628623569, -29.410752570544716], [-51.996015780820926, -29.411022065129952]]]}}, {"id": "41", "type": "Feature", "properties": {"cultura": "Outras Lavouras Temporárias", "area_ha": 0.12}, "geometry": {"type": "Polygon", "coordinates": [[[-51.996015780820926, -29.410752570544716], [-51.99682426457663, -29.410752570544716], [-51.99682426457663, -29.41048307595948], [-51.996015780820926, -29.410752570544716]]]}}, {"id": "42", "type": "Feature", "properties": {"cultura": "Outras Lavouras Temporárias", "area_ha": 0.04}, "geometry": {"type": "Polygon", "coordinates": [[[-51.99951921042899, -29.40967459220377], [-51.99924971584375, -29.40967459220377], [-51.99924971584375, -29.409944086789007], [-51.99951921042899, -29.40967459220377]]]}}, {"id": "43", "type": "Feature", "properties": {"cultura": "Outras Lavouras Temporárias", "area_ha": 0.04}, "geometry": {"type": "Polygon", "coordinates": [[[-51.99898022125852, -29.40967459220377], [-51.99924971584375, -29.40967459220377], [-51.99924971584375, -29.409405097618535], [-51.99898022125852, -29.40967459220377]]]}}, {"id": "44", "type": "Feature", "properties": {"cultura": "Outras Lavouras Temporárias", "area_ha": 0.23}, "geometry": {"type": "Polygon", "coordinates": [[[-51.99924971584375, -29.40832711927759], [-51.99871072667329, -29.40832711927759], [-51.99898022125852, -29.4091356030333], [-51.99924971584375, -29.40832711927759]]]}}, {"id": "45", "type": "Feature", "properties": {"cultura": "Outras Lavouras Temporárias", "area_ha": 0.04}, "geometry": {"type": "Polygon", "coordinates": [[[-51.999788705014225, -29.40832711927759], [-51.99951921042899, -29.40832711927759], [-51.99951921042899, -29.408596613862827], [-51.999788705014225, -29.40832711927759]]]}}, {"id": "46", "type": "Feature", "properties": {"cultura": "Outras Lavouras Temporárias", "area_ha": 0.04}, "geometry": {"type": "Polygon", "coordinates": [[[-51.99844123208805, -29.40832711927759], [-51.99871072667329, -29.40832711927759], [-51.99871072667329, -29.408057624692354], [-51.99844123208805, -29.40832711927759]]]}}, {"id": "47", "type": "Feature", "properties": {"cultura": "Outras Lavouras Temporárias", "area_ha": 0.0}, "geometry": {"type": "Polygon", "coordinates": [[[-51.979669954275934, -29.474399964237573], [-51.97966950549996, -29.474353292660375], [-51.97957661112154, -29.474353292660375], [-51.979669954275934, -29.474399964237573]]]}}, {"id": "48", "type": "Feature", "properties": {"cultura": "Outras Lavouras Temporárias", "area_ha": 0.04}, "geometry": {"type": "Polygon", "coordinates": [[[-51.98712245950814, -29.472466830563725], [-51.98712245950814, -29.47219733597849], [-51.98685296492291, -29.47219733597849], [-51.98712245950814, -29.472466830563725]]]}}, {"id": "49", "type": "Feature", "properties": {"cultura": "Outras Lavouras Temporárias", "area_ha": 0.16}, "geometry": {"type": "Polygon", "coordinates": [[[-51.97769014902489, -29.47219733597849], [-51.97769014902489, -29.471658346808017], [-51.977151159854415, -29.471658346808017], [-51.97769014902489, -29.47219733597849]]]}}, {"id": "50", "type": "Feature", "properties": {"cultura": "Outras Lavouras Temporárias", "area_ha": 0.08}, "geometry": {"type": "Polygon", "coordinates": [[[-51.97769014902489, -29.471658346808017], [-51.97822913819536, -29.471658346808017], [-51.97822913819536, -29.47138885222278], [-51.97769014902489, -29.471658346808017]]]}}, {"id": "51", "type": "Feature", "properties": {"cultura": "Outras Lavouras Temporárias", "area_ha": 0.08}, "geometry": {"type": "Polygon", "coordinates": [[[-51.98685296492291, -29.471119357637548], [-51.98685296492291, -29.471658346808017], [-51.98712245950814, -29.471658346808017], [-51.98685296492291, -29.471119357637548]]]}}, {"id": "52", "type": "Feature", "properties": {"cultura": "Outras Lavouras Temporárias", "area_ha": 4.73}, "geometry": {"type": "Polygon", "coordinates": [[[-51.98631397575244, -29.469232895540895], [-51.98173256780343, -29.46896340095566], [-51.98254105155913, -29.469771884711367], [-51.98200206238866, -29.47138885222278], [-51.983619029900076, -29.469771884711367], [-51.985962589153104, -29.470416584438876], [-51.98631397575244, -29.469232895540895]]]}}, {"id": "52", "type": "Feature", "properties": {"cultura": "Outras Lavouras Temporárias", "area_ha": 0.03}, "geometry": {"type": "Polygon", "coordinates": [[[-51.98685296492291, -29.47219733597849], [-51.986595001453374, -29.471681409039416], [-51.98674459418559, -29.472219010125954], [-51.98685296492291, -29.47219733597849]]]}}, {"id": "53", "type": "Feature", "properties": {"cultura": "Outras Lavouras Temporárias", "area_ha": 0.12}, "geometry": {"type": "Polygon", "coordinates": [[[-51.98712245950814, -29.47084986305231], [-51.987391954093376, -29.47084986305231], [-51.987391954093376, -29.470041379296603], [-51.98712245950814, -29.47084986305231]]]}}, {"id": "54", "type": "Feature", "properties": {"cultura": "Outras Lavouras Temporárias", "area_ha": 0.04}, "geometry": {"type": "Polygon", "coordinates": [[[-51.983888524485316, -29.47031087388184], [-51.983888524485316, -29.470041379296603], [-51.983619029900076, -29.470041379296603], [-51.983888524485316, -29.47031087388184]]]}}, {"id": "55", "type": "Feature", "properties": {"cultura": "Outras Lavouras Temporárias", "area_ha": 0.04}, "geometry": {"type": "Polygon", "coordinates": [[[-51.98712245950814, -29.470041379296603], [-51.98712245950814, -29.469771884711367], [-51.98685296492291, -29.469771884711367], [-51.98712245950814, -29.470041379296603]]]}}, {"id": "56", "type": "Feature", "properties": {"cultura": "Outras Lavouras Temporárias", "area_ha": 0.04}, "geometry": {"type": "Polygon", "coordinates": [[[-51.98658347033767, -29.469771884711367], [-51.98685296492291, -29.46950239012613], [-51.98658347033767, -29.46950239012613], [-51.98658347033767, -29.469771884711367]]]}}, {"id": "57", "type": "Feature", "properties": {"cultura": "Outras Lavouras Temporárias", "area_ha": 0.62}, "geometry": {"type": "Polygon", "coordinates": [[[-51.95208816342748, -29.467346433444245], [-51.952357658012716, -29.466537949688536], [-51.950740690501306, -29.46707693885901], [-51.95208816342748, -29.467346433444245]]]}}, {"id": "58", "type": "Feature", "properties": {"cultura": "Outras Lavouras Temporárias", "area_ha": 1.51}, "geometry": {"type": "Polygon", "coordinates": [[[-51.95154917425701, -29.464920982177123], [-51.95181866884224, -29.464112498421414], [-51.95020170133083, -29.464112498421414], [-51.94993220674559, -29.46519047676236], [-51.95154917425701, -29.464920982177123]], [[-51.95053509384617, -29.46457365932081], [-51.95083818203619, -29.465004679725613], [-51.950289373230405, -29.46476493261196], [-51.95053509384617, -29.46457365932081]]]}}, {"id": "59", "type": "Feature", "properties": {"cultura": "Outras Lavouras Temporárias", "area_ha": 0.03}, "geometry": {"type": "Polygon", "coordinates": [[[-51.94650810196782, -29.43958849116495], [-51.94641373714857, -29.439418854767435], [-51.946159282552294, -29.43958849116495], [-51.94650810196782, -29.43958849116495]]]}}, {"id": "60", "type": "Feature", "properties": {"cultura": "Outras Lavouras Temporárias", "area_ha": 0.08}, "geometry": {"type": "Polygon", "coordinates": [[[-51.944003325870405, -29.435815566971648], [-51.944003325870405, -29.435276577801176], [-51.94373383128517, -29.435276577801176], [-51.944003325870405, -29.435815566971648]]]}}, {"id": "61", "type": "Feature", "properties": {"cultura": "Outras Lavouras Temporárias", "area_ha": 0.04}, "geometry": {"type": "Polygon", "coordinates": [[[-51.94346433669993, -29.435276577801176], [-51.94373383128517, -29.435276577801176], [-51.94373383128517, -29.435007083215943], [-51.94346433669993, -29.435276577801176]]]}}, {"id": "62", "type": "Feature", "properties": {"cultura": "Outras Lavouras Temporárias", "area_ha": 0.12}, "geometry": {"type": "Polygon", "coordinates": [[[-51.9431948421147, -29.433659610289762], [-51.94346433669993, -29.433659610289762], [-51.94346433669993, -29.432851126534054], [-51.9431948421147, -29.433659610289762]]]}}, {"id": "63", "type": "Feature", "properties": {"cultura": "Outras Lavouras Temporárias", "area_ha": 0.0}, "geometry": {"type": "Polygon", "coordinates": [[[-51.94535079879658, -29.431503653607876], [-51.94538196837043, -29.43154729101126], [-51.94539187349572, -29.431503653607876], [-51.94535079879658, -29.431503653607876]]]}}, {"id": "63", "type": "Feature", "properties": {"cultura": "Outras Lavouras Temporárias", "area_ha": 1.77}, "geometry": {"type": "Polygon", "coordinates": [[[-51.94573222205225, -29.43203764616581], [-51.94681718236977, -29.431786269450953], [-51.94750675547847, -29.432581631948818], [-51.94700383670969, -29.43079222049572], [-51.94750675547847, -29.429617191511223], [-51.946159282552294, -29.42988668609646], [-51.946836627668496, -29.431659784794423], [-51.94573222205225, -29.43203764616581]]]}}, {"id": "64", "type": "Feature", "properties": {"cultura": "Outras Lavouras Temporárias", "area_ha": 0.03}, "geometry": {"type": "Polygon", "coordinates": [[[-51.956059250442266, -29.429006870577], [-51.95613058220602, -29.42880870775552], [-51.95586108762078, -29.42880870775552], [-51.956059250442266, -29.429006870577]]]}}, {"id": "65", "type": "Feature", "properties": {"cultura": "Outras Lavouras Temporárias", "area_ha": 2.99}, "geometry": {"type": "Polygon", "coordinates": [[[-51.954513614694605, -29.428269718585046], [-51.954866848686606, -29.427739867597047], [-51.95343563635366, -29.42611376190316], [-51.95378286977657, -29.429065245997883], [-51.95494585252585, -29.42921033339618], [-51.95532209845031, -29.428269718585046], [-51.954513614694605, -29.428269718585046]]]}}, {"id": "66", "type": "Feature", "properties": {"cultura": "Outras Lavouras Temporárias", "area_ha": 0.35}, "geometry": {"type": "Polygon", "coordinates": [[[-51.97688166526918, -29.42611376190316], [-51.97607318151347, -29.42611376190316], [-51.97607318151347, -29.426922245658865], [-51.97688166526918, -29.42611376190316]]]}}, {"id": "67", "type": "Feature", "properties": {"cultura": "Outras Lavouras Temporárias", "area_ha": 0.04}, "geometry": {"type": "Polygon", "coordinates": [[[-51.97607318151347, -29.42611376190316], [-51.97607318151347, -29.425844267317924], [-51.97580368692824, -29.425844267317924], [-51.97607318151347, -29.42611376190316]]]}}, {"id": "68", "type": "Feature", "properties": {"cultura": "Outras Lavouras Temporárias", "area_ha": 0.31}, "geometry": {"type": "Polygon", "coordinates": [[[-51.968796827712104, -29.424496794391743], [-51.968796827712104, -29.4234188160508], [-51.96825783854163, -29.4234188160508], [-51.968796827712104, -29.424496794391743]]]}}, {"id": "69", "type": "Feature", "properties": {"cultura": "Outras Lavouras Temporárias", "area_ha": 0.94}, "geometry": {"type": "Polygon", "coordinates": [[[-51.96448491434833, -29.423688310636035], [-51.96529339810404, -29.42530527814745], [-51.96556289268928, -29.422610332295093], [-51.965023903518805, -29.42395780522127], [-51.96448491434833, -29.423688310636035]]]}}, {"id": "70", "type": "Feature", "properties": {"cultura": "Outras Lavouras Temporárias", "area_ha": 0.47}, "geometry": {"type": "Polygon", "coordinates": [[[-51.96205946308121, -29.422610332295093], [-51.96205946308121, -29.4234188160508], [-51.96313744142215, -29.42287982688033], [-51.96205946308121, -29.422610332295093]]]}}, {"id": "71", "type": "Feature", "properties": {"cultura": "Outras Lavouras Temporárias", "area_ha": 0.08}, "geometry": {"type": "Polygon", "coordinates": [[[-51.96529339810404, -29.42207134312462], [-51.965023903518805, -29.42207134312462], [-51.965023903518805, -29.422610332295093], [-51.96529339810404, -29.42207134312462]]]}}, {"id": "72", "type": "Feature", "properties": {"cultura": "Outras Lavouras Temporárias", "area_ha": 0.04}, "geometry": {"type": "Polygon", "coordinates": [[[-51.964754408933565, -29.42207134312462], [-51.965023903518805, -29.42207134312462], [-51.965023903518805, -29.421801848539385], [-51.964754408933565, -29.42207134312462]]]}}, {"id": "74", "type": "Feature", "properties": {"cultura": "Outras Lavouras Temporárias", "area_ha": 0.08}, "geometry": {"type": "Polygon", "coordinates": [[[-51.986589966570335, -29.41828542646599], [-51.98685296492291, -29.418298418931318], [-51.98685296492291, -29.417759429760846], [-51.986589966570335, -29.41828542646599]]]}}, {"id": "75", "type": "Feature", "properties": {"cultura": "Outras Lavouras Temporárias", "area_ha": 1.05}, "geometry": {"type": "Polygon", "coordinates": [[[-51.98523599741149, -29.414525494738015], [-51.98523599741149, -29.41560347307896], [-51.9860444811672, -29.41560347307896], [-51.9860444811672, -29.41425600015278], [-51.98523599741149, -29.414525494738015]]]}}, {"id": "76", "type": "Feature", "properties": {"cultura": "Outras Lavouras Temporárias", "area_ha": 0.31}, "geometry": {"type": "Polygon", "coordinates": [[[-51.98523599741149, -29.413986505567546], [-51.98415801907055, -29.414525494738015], [-51.98469700824102, -29.41479498932325], [-51.98523599741149, -29.413986505567546]]]}}, {"id": "77", "type": "Feature", "properties": {"cultura": "Outras Lavouras Temporárias", "area_ha": 0.04}, "geometry": {"type": "Polygon", "coordinates": [[[-51.98631397575244, -29.41425600015278], [-51.98631397575244, -29.413986505567546], [-51.9860444811672, -29.413986505567546], [-51.98631397575244, -29.41425600015278]]]}}, {"id": "78", "type": "Feature", "properties": {"cultura": "Outras Lavouras Temporárias", "area_ha": 0.04}, "geometry": {"type": "Polygon", "coordinates": [[[-51.985505491996726, -29.413986505567546], [-51.985505491996726, -29.41371701098231], [-51.98523599741149, -29.41371701098231], [-51.985505491996726, -29.413986505567546]]]}}, {"id": "79", "type": "Feature", "properties": {"cultura": "Outras Lavouras Temporárias", "area_ha": 0.04}, "geometry": {"type": "Polygon", "coordinates": [[[-51.98496650282625, -29.41371701098231], [-51.98523599741149, -29.41371701098231], [-51.98523599741149, -29.413447516397074], [-51.98496650282625, -29.41371701098231]]]}}, {"id": "80", "type": "Feature", "properties": {"cultura": "Outras Lavouras Temporárias", "area_ha": 0.8}, "geometry": {"type": "Polygon", "coordinates": [[[-51.993590329553804, -29.41156105430042], [-51.9927818457981, -29.412100043470893], [-51.99278554266731, -29.413672901584633], [-51.99288060010565, -29.41369024264489], [-51.993590329553804, -29.41156105430042]]]}}, {"id": "81", "type": "Feature", "properties": {"cultura": "Outras Lavouras Temporárias", "area_ha": 0.23}, "geometry": {"type": "Polygon", "coordinates": [[[-51.92190476988107, -29.452524231256273], [-51.92230397199875, -29.45258888700425], [-51.923521737392484, -29.45279372584151], [-51.923521737392484, -29.452524231256273], [-51.92190476988107, -29.452524231256273]]]}}, {"id": "82", "type": "Feature", "properties": {"cultura": "Outras Lavouras Temporárias", "area_ha": 0.35}, "geometry": {"type": "Polygon", "coordinates": [[[-51.92433022114819, -29.452524231256273], [-51.92379123197772, -29.451715747500565], [-51.923521737392484, -29.452524231256273], [-51.92433022114819, -29.452524231256273]]]}}, {"id": "83", "type": "Feature", "properties": {"cultura": "Outras Lavouras Temporárias", "area_ha": 0.04}, "geometry": {"type": "Polygon", "coordinates": [[[-51.92459971573342, -29.452254736671037], [-51.92459971573342, -29.4519852420858], [-51.92433022114819, -29.4519852420858], [-51.92459971573342, -29.452254736671037]]]}}, {"id": "84", "type": "Feature", "properties": {"cultura": "Outras Lavouras Temporárias", "area_ha": 0.66}, "geometry": {"type": "Polygon", "coordinates": [[[-51.92163527529583, -29.450368274574384], [-51.92190476988107, -29.45144625291533], [-51.92298274822201, -29.451176758330092], [-51.92163527529583, -29.450368274574384]]]}}, {"id": "85", "type": "Feature", "properties": {"cultura": "Outras Lavouras Temporárias", "area_ha": 0.04}, "geometry": {"type": "Polygon", "coordinates": [[[-51.92298274822201, -29.450907263744856], [-51.923252242807244, -29.450907263744856], [-51.923252242807244, -29.45063776915962], [-51.92298274822201, -29.450907263744856]]]}}, {"id": "86", "type": "Feature", "properties": {"cultura": "Outras Lavouras Temporárias", "area_ha": 5.19}, "geometry": {"type": "Polygon", "coordinates": [[[-51.92486921031866, -29.450907263744856], [-51.92459971573342, -29.45009877998915], [-51.925947188659606, -29.450368274574384], [-51.92648617783008, -29.449290296233443], [-51.92486921031866, -29.448481812477734], [-51.92244375905154, -29.45009877998915], [-51.92486921031866, -29.450907263744856]]]}}, {"id": "87", "type": "Feature", "properties": {"cultura": "Outras Lavouras Temporárias", "area_ha": 0.01}, "geometry": {"type": "Polygon", "coordinates": [[[-51.92194913106385, -29.44960415200146], [-51.9221742644663, -29.44955979081868], [-51.921956930951026, -29.44955979081868], [-51.92194913106385, -29.44960415200146]]]}}, {"id": "88", "type": "Feature", "properties": {"cultura": "Outras Lavouras Temporárias", "area_ha": 0.0}, "geometry": {"type": "Polygon", "coordinates": [[[-51.92204536809165, -29.44927859439751], [-51.92197574992218, -29.449360299310534], [-51.92195600464321, -29.449457321294393], [-51.92204536809165, -29.44927859439751]]]}}, {"id": "89", "type": "Feature", "properties": {"cultura": "Outras Lavouras Temporárias", "area_ha": 0.04}, "geometry": {"type": "Polygon", "coordinates": [[[-51.925677694074366, -29.448481812477734], [-51.925947188659606, -29.448481812477734], [-51.925947188659606, -29.448212317892498], [-51.925677694074366, -29.448481812477734]]]}}, {"id": "90", "type": "Feature", "properties": {"cultura": "Outras Lavouras Temporárias", "area_ha": 0.04}, "geometry": {"type": "Polygon", "coordinates": [[[-51.925408199489134, -29.448212317892498], [-51.925677694074366, -29.448212317892498], [-51.925677694074366, -29.44794282330726], [-51.925408199489134, -29.448212317892498]]]}}, {"id": "91", "type": "Feature", "properties": {"cultura": "Outras Lavouras Temporárias", "area_ha": 0.08}, "geometry": {"type": "Polygon", "coordinates": [[[-51.92486921031866, -29.447134339551557], [-51.92486921031866, -29.44686484496632], [-51.92433022114819, -29.44686484496632], [-51.92486921031866, -29.447134339551557]]]}}, {"id": "92", "type": "Feature", "properties": {"cultura": "Outras Lavouras Temporárias", "area_ha": 0.39}, "geometry": {"type": "Polygon", "coordinates": [[[-51.92837263992673, -29.44686484496632], [-51.92945061826767, -29.44740383413679], [-51.92918112368243, -29.446595350381084], [-51.92837263992673, -29.44686484496632]]]}}, {"id": "93", "type": "Feature", "properties": {"cultura": "Outras Lavouras Temporárias", "area_ha": 0.12}, "geometry": {"type": "Polygon", "coordinates": [[[-51.923521737392484, -29.44686484496632], [-51.92433022114819, -29.44686484496632], [-51.92433022114819, -29.446595350381084], [-51.923521737392484, -29.44686484496632]]]}}, {"id": "94", "type": "Feature", "properties": {"cultura": "Outras Lavouras Temporárias", "area_ha": 0.09}, "geometry": {"type": "Polygon", "coordinates": [[[-51.93360403444162, -29.446812012569712], [-51.933762531631444, -29.446595350381084], [-51.93295404787573, -29.446595350381084], [-51.93360403444162, -29.446812012569712]]]}}, {"id": "96", "type": "Feature", "properties": {"cultura": "Outras Lavouras Temporárias", "area_ha": 0.12}, "geometry": {"type": "Polygon", "coordinates": [[[-51.923252242807244, -29.446595350381084], [-51.923252242807244, -29.44632585579585], [-51.92244375905154, -29.44632585579585], [-51.923252242807244, -29.446595350381084]]]}}, {"id": "97", "type": "Feature", "properties": {"cultura": "Outras Lavouras Temporárias", "area_ha": 0.08}, "geometry": {"type": "Polygon", "coordinates": [[[-51.93403202621668, -29.44632585579585], [-51.933762531631444, -29.446056361210612], [-51.933762531631444, -29.446595350381084], [-51.93403202621668, -29.44632585579585]]]}}, {"id": "98", "type": "Feature", "properties": {"cultura": "Outras Lavouras Temporárias", "area_ha": 0.04}, "geometry": {"type": "Polygon", "coordinates": [[[-51.92244375905154, -29.44632585579585], [-51.92244375905154, -29.445909600808456], [-51.922247256358645, -29.44631707615509], [-51.92244375905154, -29.44632585579585]]]}}, {"id": "99", "type": "Feature", "properties": {"cultura": "Outras Lavouras Temporárias", "area_ha": 0.02}, "geometry": {"type": "Polygon", "coordinates": [[[-51.92190476988107, -29.445786866625376], [-51.9221742644663, -29.445649749609043], [-51.9221742644663, -29.44551737204014], [-51.92190476988107, -29.445786866625376]]]}}, {"id": "100", "type": "Feature", "properties": {"cultura": "Outras Lavouras Temporárias", "area_ha": 0.08}, "geometry": {"type": "Polygon", "coordinates": [[[-51.93430152080192, -29.445786866625376], [-51.93430152080192, -29.445247877454904], [-51.93403202621668, -29.445247877454904], [-51.93430152080192, -29.445786866625376]]]}}, {"id": "101", "type": "Feature", "properties": {"cultura": "Outras Lavouras Temporárias", "area_ha": 1.64}, "geometry": {"type": "Polygon", "coordinates": [[[-51.92837263992673, -29.44551737204014], [-51.92621668324484, -29.44470888828443], [-51.92675567241531, -29.44632585579585], [-51.92837263992673, -29.44551737204014]]]}}, {"id": "102", "type": "Feature", "properties": {"cultura": "Outras Lavouras Temporárias", "area_ha": 0.04}, "geometry": {"type": "Polygon", "coordinates": [[[-51.929720112852905, -29.44551737204014], [-51.92998960743814, -29.44551737204014], [-51.92998960743814, -29.445247877454904], [-51.929720112852905, -29.44551737204014]]]}}, {"id": "103", "type": "Feature", "properties": {"cultura": "Outras Lavouras Temporárias", "area_ha": 0.12}, "geometry": {"type": "Polygon", "coordinates": [[[-51.93106758577908, -29.445247877454904], [-51.93025910202338, -29.445247877454904], [-51.93025910202338, -29.44551737204014], [-51.93106758577908, -29.445247877454904]]]}}, {"id": "104", "type": "Feature", "properties": {"cultura": "Outras Lavouras Temporárias", "area_ha": 0.04}, "geometry": {"type": "Polygon", "coordinates": [[[-51.92998960743814, -29.445247877454904], [-51.93025910202338, -29.445247877454904], [-51.93025910202338, -29.444978382869667], [-51.92998960743814, -29.445247877454904]]]}}, {"id": "105", "type": "Feature", "properties": {"cultura": "Outras Lavouras Temporárias", "area_ha": 0.39}, "geometry": {"type": "Polygon", "coordinates": [[[-51.93430152080192, -29.443900404528726], [-51.93403202621668, -29.44470888828443], [-51.93295404787573, -29.44470888828443], [-51.93403202621668, -29.445247877454904], [-51.93430152080192, -29.443900404528726]]]}}, {"id": "106", "type": "Feature", "properties": {"cultura": "Outras Lavouras Temporárias", "area_ha": 0.23}, "geometry": {"type": "Polygon", "coordinates": [[[-51.93079809119385, -29.443900404528726], [-51.93079809119385, -29.443361415358254], [-51.92998960743814, -29.443361415358254], [-51.93079809119385, -29.443900404528726]]]}}, {"id": "107", "type": "Feature", "properties": {"cultura": "Outras Lavouras Temporárias", "area_ha": 0.08}, "geometry": {"type": "Polygon", "coordinates": [[[-51.93403202621668, -29.44363090994349], [-51.93430152080192, -29.44363090994349], [-51.93430152080192, -29.443091920773018], [-51.93403202621668, -29.44363090994349]]]}}, {"id": "108", "type": "Feature", "properties": {"cultura": "Outras Lavouras Temporárias", "area_ha": 0.59}, "geometry": {"type": "Polygon", "coordinates": [[[-51.93106758577908, -29.442552931602545], [-51.931876069534795, -29.443361415358254], [-51.93241505870527, -29.442552931602545], [-51.93106758577908, -29.442552931602545]]]}}, {"id": "109", "type": "Feature", "properties": {"cultura": "Outras Lavouras Temporárias", "area_ha": 0.08}, "geometry": {"type": "Polygon", "coordinates": [[[-51.93403202621668, -29.443091920773018], [-51.93403202621668, -29.44282242618778], [-51.933493037046205, -29.44282242618778], [-51.93403202621668, -29.443091920773018]]]}}, {"id": "111", "type": "Feature", "properties": {"cultura": "Outras Lavouras Temporárias", "area_ha": 0.08}, "geometry": {"type": "Polygon", "coordinates": [[[-51.93295404787573, -29.442552931602545], [-51.93295404787573, -29.44228343701731], [-51.93241505870527, -29.44228343701731], [-51.93295404787573, -29.442552931602545]]]}}, {"id": "112", "type": "Feature", "properties": {"cultura": "Outras Lavouras Temporárias", "area_ha": 1.05}, "geometry": {"type": "Polygon", "coordinates": [[[-51.93052859660861, -29.442552931602545], [-51.93079809119385, -29.4414749532616], [-51.9289116290972, -29.441744447846837], [-51.93052859660861, -29.442552931602545]]]}}, {"id": "113", "type": "Feature", "properties": {"cultura": "Outras Lavouras Temporárias", "area_ha": 1.72}, "geometry": {"type": "Polygon", "coordinates": [[[-51.925138704903894, -29.441205458676365], [-51.92433022114819, -29.440935964091132], [-51.92298274822201, -29.441744447846837], [-51.92486921031866, -29.44228343701731], [-51.925138704903894, -29.441205458676365]]]}}, {"id": "114", "type": "Feature", "properties": {"cultura": "Outras Lavouras Temporárias", "area_ha": 2.4}, "geometry": {"type": "Polygon", "coordinates": [[[-51.93403202621668, -29.44282242618778], [-51.93537949914286, -29.441744447846837], [-51.936688644614506, -29.44166779293777], [-51.936187982898566, -29.440666469505896], [-51.93457101538715, -29.440935964091132], [-51.93511000455762, -29.440127480335423], [-51.93430152080192, -29.440127480335423], [-51.93484050997239, -29.442013942432073], [-51.93403202621668, -29.44282242618778]]]}}, {"id": "115", "type": "Feature", "properties": {"cultura": "Outras Lavouras Temporárias", "area_ha": 0.86}, "geometry": {"type": "Polygon", "coordinates": [[[-51.933493037046205, -29.442013942432073], [-51.93403202621668, -29.440935964091132], [-51.9326845532905, -29.440666469505896], [-51.933493037046205, -29.442013942432073]]]}}, {"id": "116", "type": "Feature", "properties": {"cultura": "Outras Lavouras Temporárias", "area_ha": 0.02}, "geometry": {"type": "Polygon", "coordinates": [[[-51.92992270597394, -29.44111958179103], [-51.92998960743814, -29.440935964091132], [-51.929766377762604, -29.440935964091132], [-51.92992270597394, -29.44111958179103]]]}}, {"id": "117", "type": "Feature", "properties": {"cultura": "Outras Lavouras Temporárias", "area_ha": 0.04}, "geometry": {"type": "Polygon", "coordinates": [[[-51.93241505870527, -29.440935964091132], [-51.93241505870527, -29.440666469505896], [-51.93214556412003, -29.440666469505896], [-51.93241505870527, -29.440935964091132]]]}}, {"id": "118", "type": "Feature", "properties": {"cultura": "Outras Lavouras Temporárias", "area_ha": 0.16}, "geometry": {"type": "Polygon", "coordinates": [[[-51.92998960743814, -29.440127480335423], [-51.92944847090674, -29.439992196202574], [-51.92967057851824, -29.44060602371528], [-51.92998960743814, -29.440127480335423]]]}}, {"id": "118", "type": "Feature", "properties": {"cultura": "Outras Lavouras Temporárias", "area_ha": 0.81}, "geometry": {"type": "Polygon", "coordinates": [[[-51.927833650756256, -29.4414749532616], [-51.92918112368243, -29.4414749532616], [-51.929302495981695, -29.441232208663084], [-51.928566389933415, -29.44049731378951], [-51.927833650756256, -29.4414749532616]], [[-51.9289116290972, -29.440935964091132], [-51.92864213451196, -29.440935964091132], [-51.92864213451196, -29.440666469505896], [-51.9289116290972, -29.440935964091132]]]}}, {"id": "119", "type": "Feature", "properties": {"cultura": "Outras Lavouras Temporárias", "area_ha": 0.95}, "geometry": {"type": "Polygon", "coordinates": [[[-51.933223253521, -29.439589357984875], [-51.93257822588388, -29.43949460455552], [-51.931606574949555, -29.44039697492066], [-51.93295404787573, -29.44039697492066], [-51.933223253521, -29.439589357984875]]]}}, {"id": "120", "type": "Feature", "properties": {"cultura": "Outras Lavouras Temporárias", "area_ha": 0.35}, "geometry": {"type": "Polygon", "coordinates": [[[-51.925138704903894, -29.43958849116495], [-51.925947188659606, -29.439857985750187], [-51.925947188659606, -29.43904950199448], [-51.925138704903894, -29.43958849116495]]]}}, {"id": "121", "type": "Feature", "properties": {"cultura": "Outras Lavouras Temporárias", "area_ha": 0.04}, "geometry": {"type": "Polygon", "coordinates": [[[-51.93591848831333, -29.43904950199448], [-51.93591848831333, -29.438780007409243], [-51.935648993728094, -29.438780007409243], [-51.93591848831333, -29.43904950199448]]]}}, {"id": "122", "type": "Feature", "properties": {"cultura": "Outras Lavouras Temporárias", "area_ha": 0.06}, "geometry": {"type": "Polygon", "coordinates": [[[-51.93537949914286, -29.438780007409243], [-51.935648993728094, -29.438510512824006], [-51.935167780941185, -29.43855591958662], [-51.93537949914286, -29.438780007409243]]]}}, {"id": "123", "type": "Feature", "properties": {"cultura": "Outras Lavouras Temporárias", "area_ha": 0.02}, "geometry": {"type": "Polygon", "coordinates": [[[-51.93576118206201, -29.43835320657269], [-51.935648993728094, -29.438510512824006], [-51.93591848831333, -29.438510512824006], [-51.93576118206201, -29.43835320657269]]]}}, {"id": "124", "type": "Feature", "properties": {"cultura": "Outras Lavouras Temporárias", "area_ha": 0.08}, "geometry": {"type": "Polygon", "coordinates": [[[-51.93591848831333, -29.43824101823877], [-51.9364574774838, -29.43824101823877], [-51.9364574774838, -29.437971523653538], [-51.93591848831333, -29.43824101823877]]]}}, {"id": "125", "type": "Feature", "properties": {"cultura": "Outras Lavouras Temporárias", "area_ha": 0.04}, "geometry": {"type": "Polygon", "coordinates": [[[-51.92648617783008, -29.437971523653538], [-51.92648617783008, -29.4377020290683], [-51.92621668324484, -29.4377020290683], [-51.92648617783008, -29.437971523653538]]]}}, {"id": "126", "type": "Feature", "properties": {"cultura": "Outras Lavouras Temporárias", "area_ha": 0.13}, "geometry": {"type": "Polygon", "coordinates": [[[-51.931606574949555, -29.438510512824006], [-51.931868147434756, -29.438510512824006], [-51.93205583092324, -29.437612000876644], [-51.931606574949555, -29.438510512824006]]]}}, {"id": "127", "type": "Feature", "properties": {"cultura": "Outras Lavouras Temporárias", "area_ha": 0.39}, "geometry": {"type": "Polygon", "coordinates": [[[-51.937535455824744, -29.43824101823877], [-51.938074444995216, -29.438510512824006], [-51.938074444995216, -29.43716303989783], [-51.937535455824744, -29.43824101823877]]]}}, {"id": "128", "type": "Feature", "properties": {"cultura": "Outras Lavouras Temporárias", "area_ha": 0.04}, "geometry": {"type": "Polygon", "coordinates": [[[-51.92648617783008, -29.4377020290683], [-51.92675567241531, -29.4377020290683], [-51.92675567241531, -29.437432534483065], [-51.92648617783008, -29.4377020290683]]]}}, {"id": "129", "type": "Feature", "properties": {"cultura": "Outras Lavouras Temporárias", "area_ha": 0.04}, "geometry": {"type": "Polygon", "coordinates": [[[-51.936087753216235, -29.437656005587918], [-51.93575951860907, -29.437874906478648], [-51.93575131500088, -29.438104589875056], [-51.936087753216235, -29.437656005587918]]]}}, {"id": "130", "type": "Feature", "properties": {"cultura": "Outras Lavouras Temporárias", "area_ha": 0.08}, "geometry": {"type": "Polygon", "coordinates": [[[-51.92729466158578, -29.437432534483065], [-51.92729466158578, -29.43716303989783], [-51.92675567241531, -29.43716303989783], [-51.92729466158578, -29.437432534483065]]]}}, {"id": "131", "type": "Feature", "properties": {"cultura": "Outras Lavouras Temporárias", "area_ha": 0.04}, "geometry": {"type": "Polygon", "coordinates": [[[-51.92729466158578, -29.436893545312593], [-51.92729466158578, -29.43716303989783], [-51.927564156171016, -29.43716303989783], [-51.92729466158578, -29.436893545312593]]]}}, {"id": "132", "type": "Feature", "properties": {"cultura": "Outras Lavouras Temporárias", "area_ha": 0.08}, "geometry": {"type": "Polygon", "coordinates": [[[-51.92810314534149, -29.436893545312593], [-51.92810314534149, -29.436624050727357], [-51.927564156171016, -29.436624050727357], [-51.92810314534149, -29.436893545312593]]]}}, {"id": "133", "type": "Feature", "properties": {"cultura": "Outras Lavouras Temporárias", "area_ha": 0.04}, "geometry": {"type": "Polygon", "coordinates": [[[-51.93780495040998, -29.436085061556884], [-51.938074444995216, -29.436085061556884], [-51.938074444995216, -29.435815566971648], [-51.93780495040998, -29.436085061556884]]]}}, {"id": "134", "type": "Feature", "properties": {"cultura": "Outras Lavouras Temporárias", "area_ha": 0.08}, "geometry": {"type": "Polygon", "coordinates": [[[-51.93861343416569, -29.435815566971648], [-51.93861343416569, -29.435546072386412], [-51.938074444995216, -29.435546072386412], [-51.93861343416569, -29.435815566971648]]]}}, {"id": "135", "type": "Feature", "properties": {"cultura": "Outras Lavouras Temporárias", "area_ha": 0.04}, "geometry": {"type": "Polygon", "coordinates": [[[-51.94238635835899, -29.435546072386412], [-51.94238635835899, -29.435276577801176], [-51.942116863773755, -29.435276577801176], [-51.94238635835899, -29.435546072386412]]]}}, {"id": "136", "type": "Feature", "properties": {"cultura": "Outras Lavouras Temporárias", "area_ha": 0.23}, "geometry": {"type": "Polygon", "coordinates": [[[-51.933762531631444, -29.435007083215943], [-51.93295404787573, -29.435007083215943], [-51.93295404787573, -29.435546072386412], [-51.933762531631444, -29.435007083215943]]]}}, {"id": "137", "type": "Feature", "properties": {"cultura": "Outras Lavouras Temporárias", "area_ha": 0.43}, "geometry": {"type": "Polygon", "coordinates": [[[-51.93969141250663, -29.435007083215943], [-51.93888292875092, -29.435546072386412], [-51.939960907091866, -29.435815566971648], [-51.93969141250663, -29.435007083215943]]]}}, {"id": "138", "type": "Feature", "properties": {"cultura": "Outras Lavouras Temporárias", "area_ha": 0.08}, "geometry": {"type": "Polygon", "coordinates": [[[-51.94346433669993, -29.435546072386412], [-51.94346433669993, -29.435276577801176], [-51.94292534752946, -29.435276577801176], [-51.94346433669993, -29.435546072386412]]]}}, {"id": "139", "type": "Feature", "properties": {"cultura": "Outras Lavouras Temporárias", "area_ha": 0.52}, "geometry": {"type": "Polygon", "coordinates": [[[-51.93424809385559, -29.435277364419044], [-51.93476266598452, -29.434849590089044], [-51.93537949914286, -29.434737588630707], [-51.933762531631444, -29.43446809404547], [-51.93424809385559, -29.435277364419044]]]}}, {"id": "140", "type": "Feature", "properties": {"cultura": "Outras Lavouras Temporárias", "area_ha": 0.16}, "geometry": {"type": "Polygon", "coordinates": [[[-51.937535455824744, -29.435546072386412], [-51.938074444995216, -29.435007083215943], [-51.937535455824744, -29.435007083215943], [-51.937535455824744, -29.435546072386412]]]}}, {"id": "141", "type": "Feature", "properties": {"cultura": "Outras Lavouras Temporárias", "area_ha": 0.08}, "geometry": {"type": "Polygon", "coordinates": [[[-51.94238635835899, -29.435276577801176], [-51.94292534752946, -29.435007083215943], [-51.94238635835899, -29.435007083215943], [-51.94238635835899, -29.435276577801176]]]}}, {"id": "142", "type": "Feature", "properties": {"cultura": "Outras Lavouras Temporárias", "area_ha": 0.04}, "geometry": {"type": "Polygon", "coordinates": [[[-51.94292534752946, -29.435007083215943], [-51.9431948421147, -29.435007083215943], [-51.9431948421147, -29.434737588630707], [-51.94292534752946, -29.435007083215943]]]}}, {"id": "143", "type": "Feature", "properties": {"cultura": "Outras Lavouras Temporárias", "area_ha": 0.59}, "geometry": {"type": "Polygon", "coordinates": [[[-51.93969141250663, -29.434737588630707], [-51.940230401677105, -29.433929104875], [-51.93888292875092, -29.433929104875], [-51.93969141250663, -29.434737588630707]]]}}, {"id": "144", "type": "Feature", "properties": {"cultura": "Outras Lavouras Temporárias", "area_ha": 0.16}, "geometry": {"type": "Polygon", "coordinates": [[[-51.94292534752946, -29.433929104875], [-51.94292534752946, -29.433390115704526], [-51.94238635835899, -29.433390115704526], [-51.94292534752946, -29.433929104875]]]}}, {"id": "145", "type": "Feature", "properties": {"cultura": "Outras Lavouras Temporárias", "area_ha": 0.31}, "geometry": {"type": "Polygon", "coordinates": [[[-51.94238635835899, -29.43312062111929], [-51.94130838001805, -29.432851126534054], [-51.94130838001805, -29.433390115704526], [-51.94238635835899, -29.43312062111929]]]}}, {"id": "146", "type": "Feature", "properties": {"cultura": "Outras Lavouras Temporárias", "area_ha": 0.12}, "geometry": {"type": "Polygon", "coordinates": [[[-51.9431948421147, -29.432851126534054], [-51.9431948421147, -29.432581631948818], [-51.94238635835899, -29.432581631948818], [-51.9431948421147, -29.432851126534054]]]}}, {"id": "147", "type": "Feature", "properties": {"cultura": "Outras Lavouras Temporárias", "area_ha": 0.2}, "geometry": {"type": "Polygon", "coordinates": [[[-51.94373383128517, -29.43042567526693], [-51.94373383128517, -29.430156180681696], [-51.94238635835899, -29.430156180681696], [-51.94373383128517, -29.43042567526693]]]}}, {"id": "148", "type": "Feature", "properties": {"cultura": "Soja", "area_ha": 0.68}, "geometry": {"type": "Polygon", "coordinates": [[[-52.03536199026536, -29.409944086789007], [-52.03347552816871, -29.40967459220377], [-52.034694487006284, -29.410520290482367], [-52.03536199026536, -29.409944086789007]]]}}, {"id": "148", "type": "Feature", "properties": {"cultura": "Soja", "area_ha": 0.28}, "geometry": {"type": "Polygon", "coordinates": [[[-52.03389975731646, -29.41292701566988], [-52.03459622147783, -29.41302990505763], [-52.03379862668732, -29.412151680846485], [-52.03389975731646, -29.41292701566988]]]}}, {"id": "149", "type": "Feature", "properties": {"cultura": "Soja", "area_ha": 0.02}, "geometry": {"type": "Polygon", "coordinates": [[[-52.039134914458664, -29.409944086789007], [-52.03914265360064, -29.410079565071744], [-52.03938581646246, -29.410194988792806], [-52.039134914458664, -29.409944086789007]]]}}, {"id": "150", "type": "Feature", "properties": {"cultura": "Soja", "area_ha": 0.16}, "geometry": {"type": "Polygon", "coordinates": [[[-52.039134914458664, -29.409944086789007], [-52.039134914458664, -29.40967459220377], [-52.03805693611772, -29.409405097618535], [-52.039134914458664, -29.409944086789007]]]}}, {"id": "151", "type": "Feature", "properties": {"cultura": "Soja", "area_ha": 9.95}, "geometry": {"type": "Polygon", "coordinates": [[[-52.02619917436734, -29.409944086789007], [-52.02727715270829, -29.409405097618535], [-52.02754664729352, -29.41048307595948], [-52.02835513104923, -29.410213581374244], [-52.026738163537814, -29.40832711927759], [-52.026738163537814, -29.406899776035164], [-52.02323473392975, -29.406979646351413], [-52.02350422851498, -29.408596613862827], [-52.02619917436734, -29.409944086789007]]]}}, {"id": "151", "type": "Feature", "properties": {"cultura": "Soja", "area_ha": 0.0}, "geometry": {"type": "Polygon", "coordinates": [[[-52.02664670271922, -29.406620716149547], [-52.026490675894735, -29.406478732202952], [-52.02649075441842, -29.4064865475885], [-52.02664670271922, -29.406620716149547]]]}}, {"id": "152", "type": "Feature", "properties": {"cultura": "Soja", "area_ha": 8.65}, "geometry": {"type": "Polygon", "coordinates": [[[-52.02781614187876, -29.407518635521885], [-52.02781614187876, -29.408596613862827], [-52.02874053874581, -29.4088246341007], [-52.030184167026576, -29.40684610534684], [-52.02915057730155, -29.40655627828785], [-52.029163614804936, -29.40455419508429], [-52.02808563646399, -29.404284700499055], [-52.0251211960264, -29.405632173425232], [-52.02566018519687, -29.406171162595705], [-52.02754664729352, -29.405632173425232], [-52.02754664729352, -29.40644065718094], [-52.028894120219704, -29.40644065718094], [-52.028894120219704, -29.40724914093665], [-52.02781614187876, -29.407518635521885]], [[-52.02700765812305, -29.405362678839996], [-52.02727715270829, -29.405362678839996], [-52.02727715270829, -29.405632173425232], [-52.02700765812305, -29.405362678839996]]]}}, {"id": "152", "type": "Feature", "properties": {"cultura": "Soja", "area_ha": 0.35}, "geometry": {"type": "Polygon", "coordinates": [[[-52.029192655281335, -29.405617653187033], [-52.0295598111865, -29.406255303251797], [-52.02996240180853, -29.405295578101295], [-52.02993100737337, -29.405248477141015], [-52.029192655281335, -29.405617653187033]]]}}, {"id": "153", "type": "Feature", "properties": {"cultura": "Soja", "area_ha": 24.8}, "geometry": {"type": "Polygon", "coordinates": [[[-52.016227874713614, -29.411830548885657], [-52.018114336810264, -29.41156105430042], [-52.01919231515121, -29.40967459220377], [-52.02310824365217, -29.410411217262265], [-52.02242625017404, -29.409944086789007], [-52.02242625017404, -29.40724914093665], [-52.01272444510555, -29.408866108448063], [-52.01299393969079, -29.410213581374244], [-52.01488040178744, -29.409944086789007], [-52.016497369298854, -29.411022065129952], [-52.016227874713614, -29.411830548885657]], [[-52.01568888554314, -29.40967459220377], [-52.01568888554314, -29.409944086789007], [-52.01488040178744, -29.409944086789007], [-52.01568888554314, -29.40967459220377]], [[-52.01649039593577, -29.408268872049018], [-52.01648000006165, -29.408259926676536], [-52.016490306145776, -29.408259848056968], [-52.01649039593577, -29.408268872049018]], [[-52.01651118768947, -29.408286762791388], [-52.01652140398339, -29.4082776601774], [-52.0165214937762, -29.40828668416934], [-52.01651118768947, -29.408286762791388]], [[-52.01651109789757, -29.40827773879941], [-52.016500702020764, -29.40826879342862], [-52.01651100810572, -29.40826871480743], [-52.01651109789757, -29.40827773879941]], [[-52.016531710069174, -29.408277581554586], [-52.016841072265684, -29.408293270481714], [-52.01653188965665, -29.4082956295384], [-52.016531710069174, -29.408277581554586]], [[-52.01688202713681, -29.408265883913835], [-52.016892423045775, -29.40827482925408], [-52.01688211696142, -29.408274907904783], [-52.01688202713681, -29.408265883913835]], [[-52.01688211696142, -29.408274907904783], [-52.016861594615435, -29.408284089194794], [-52.0168615047926, -29.40827506520381], [-52.01688211696142, -29.408274907904783]], [[-52.01702622246391, -29.408255758741316], [-52.01695399005818, -29.408247285360854], [-52.01702613262665, -29.40824673475075], [-52.01702622246391, -29.408255758741316]], [[-52.017159482734485, -29.408182544153846], [-52.01716987865835, -29.40819148947217], [-52.017159572583296, -29.408191568144122], [-52.017159482734485, -29.408182544153846]], [[-52.017159572583296, -29.408191568144122], [-52.0171390502801, -29.408200749475977], [-52.017138960433066, -29.408191725485654], [-52.017159572583296, -29.408191568144122]], [[-52.01719049080833, -29.408191332125853], [-52.01718009488273, -29.408182386809184], [-52.01719040095679, -29.408182308135657], [-52.01719049080833, -29.408191332125853]], [[-52.017211013104784, -29.408182150786224], [-52.017200617178396, -29.408173205471165], [-52.01721092325146, -29.408173126796076], [-52.017211013104784, -29.408182150786224]], [[-52.01723162525263, -29.4081819934336], [-52.01722122932449, -29.4081730481202], [-52.01723153539748, -29.408172969443505], [-52.01723162525263, -29.4081819934336]], [[-52.01732411032598, -29.40815421333781], [-52.01730340832295, -29.40814534671468], [-52.017324020462766, -29.408145189347938], [-52.01732411032598, -29.40815421333781]], [[-52.01734454273743, -29.40813600798819], [-52.01736524474191, -29.408144874604904], [-52.01734463260242, -29.408145031978005], [-52.01734454273743, -29.40813600798819]], [[-52.01739589334234, -29.40811756657018], [-52.01740628927955, -29.408126511869803], [-52.017395983211806, -29.40812659055988], [-52.01739589334234, -29.40811756657018]], [[-52.017395983211806, -29.40812659055988], [-52.017375460943875, -29.408135771927416], [-52.0173753710762, -29.408126747937665], [-52.017395983211806, -29.40812659055988]], [[-52.01769413999401, -29.408052116312614], [-52.01768374404009, -29.408043171035786], [-52.01769405009849, -29.408043092323652], [-52.01769413999401, -29.408052116312614]]]}}, {"id": "154", "type": "Feature", "properties": {"cultura": "Soja", "area_ha": 0.08}, "geometry": {"type": "Polygon", "coordinates": [[[-51.98685296492291, -29.471658346808017], [-51.98685296492291, -29.47219733597849], [-51.98712245950814, -29.47219733597849], [-51.98685296492291, -29.471658346808017]]]}}, {"id": "155", "type": "Feature", "properties": {"cultura": "Soja", "area_ha": 1.33}, "geometry": {"type": "Polygon", "coordinates": [[[-51.989547910775265, -29.467346433444245], [-51.98793094326385, -29.466537949688536], [-51.987661448678615, -29.467346433444245], [-51.98841421943481, -29.467848280615044], [-51.989547910775265, -29.467346433444245]]]}}, {"id": "156", "type": "Feature", "properties": {"cultura": "Soja", "area_ha": 0.11}, "geometry": {"type": "Polygon", "coordinates": [[[-51.996360202571914, -29.415578497357043], [-51.996723311770275, -29.415818453433246], [-51.99693555816761, -29.41538671215848], [-51.996360202571914, -29.415578497357043]]]}}, {"id": "157", "type": "Feature", "properties": {"cultura": "Soja", "area_ha": 4.19}, "geometry": {"type": "Polygon", "coordinates": [[[-51.999788705014225, -29.419376397272263], [-51.999788705014225, -29.41641195683467], [-51.998069328716184, -29.41461711698734], [-51.99844123208805, -29.417220440590373], [-51.999788705014225, -29.419376397272263]]]}}, {"id": "157", "type": "Feature", "properties": {"cultura": "Soja", "area_ha": 0.06}, "geometry": {"type": "Polygon", "coordinates": [[[-51.998171737502815, -29.41197211359905], [-51.99763274833234, -29.41156105430042], [-51.99766622710688, -29.411795405722195], [-51.998171737502815, -29.41197211359905]]]}}, {"id": "158", "type": "Feature", "properties": {"cultura": "Soja", "area_ha": 0.47}, "geometry": {"type": "Polygon", "coordinates": [[[-52.00517859671894, -29.413447516397074], [-52.00517859671894, -29.412639032641366], [-52.004100618378004, -29.412639032641366], [-52.00517859671894, -29.413447516397074]]]}}, {"id": "159", "type": "Feature", "properties": {"cultura": "Soja", "area_ha": 4.57}, "geometry": {"type": "Polygon", "coordinates": [[[-51.994866687113934, -29.414442526810962], [-51.99709375916187, -29.413986505567546], [-51.99513731682501, -29.413844875498132], [-51.99437491100492, -29.412821751744072], [-51.99429822566049, -29.411297149061497], [-51.99597332713493, -29.411844169800844], [-51.99628527540616, -29.410752570544716], [-51.993590329553804, -29.411291559715185], [-51.993320834968564, -29.412639032641366], [-51.994866687113934, -29.414442526810962]]]}}, {"id": "160", "type": "Feature", "properties": {"cultura": "Soja", "area_ha": 1.6}, "geometry": {"type": "Polygon", "coordinates": [[[-51.987209045842775, -29.413656041565442], [-51.987391954093376, -29.412100043470893], [-51.98900892160479, -29.41156105430042], [-51.987391954093376, -29.411291559715185], [-51.98658347033767, -29.413447516397074], [-51.987209045842775, -29.413656041565442]]]}}, {"id": "161", "type": "Feature", "properties": {"cultura": "Soja", "area_ha": 51.98}, "geometry": {"type": "Polygon", "coordinates": [[[-52.00167516711088, -29.410752570544716], [-52.00248365086659, -29.4129085272266], [-52.00356162920753, -29.413178021811838], [-52.004100618378004, -29.412100043470893], [-52.00517859671894, -29.412100043470893], [-52.00463960754848, -29.410213581374244], [-52.005717585889414, -29.411830548885657], [-52.006526069645126, -29.41048307595948], [-52.006526069645126, -29.41236953805613], [-52.00973506040392, -29.413058192810812], [-52.00868202632701, -29.412100043470893], [-52.01002949925319, -29.411291559715185], [-52.00949051008272, -29.41048307595948], [-52.0116464667646, -29.409944086789007], [-52.0116464667646, -29.408866108448063], [-52.00437011296324, -29.408057624692354], [-51.99898022125852, -29.4091356030333], [-51.99844123208805, -29.40778813010712], [-51.99628527540616, -29.408596613862827], [-51.99628527540616, -29.41048307595948], [-51.9973632537471, -29.411291559715185], [-51.99924971584375, -29.411830548885657], [-51.99951921042899, -29.409944086789007], [-52.000058199599465, -29.41236953805613], [-52.00167516711088, -29.410752570544716]], [[-51.99924971584375, -29.40967459220377], [-51.99951921042899, -29.40967459220377], [-51.99951921042899, -29.409944086789007], [-51.99924971584375, -29.40967459220377]], [[-51.99898022125852, -29.409405097618535], [-51.99924971584375, -29.409405097618535], [-51.99924971584375, -29.40967459220377], [-51.99898022125852, -29.409405097618535]], [[-52.003831123792764, -29.4091356030333], [-52.00490910213371, -29.4091356030333], [-52.00490910213371, -29.40967459220377], [-52.003831123792764, -29.4091356030333]], [[-52.008412531741776, -29.410213581374244], [-52.00868202632701, -29.410213581374244], [-52.00868202632701, -29.41048307595948], [-52.008412531741776, -29.410213581374244]], [[-52.008412531741776, -29.41156105430042], [-52.008143037156536, -29.41048307595948], [-52.008412531741776, -29.41048307595948], [-52.008412531741776, -29.41156105430042]]]}}, {"id": "162", "type": "Feature", "properties": {"cultura": "Soja", "area_ha": 2.57}, "geometry": {"type": "Polygon", "coordinates": [[[-51.98038509487725, -29.485672065240284], [-51.98038509487725, -29.487289032751697], [-51.98200206238866, -29.487289032751697], [-51.98200206238866, -29.48594155982552], [-51.98038509487725, -29.485672065240284]]]}}, {"id": "163", "type": "Feature", "properties": {"cultura": "Soja", "area_ha": 0.11}, "geometry": {"type": "Polygon", "coordinates": [[[-51.983619029900076, -29.469771884711367], [-51.98422002368276, -29.470312163363992], [-51.98472053768143, -29.4704167563637], [-51.983619029900076, -29.469771884711367]]]}}, {"id": "164", "type": "Feature", "properties": {"cultura": "Soja", "area_ha": 1.3}, "geometry": {"type": "Polygon", "coordinates": [[[-51.98712245950814, -29.470041379296603], [-51.985774986581966, -29.46950239012613], [-51.98659445896148, -29.471625380936608], [-51.98712245950814, -29.470041379296603]]]}}, {"id": "165", "type": "Feature", "properties": {"cultura": "Soja", "area_ha": 4.25}, "geometry": {"type": "Polygon", "coordinates": [[[-51.977151159854415, -29.471658346808017], [-51.979307116536305, -29.470041379296603], [-51.979037621951065, -29.468693906370422], [-51.977151159854415, -29.469232895540895], [-51.977151159854415, -29.471658346808017]]]}}, {"id": "166", "type": "Feature", "properties": {"cultura": "Soja", "area_ha": 0.04}, "geometry": {"type": "Polygon", "coordinates": [[[-51.92406072656295, -29.4519852420858], [-51.92406072656295, -29.452254736671037], [-51.92433022114819, -29.452254736671037], [-51.92406072656295, -29.4519852420858]]]}}, {"id": "167", "type": "Feature", "properties": {"cultura": "Soja", "area_ha": 3.06}, "geometry": {"type": "Polygon", "coordinates": [[[-51.92379123197772, -29.44955979081868], [-51.92379123197772, -29.447673328722026], [-51.922558577428426, -29.447677657608217], [-51.9221742644663, -29.449829285403915], [-51.92379123197772, -29.44955979081868]]]}}, {"id": "168", "type": "Feature", "properties": {"cultura": "Soja", "area_ha": 0.59}, "geometry": {"type": "Polygon", "coordinates": [[[-51.925677694074366, -29.448481812477734], [-51.92433022114819, -29.44794282330726], [-51.92433022114819, -29.44875130706297], [-51.925677694074366, -29.448481812477734]]]}}, {"id": "169", "type": "Feature", "properties": {"cultura": "Soja", "area_ha": 89.13}, "geometry": {"type": "Polygon", "coordinates": [[[-51.93222320656367, -29.44013334821961], [-51.93079809119385, -29.439318996579715], [-51.93052859660861, -29.442552931602545], [-51.9289116290972, -29.44228343701731], [-51.9289116290972, -29.441744447846837], [-51.92998960743814, -29.442013942432073], [-51.929128605105, -29.44109697067247], [-51.927833650756256, -29.441744447846837], [-51.92648617783008, -29.441205458676365], [-51.92648617783008, -29.440127480335423], [-51.927564156171016, -29.440127480335423], [-51.92945061826767, -29.438510512824006], [-51.93025910202338, -29.436085061556884], [-51.925138704903894, -29.43824101823877], [-51.92486921031866, -29.43904950199448], [-51.925947188659606, -29.43904950199448], [-51.925947188659606, -29.439857985750187], [-51.92459971573342, -29.439318996579715], [-51.92379123197772, -29.44039697492066], [-51.925138704903894, -29.441205458676365], [-51.92486921031866, -29.44228343701731], [-51.92298274822201, -29.442013942432073], [-51.92271325363677, -29.443091920773018], [-51.92271325363677, -29.444439393699195], [-51.92459971573342, -29.444978382869667], [-51.92486921031866, -29.446056361210612], [-51.92244961243595, -29.445890122113994], [-51.92648617783008, -29.44740383413679], [-51.92675567241531, -29.44794282330726], [-51.925677694074366, -29.448481812477734], [-51.92648617783008, -29.449829285403915], [-51.92459971573342, -29.45009877998915], [-51.92486921031866, -29.450907263744856], [-51.92271325363677, -29.45009877998915], [-51.923252242807244, -29.450907263744856], [-51.92244375905154, -29.45144625291533], [-51.92143915755007, -29.45045600939313], [-51.9209359552052, -29.451824911165648], [-51.92163527529583, -29.452524231256273], [-51.925138704903894, -29.4519852420858], [-51.927025167000544, -29.44955979081868], [-51.93241505870527, -29.447673328722026], [-51.933762531631444, -29.446056361210612], [-51.93537949914286, -29.446595350381084], [-51.93511000455762, -29.445786866625376], [-51.93295404787573, -29.444978382869667], [-51.93403202621668, -29.44470888828443], [-51.93430152080192, -29.44363090994349], [-51.93222320656367, -29.44013334821961]], [[-51.93214556412003, -29.440666469505896], [-51.93241505870527, -29.440666469505896], [-51.93241505870527, -29.440935964091132], [-51.93214556412003, -29.440666469505896]], [[-51.93241505870527, -29.44228343701731], [-51.93295404787573, -29.44228343701731], [-51.93295404787573, -29.442552931602545], [-51.93241505870527, -29.44228343701731]], [[-51.93241505870527, -29.44282242618778], [-51.93106758577908, -29.443091920773018], [-51.93106758577908, -29.442552931602545], [-51.93241505870527, -29.44282242618778]], [[-51.93079809119385, -29.443900404528726], [-51.92998960743814, -29.443900404528726], [-51.92998960743814, -29.443361415358254], [-51.93079809119385, -29.443900404528726]], [[-51.92918112368243, -29.44551737204014], [-51.9289116290972, -29.44632585579585], [-51.931606574949555, -29.447134339551557], [-51.9275427924521, -29.446984221134823], [-51.92621668324484, -29.44470888828443], [-51.92810314534149, -29.445247877454904], [-51.92810314534149, -29.443900404528726], [-51.93106758577908, -29.44470888828443], [-51.93106758577908, -29.44551737204014], [-51.92918112368243, -29.44551737204014]], [[-51.927079988710425, -29.443711459248323], [-51.92710052657218, -29.44370229149596], [-51.92710060858512, -29.443711315679707], [-51.927079988710425, -29.443711459248323]], [[-51.92712008025648, -29.443584833534974], [-51.92694538552722, -29.44364922307723], [-51.92695479346177, -29.443549885276926], [-51.92712008025648, -29.443584833534974]], [[-51.92703874896058, -29.443711746375975], [-51.9270594508449, -29.443720626997592], [-51.92703883096808, -29.44372077055988], [-51.92703874896058, -29.443711746375975]], [[-51.93274196794609, -29.44725474076623], [-51.93275236074975, -29.447263692700513], [-51.93274205046997, -29.447263764930696], [-51.93274196794609, -29.44725474076623]], [[-51.932752113175496, -29.44723662020719], [-51.93276250597813, -29.447245572140723], [-51.93275219570021, -29.44724564437164], [-51.932752113175496, -29.44723662020719]], [[-51.9327624234525, -29.447236547976296], [-51.932772651202974, -29.447227451580186], [-51.93277273372948, -29.447236475744596], [-51.9327624234525, -29.447236547976296]]]}}, {"id": "170", "type": "Feature", "properties": {"cultura": "Soja", "area_ha": 0.04}, "geometry": {"type": "Polygon", "coordinates": [[[-51.92969148903599, -29.44063784568898], [-51.92973524050679, -29.440913321468372], [-51.92998960743814, -29.440935964091132], [-51.92969148903599, -29.44063784568898]]]}}, {"id": "171", "type": "Feature", "properties": {"cultura": "Soja", "area_ha": 1.96}, "geometry": {"type": "Polygon", "coordinates": [[[-51.93457101538715, -29.44039697492066], [-51.93457101538715, -29.440935964091132], [-51.9372597199279, -29.44069153640561], [-51.93755805604095, -29.439161819871813], [-51.936187982898566, -29.44039697492066], [-51.93457101538715, -29.44039697492066]]]}}, {"id": "172", "type": "Feature", "properties": {"cultura": "Soja", "area_ha": 0.16}, "geometry": {"type": "Polygon", "coordinates": [[[-51.93511000455762, -29.43904950199448], [-51.93511000455762, -29.43958849116495], [-51.935648993728094, -29.439318996579715], [-51.93511000455762, -29.43904950199448]]]}}, {"id": "173", "type": "Feature", "properties": {"cultura": "Soja", "area_ha": 0.04}, "geometry": {"type": "Polygon", "coordinates": [[[-51.935648993728094, -29.438510512824006], [-51.935648993728094, -29.438780007409243], [-51.93591848831333, -29.438780007409243], [-51.935648993728094, -29.438510512824006]]]}}, {"id": "174", "type": "Feature", "properties": {"cultura": "Soja", "area_ha": 0.08}, "geometry": {"type": "Polygon", "coordinates": [[[-51.9364574774838, -29.43824101823877], [-51.93591848831333, -29.43824101823877], [-51.93591848831333, -29.438510512824006], [-51.9364574774838, -29.43824101823877]]]}}, {"id": "175", "type": "Feature", "properties": {"cultura": "Soja", "area_ha": 0.1}, "geometry": {"type": "Polygon", "coordinates": [[[-51.9364574774838, -29.437716579415287], [-51.93573978467951, -29.437971523653538], [-51.9364574774838, -29.437971523653538], [-51.9364574774838, -29.437716579415287]]]}}, {"id": "176", "type": "Feature", "properties": {"cultura": "Soja", "area_ha": 2.03}, "geometry": {"type": "Polygon", "coordinates": [[[-51.94265585294423, -29.436893545312593], [-51.944003325870405, -29.436624050727357], [-51.94373383128517, -29.435276577801176], [-51.94238635835899, -29.435546072386412], [-51.94265585294423, -29.436893545312593]]]}}, {"id": "177", "type": "Feature", "properties": {"cultura": "Soja", "area_ha": 0.56}, "geometry": {"type": "Polygon", "coordinates": [[[-51.93079809119385, -29.435276577801176], [-51.93183523292519, -29.43588087850885], [-51.931606574949555, -29.434737588630707], [-51.93079809119385, -29.435276577801176]]]}}, {"id": "178", "type": "Feature", "properties": {"cultura": "Soja", "area_ha": 43.13}, "geometry": {"type": "Polygon", "coordinates": [[[-51.942116863773755, -29.435815566971648], [-51.9431948421147, -29.434737588630707], [-51.94238635835899, -29.433390115704526], [-51.94130838001805, -29.433390115704526], [-51.94238635835899, -29.432581631948818], [-51.94346433669993, -29.432851126534054], [-51.944003325870405, -29.435007083215943], [-51.94454231504088, -29.432581631948818], [-51.94598493294409, -29.43202682670703], [-51.94535079879658, -29.43123415902264], [-51.94642877713753, -29.430156180681696], [-51.94130838001805, -29.43042567526693], [-51.93969141250663, -29.431503653607876], [-51.93537949914286, -29.43231213736358], [-51.93322354246097, -29.434198599460235], [-51.93322354246097, -29.435007083215943], [-51.93712285037176, -29.43476982986378], [-51.937289467689794, -29.436073308331743], [-51.93942191792139, -29.435007083215943], [-51.939960907091866, -29.435815566971648], [-51.942116863773755, -29.435815566971648]], [[-51.937535455824744, -29.435007083215943], [-51.938074444995216, -29.435007083215943], [-51.938074444995216, -29.435546072386412], [-51.937535455824744, -29.435007083215943]], [[-51.93969141250663, -29.434737588630707], [-51.93888292875092, -29.43446809404547], [-51.93888292875092, -29.433929104875], [-51.940230401677105, -29.433929104875], [-51.93969141250663, -29.434737588630707]]]}}, {"id": "178", "type": "Feature", "properties": {"cultura": "Soja", "area_ha": 0.05}, "geometry": {"type": "Polygon", "coordinates": [[[-51.945237725060856, -29.433972451988783], [-51.945371573082596, -29.43376393283989], [-51.94505337197132, -29.43360374580971], [-51.945237725060856, -29.433972451988783]]]}}, {"id": "179", "type": "Feature", "properties": {"cultura": "Soja", "area_ha": 0.41}, "geometry": {"type": "Polygon", "coordinates": [[[-51.95101018508654, -29.429078202340754], [-51.94966271216036, -29.42988668609646], [-51.950966891374605, -29.43014752193931], [-51.950394320132894, -29.429549729943762], [-51.95101018508654, -29.429078202340754]]]}}, {"id": "180", "type": "Feature", "properties": {"cultura": "Soja", "area_ha": 0.2}, "geometry": {"type": "Polygon", "coordinates": [[[-51.95505260386508, -29.429078202340754], [-51.95586108762078, -29.42899619938283], [-51.95586108762078, -29.428539213170282], [-51.95505260386508, -29.429078202340754]]]}}, {"id": "181", "type": "Feature", "properties": {"cultura": "Soja", "area_ha": 0.23}, "geometry": {"type": "Polygon", "coordinates": [[[-51.97634267609871, -29.426383256488393], [-51.97634267609871, -29.4271917402441], [-51.97688166526918, -29.4271917402441], [-51.97634267609871, -29.426383256488393]]]}}, {"id": "182", "type": "Feature", "properties": {"cultura": "Soja", "area_ha": 1.09}, "geometry": {"type": "Polygon", "coordinates": [[[-51.975534192343, -29.42530527814745], [-51.977151159854415, -29.42611376190316], [-51.97634267609871, -29.425574772732688], [-51.97661217068394, -29.4234188160508], [-51.975534192343, -29.42530527814745]]]}}, {"id": "183", "type": "Feature", "properties": {"cultura": "Soja", "area_ha": 0.13}, "geometry": {"type": "Polygon", "coordinates": [[[-51.96152047391074, -29.423688310636035], [-51.96166425148574, -29.424694753661072], [-51.96166798869639, -29.42469472668048], [-51.96187380334644, -29.424512745986007], [-51.96152047391074, -29.423688310636035]]]}}, {"id": "184", "type": "Feature", "properties": {"cultura": "Soja", "area_ha": 3.98}, "geometry": {"type": "Polygon", "coordinates": [[[-51.96529339810404, -29.423688310636035], [-51.964754408933565, -29.421801848539385], [-51.962867946836916, -29.42153235395415], [-51.96313744142215, -29.4234188160508], [-51.96529339810404, -29.423688310636035]]]}}, {"id": "185", "type": "Feature", "properties": {"cultura": "Soja", "area_ha": 1.33}, "geometry": {"type": "Polygon", "coordinates": [[[-51.960981484740266, -29.421262859368913], [-51.96152047391074, -29.423149321465562], [-51.96205946308121, -29.423149321465562], [-51.96205946308121, -29.421801848539385], [-51.960981484740266, -29.421262859368913]]]}}, {"id": "186", "type": "Feature", "properties": {"cultura": "Soja", "area_ha": 0.33}, "geometry": {"type": "Polygon", "coordinates": [[[-51.98523599741149, -29.41883740810179], [-51.98631397575244, -29.418865051307176], [-51.98631397575244, -29.418298418931318], [-51.98523599741149, -29.41883740810179]]]}}, {"id": "187", "type": "Feature", "properties": {"cultura": "Soja", "area_ha": 0.04}, "geometry": {"type": "Polygon", "coordinates": [[[-51.98657062113788, -29.418285569731527], [-51.98658347033767, -29.418028924346082], [-51.98631397575244, -29.418028924346082], [-51.98657062113788, -29.418285569731527]]]}}, {"id": "188", "type": "Feature", "properties": {"cultura": "Soja", "area_ha": 1.95}, "geometry": {"type": "Polygon", "coordinates": [[[-51.98658347033767, -29.417220440590373], [-51.98658347033767, -29.41425600015278], [-51.9860444811672, -29.41425600015278], [-51.9860444811672, -29.41560347307896], [-51.98523599741149, -29.41560347307896], [-51.98658347033767, -29.417220440590373]]]}}, {"id": "189", "type": "Feature", "properties": {"cultura": "Soja", "area_ha": 1.09}, "geometry": {"type": "Polygon", "coordinates": [[[-51.98523599741149, -29.413178021811838], [-51.983349535314844, -29.413178021811838], [-51.983080040729604, -29.41425600015278], [-51.98523599741149, -29.413178021811838]]]}}]}