{"type":"FeatureCollection","features":[{"type":"Feature","properties":{"nome":"ERS-130","detalhe":"via: primary","osm_id":"way/176546012"},"geometry":{"type":"Point","coordinates":[-51.9662352,-29.4215892]}},{"type":"Feature","properties":{"nome":"Rodovia Governador Leonel de Moura Brizola","detalhe":"via: trunk","osm_id":"way/191772690"},"geometry":{"type":"Point","coordinates":[-51.954937,-29.4664057]}},{"type":"Feature","properties":{"nome":"Rodovia Governador Leonel de Moura Brizola","detalhe":"via: trunk","osm_id":"way/191772697"},"geometry":{"type":"Point","coordinates":[-51.9548273,-29.4663332]}},{"type":"Feature","properties":{"nome":null,"detalhe":"via: secondary","osm_id":"way/231850840"},"geometry":{"type":"Point","coordinates":[-51.9710149,-29.4729735]}},{"type":"Feature","properties":{"nome":"RSC-453;ERS-130","detalhe":"via: trunk","osm_id":"way/301011124"},"geometry":{"type":"Point","coordinates":[-51.9934483,-29.4639942]}},{"type":"Feature","properties":{"nome":"Rodovia Governador Leonel de Moura Brizola","detalhe":"via: trunk","osm_id":"way/301011125"},"geometry":{"type":"Point","coordinates":[-52.0279552,-29.4111995]}},{"type":"Feature","properties":{"nome":"Rua Arnaldo Brey","detalhe":"via: tertiary","osm_id":"way/301011128"},"geometry":{"type":"Point","coordinates":[-51.9829092,-29.4660349]}},{"type":"Feature","properties":{"nome":"Rua da Divisa","detalhe":"via: tertiary","osm_id":"way/566228647"},"geometry":{"type":"Point","coordinates":[-51.9893063,-29.4932916]}},{"type":"Feature","properties":{"nome":"Rua Borges de Medeiros","detalhe":"via: secondary","osm_id":"way/790231078"},"geometry":{"type":"Point","coordinates":[-51.9709329,-29.468516]}},{"type":"Feature","properties":{"nome":null,"detalhe":"via: footway","osm_id":"way/790231087"},"geometry":{"type":"Point","coordinates":[-51.9699466,-29.4652553]}},{"type":"Feature","properties":{"nome":null,"detalhe":"via: footway","osm_id":"way/942603267"},"geometry":{"type":"Point","coordinates":[-51.9702554,-29.4646792]}},{"type":"Feature","properties":{"nome":"Rodovia Governador Leonel de Moura Brizola","detalhe":"via: trunk","osm_id":"way/1134103651"},"geometry":{"type":"Point","coordinates":[-52.0279727,-29.4113425]}},{"type":"Feature","properties":{"nome":null,"detalhe":"via: service","osm_id":"way/1237860059"},"geometry":{"type":"Point","coordinates":[-51.9618759,-29.4644986]}},{"type":"Feature","properties":{"nome":"Rua Pedro Otto Mallmann","detalhe":"via: residential","osm_id":"way/1237870755"},"geometry":{"type":"Point","coordinates":[-51.9960892,-29.4641414]}},{"type":"Feature","properties":{"nome":null,"detalhe":"via: track","osm_id":"way/1287720636"},"geometry":{"type":"Point","coordinates":[-52.0159268,-29.4110614]}},{"type":"Feature","properties":{"nome":null,"detalhe":"via: residential","osm_id":"way/1287720677"},"geometry":{"type":"Point","coordinates":[-52.0147858,-29.4120209]}},{"type":"Feature","properties":{"nome":null,"detalhe":"via: residential","osm_id":"way/1287720696"},"geometry":{"type":"Point","coordinates":[-52.0127453,-29.4143892]}},{"type":"Feature","properties":{"nome":null,"detalhe":"via: unclassified","osm_id":"way/1287772424"},"geometry":{"type":"Point","coordinates":[-52.0019169,-29.4183367]}},{"type":"Feature","properties":{"nome":"Rua Assyria da Costa Mello","detalhe":"via: unclassified","osm_id":"way/1317148589"},"geometry":{"type":"Point","coordinates":[-51.9566756,-29.4228533]}}]}