{"type":"FeatureCollection","features":[{"type":"Feature","properties":{"nome":null,"detalhe":"weir","osm_id":"node/2395566312"},"geometry":{"type":"Point","coordinates":[-51.2310655,-30.0561461]}},{"type":"Feature","properties":{"nome":null,"detalhe":"weir","osm_id":"node/2395566334"},"geometry":{"type":"Point","coordinates":[-51.2318123,-30.0567224]}},{"type":"Feature","properties":{"nome":null,"detalhe":"dam","osm_id":"way/1211501362"},"geometry":{"type":"Point","coordinates":[-51.2120132,-30.1641804]}},{"type":"Feature","properties":{"nome":null,"detalhe":"dam","osm_id":"way/1211509797"},"geometry":{"type":"Point","coordinates":[-51.1982209,-30.1832111]}},{"type":"Feature","properties":{"nome":null,"detalhe":"dam","osm_id":"way/1211509803"},"geometry":{"type":"Point","coordinates":[-51.1993958,-30.1794679]}},{"type":"Feature","properties":{"nome":null,"detalhe":"dam","osm_id":"way/1212921400"},"geometry":{"type":"Point","coordinates":[-51.1024923,-30.2312362]}},{"type":"Feature","properties":{"nome":null,"detalhe":"dam","osm_id":"way/1212921415"},"geometry":{"type":"Point","coordinates":[-51.1201535,-30.2364644]}},{"type":"Feature","properties":{"nome":null,"detalhe":"dam","osm_id":"way/1212921433"},"geometry":{"type":"Point","coordinates":[-51.1075325,-30.2245766]}},{"type":"Feature","properties":{"nome":null,"detalhe":"dam","osm_id":"way/1212921437"},"geometry":{"type":"Point","coordinates":[-51.0981588,-30.2236119]}},{"type":"Feature","properties":{"nome":null,"detalhe":"dam","osm_id":"way/1212970969"},"geometry":{"type":"Point","coordinates":[-51.1221796,-30.2322584]}},{"type":"Feature","properties":{"nome":null,"detalhe":"dam","osm_id":"way/1213204634"},"geometry":{"type":"Point","coordinates":[-51.0575655,-30.2327888]}},{"type":"Feature","properties":{"nome":null,"detalhe":"dam","osm_id":"way/1213204648"},"geometry":{"type":"Point","coordinates":[-51.0785585,-30.231211]}},{"type":"Feature","properties":{"nome":null,"detalhe":"dam","osm_id":"way/1213204653"},"geometry":{"type":"Point","coordinates":[-51.0847963,-30.2230846]}},{"type":"Feature","properties":{"nome":null,"detalhe":"dam","osm_id":"way/1213204657"},"geometry":{"type":"Point","coordinates":[-51.0874797,-30.226762]}},{"type":"Feature","properties":{"nome":null,"detalhe":"dam","osm_id":"way/1294745380"},"geometry":{"type":"Point","coordinates":[-51.1124129,-30.0846073]}}]}