{"type":"FeatureCollection","features":[{"type":"Feature","properties":{"nome":"EBAB Ponta do Arado","detalhe":null,"osm_id":"node/13609796053"},"geometry":{"type":"Point","coordinates":[-51.1803266,-30.2145724]}},{"type":"Feature","properties":{"nome":"EBAP 13","detalhe":null,"osm_id":"way/211061156"},"geometry":{"type":"Point","coordinates":[-51.2320067,-30.0546207]}},{"type":"Feature","properties":{"nome":"EBAP 12","detalhe":null,"osm_id":"way/216272484"},"geometry":{"type":"Point","coordinates":[-51.2359594,-30.0614861]}},{"type":"Feature","properties":{"nome":"CB 1","detalhe":null,"osm_id":"way/254270744"},"geometry":{"type":"Point","coordinates":[-51.1666154,-29.9650269]}},{"type":"Feature","properties":{"nome":"CB 2","detalhe":null,"osm_id":"way/254270745"},"geometry":{"type":"Point","coordinates":[-51.1693588,-29.9655885]}},{"type":"Feature","properties":{"nome":"CB 3","detalhe":null,"osm_id":"way/254270746"},"geometry":{"type":"Point","coordinates":[-51.1907223,-29.9664998]}},{"type":"Feature","properties":{"nome":"CB 4","detalhe":null,"osm_id":"way/254270747"},"geometry":{"type":"Point","coordinates":[-51.1965063,-29.9378081]}},{"type":"Feature","properties":{"nome":"EBAP 1","detalhe":null,"osm_id":"way/356396737"},"geometry":{"type":"Point","coordinates":[-51.2159861,-30.0191363]}},{"type":"Feature","properties":{"nome":"EBAP 18","detalhe":null,"osm_id":"way/414431120"},"geometry":{"type":"Point","coordinates":[-51.2233392,-30.0244588]}},{"type":"Feature","properties":{"nome":"EBAP 2","detalhe":null,"osm_id":"way/419345808"},"geometry":{"type":"Point","coordinates":[-51.213897,-30.0151489]}},{"type":"Feature","properties":{"nome":"EBAP 14","detalhe":null,"osm_id":"way/421400486"},"geometry":{"type":"Point","coordinates":[-51.2152344,-30.0481544]}},{"type":"Feature","properties":{"nome":"EBAP 4","detalhe":null,"osm_id":"way/421418995"},"geometry":{"type":"Point","coordinates":[-51.2076914,-30.0020611]}},{"type":"Feature","properties":{"nome":"EBAP 3","detalhe":null,"osm_id":"way/421419152"},"geometry":{"type":"Point","coordinates":[-51.2103561,-30.0086895]}},{"type":"Feature","properties":{"nome":"EBAP 5","detalhe":null,"osm_id":"way/426356435"},"geometry":{"type":"Point","coordinates":[-51.2012033,-29.981875]}},{"type":"Feature","properties":{"nome":"EBAP 7","detalhe":null,"osm_id":"way/426417587"},"geometry":{"type":"Point","coordinates":[-51.1718505,-30.0027719]}},{"type":"Feature","properties":{"nome":"EBAP 17","detalhe":null,"osm_id":"way/447106296"},"geometry":{"type":"Point","coordinates":[-51.2366921,-30.0302774]}},{"type":"Feature","properties":{"nome":"EBAP 11","detalhe":null,"osm_id":"way/599893422"},"geometry":{"type":"Point","coordinates":[-51.2445423,-30.0929272]}},{"type":"Feature","properties":{"nome":"corsan","detalhe":null,"osm_id":"way/968866717"},"geometry":{"type":"Point","coordinates":[-51.0611877,-30.0347469]}},{"type":"Feature","properties":{"nome":"EBAP 22","detalhe":null,"osm_id":"way/1372197808"},"geometry":{"type":"Point","coordinates":[-51.1895267,-29.9962077]}},{"type":"Feature","properties":{"nome":"EBAP 20","detalhe":null,"osm_id":"way/1372197809"},"geometry":{"type":"Point","coordinates":[-51.1395939,-29.9906736]}},{"type":"Feature","properties":{"nome":"EBAP 21","detalhe":null,"osm_id":"way/1372197810"},"geometry":{"type":"Point","coordinates":[-51.1223667,-29.9781161]}},{"type":"Feature","properties":{"nome":"EBAP 19","detalhe":null,"osm_id":"way/1372197811"},"geometry":{"type":"Point","coordinates":[-51.2087082,-30.0445852]}},{"type":"Feature","properties":{"nome":"EBAP 16","detalhe":null,"osm_id":"way/1372197813"},"geometry":{"type":"Point","coordinates":[-51.232403,-30.0431897]}},{"type":"Feature","properties":{"nome":"EBAP 15","detalhe":null,"osm_id":"way/1372197814"},"geometry":{"type":"Point","coordinates":[-51.2194255,-30.0478584]}},{"type":"Feature","properties":{"nome":"EBAP 10","detalhe":null,"osm_id":"way/1372197817"},"geometry":{"type":"Point","coordinates":[-51.1376728,-29.9780949]}},{"type":"Feature","properties":{"nome":"EBAP 6","detalhe":null,"osm_id":"way/1372197819"},"geometry":{"type":"Point","coordinates":[-51.1758576,-29.9698579]}},{"type":"Feature","properties":{"nome":"EBAP 9","detalhe":null,"osm_id":"way/1372197820"},"geometry":{"type":"Point","coordinates":[-51.1385499,-29.9680664]}}]}