{"type":"FeatureCollection","features":[{"type":"Feature","properties":{"nome":"Subestação Porto Alegre 9","detalhe":"substation","osm_id":"way/108399315"},"geometry":{"type":"Point","coordinates":[-51.1965111,-29.971358]}},{"type":"Feature","properties":{"nome":"Subestação Porto Alegre 4","detalhe":"substation","osm_id":"way/169280139"},"geometry":{"type":"Point","coordinates":[-51.2283391,-30.0468888]}},{"type":"Feature","properties":{"nome":"Subestação Porto Alegre 10","detalhe":"substation","osm_id":"way/171116153"},"geometry":{"type":"Point","coordinates":[-51.1967259,-30.0472095]}},{"type":"Feature","properties":{"nome":"Subestação Jardim Botânico","detalhe":"substation","osm_id":"way/227772597"},"geometry":{"type":"Point","coordinates":[-51.1727796,-30.0422428]}},{"type":"Feature","properties":{"nome":"Subestação Porto Alegre 8","detalhe":"substation","osm_id":"way/234802965"},"geometry":{"type":"Point","coordinates":[-51.1417799,-30.0087113]}},{"type":"Feature","properties":{"nome":"Subestação Porto Alegre 1","detalhe":"substation","osm_id":"way/239653528"},"geometry":{"type":"Point","coordinates":[-51.1711677,-30.016491]}},{"type":"Feature","properties":{"nome":"Subestação Porto Alegre 6","detalhe":"substation","osm_id":"way/253346558"},"geometry":{"type":"Point","coordinates":[-51.1425857,-30.0646302]}},{"type":"Feature","properties":{"nome":"Subestação Porto Alegre 14","detalhe":"substation","osm_id":"way/275303345"},"geometry":{"type":"Point","coordinates":[-51.1548499,-30.1643833]}},{"type":"Feature","properties":{"nome":"Subestação Menino Deus","detalhe":"substation","osm_id":"way/285776284"},"geometry":{"type":"Point","coordinates":[-51.2410584,-30.0728028]}},{"type":"Feature","properties":{"nome":"Subestação Arena do Grêmio","detalhe":"substation","osm_id":"way/286621138"},"geometry":{"type":"Point","coordinates":[-51.1945751,-29.9724601]}},{"type":"Feature","properties":{"nome":"Subestação Canoas 1","detalhe":"substation","osm_id":"way/290054118"},"geometry":{"type":"Point","coordinates":[-51.1902943,-29.9484834]}},{"type":"Feature","properties":{"nome":"Subestação Fátima","detalhe":"substation","osm_id":"way/290054120"},"geometry":{"type":"Point","coordinates":[-51.1774403,-29.9477872]}},{"type":"Feature","properties":{"nome":"Subestação GKN","detalhe":"substation","osm_id":"way/303773817"},"geometry":{"type":"Point","coordinates":[-51.1422515,-30.0042234]}},{"type":"Feature","properties":{"nome":"Subestação UFRGS","detalhe":"substation","osm_id":"way/318127844"},"geometry":{"type":"Point","coordinates":[-51.1233139,-30.0736316]}},{"type":"Feature","properties":{"nome":"Subestação Porto Alegre 7","detalhe":"substation","osm_id":"way/318751465"},"geometry":{"type":"Point","coordinates":[-51.2147799,-30.0196402]}},{"type":"Feature","properties":{"nome":"Subestação Farrapos","detalhe":"substation","osm_id":"way/319059493"},"geometry":{"type":"Point","coordinates":[-51.2004661,-29.9977508]}},{"type":"Feature","properties":{"nome":"Subestação Viamão II","detalhe":"substation","osm_id":"way/353288967"},"geometry":{"type":"Point","coordinates":[-51.0894376,-30.0482234]}},{"type":"Feature","properties":{"nome":"Subestação Porto Alegre 2","detalhe":"substation","osm_id":"way/421408067"},"geometry":{"type":"Point","coordinates":[-51.1979131,-30.006968]}},{"type":"Feature","properties":{"nome":"Subestação Porto Alegre 16","detalhe":"substation","osm_id":"way/431708688"},"geometry":{"type":"Point","coordinates":[-51.1033923,-30.0188062]}},{"type":"Feature","properties":{"nome":"Subestação Rinção","detalhe":"substation","osm_id":"way/449464805"},"geometry":{"type":"Point","coordinates":[-51.1674118,-30.1137015]}},{"type":"Feature","properties":{"nome":"Subestação Porto Alegre 5","detalhe":"substation","osm_id":"way/449686992"},"geometry":{"type":"Point","coordinates":[-51.1949651,-30.0335616]}},{"type":"Feature","properties":{"nome":"Subestação Zaffari I","detalhe":"substation","osm_id":"way/491678496"},"geometry":{"type":"Point","coordinates":[-51.1613404,-30.0143012]}},{"type":"Feature","properties":{"nome":"Subestação PUC","detalhe":"substation","osm_id":"way/506578161"},"geometry":{"type":"Point","coordinates":[-51.1747835,-30.0564196]}},{"type":"Feature","properties":{"nome":"Subestação Porto Alegre 3","detalhe":"substation","osm_id":"way/506582535"},"geometry":{"type":"Point","coordinates":[-51.2081467,-30.0580207]}},{"type":"Feature","properties":{"nome":"Subestação Vonpar","detalhe":"substation","osm_id":"way/506584541"},"geometry":{"type":"Point","coordinates":[-51.1172046,-29.9714862]}},{"type":"Feature","properties":{"nome":"Subestação Gerdau","detalhe":"substation","osm_id":"way/507747934"},"geometry":{"type":"Point","coordinates":[-51.2067546,-30.0145131]}},{"type":"Feature","properties":{"nome":"Subestação Restinga","detalhe":"substation","osm_id":"way/507750587"},"geometry":{"type":"Point","coordinates":[-51.1635913,-30.1243425]}},{"type":"Feature","properties":{"nome":"Subestação Yara Fertilizantes","detalhe":"substation","osm_id":"way/526612868"},"geometry":{"type":"Point","coordinates":[-51.1975958,-29.9682933]}},{"type":"Feature","properties":{"nome":"Subestação Porto Alegre 13","detalhe":"substation","osm_id":"way/526621139"},"geometry":{"type":"Point","coordinates":[-51.224403,-30.0953709]}},{"type":"Feature","properties":{"nome":"Subestação Alvorada II","detalhe":"substation","osm_id":"way/528794036"},"geometry":{"type":"Point","coordinates":[-51.0690584,-29.9966076]}},{"type":"Feature","properties":{"nome":"Subestação Porto Alegre 15","detalhe":"substation","osm_id":"way/528794037"},"geometry":{"type":"Point","coordinates":[-51.2153839,-30.1479482]}},{"type":"Feature","properties":{"nome":"Subestação Porto Alegre 17","detalhe":"substation","osm_id":"way/529815542"},"geometry":{"type":"Point","coordinates":[-51.1322295,-30.026272]}},{"type":"Feature","properties":{"nome":"Subestação Vimão 3","detalhe":"substation","osm_id":"way/529815544"},"geometry":{"type":"Point","coordinates":[-51.0634393,-30.0362383]}},{"type":"Feature","properties":{"nome":"Subestação Shopping Iguatemi","detalhe":"substation","osm_id":"way/531893082"},"geometry":{"type":"Point","coordinates":[-51.162954,-30.0253662]}},{"type":"Feature","properties":{"nome":"Subestação Ambev","detalhe":"substation","osm_id":"way/532137532"},"geometry":{"type":"Point","coordinates":[-51.2085105,-30.0119727]}},{"type":"Feature","properties":{"nome":"Subestação Aeroporto","detalhe":"substation","osm_id":"way/532137535"},"geometry":{"type":"Point","coordinates":[-51.1387664,-29.9964821]}},{"type":"Feature","properties":{"nome":null,"detalhe":"plant","osm_id":"way/784079719"},"geometry":{"type":"Point","coordinates":[-51.1706393,-29.9692972]}},{"type":"Feature","properties":{"nome":"Subestação Porto Alegre Airport","detalhe":"substation","osm_id":"way/806805998"},"geometry":{"type":"Point","coordinates":[-51.1662584,-29.9892168]}},{"type":"Feature","properties":{"nome":"Subestação Grupo Hospitalar Conceição","detalhe":"substation","osm_id":"way/810869879"},"geometry":{"type":"Point","coordinates":[-51.1581155,-30.0150127]}},{"type":"Feature","properties":{"nome":"Subestação UFRGS","detalhe":"substation","osm_id":"way/927653134"},"geometry":{"type":"Point","coordinates":[-51.1414329,-30.0692111]}},{"type":"Feature","properties":{"nome":null,"detalhe":"plant","osm_id":"way/969303000"},"geometry":{"type":"Point","coordinates":[-51.1501535,-29.9378425]}},{"type":"Feature","properties":{"nome":null,"detalhe":"plant","osm_id":"way/969843678"},"geometry":{"type":"Point","coordinates":[-51.1605819,-29.9712127]}},{"type":"Feature","properties":{"nome":null,"detalhe":"substation","osm_id":"way/1015021248"},"geometry":{"type":"Point","coordinates":[-51.168346,-30.0556309]}},{"type":"Feature","properties":{"nome":"Subestação UFRGS","detalhe":"substation","osm_id":"way/1024952587"},"geometry":{"type":"Point","coordinates":[-51.2064206,-30.0432035]}},{"type":"Feature","properties":{"nome":"UTE Porto Alegre","detalhe":"substation","osm_id":"way/1098316826"},"geometry":{"type":"Point","coordinates":[-51.1942874,-29.9704252]}},{"type":"Feature","properties":{"nome":null,"detalhe":"plant","osm_id":"way/1281960756"},"geometry":{"type":"Point","coordinates":[-51.2440378,-30.0902963]}},{"type":"Feature","properties":{"nome":"Subestação DMAE","detalhe":"substation","osm_id":"way/1381338809"},"geometry":{"type":"Point","coordinates":[-51.1701255,-30.2198251]}},{"type":"Feature","properties":{"nome":"Subestação Porto Alegre 1","detalhe":"substation","osm_id":"way/1432348441"},"geometry":{"type":"Point","coordinates":[-51.1711976,-30.0161534]}}]}