{"type":"FeatureCollection","features":[{"type":"Feature","properties":{"nome":null,"detalhe":"water_tower","osm_id":"node/1398058714"},"geometry":{"type":"Point","coordinates":[-51.2057316,-30.0404975]}},{"type":"Feature","properties":{"nome":null,"detalhe":"water_tower","osm_id":"node/1806710524"},"geometry":{"type":"Point","coordinates":[-51.1849072,-30.0137945]}},{"type":"Feature","properties":{"nome":null,"detalhe":"water_tower","osm_id":"node/2118480401"},"geometry":{"type":"Point","coordinates":[-51.1920393,-30.211896]}},{"type":"Feature","properties":{"nome":null,"detalhe":"water_tower","osm_id":"node/2274207772"},"geometry":{"type":"Point","coordinates":[-51.2534361,-30.0995899]}},{"type":"Feature","properties":{"nome":null,"detalhe":"water_tower","osm_id":"node/2320180104"},"geometry":{"type":"Point","coordinates":[-51.1567033,-30.0052429]}},{"type":"Feature","properties":{"nome":null,"detalhe":"water_tower","osm_id":"node/2507911051"},"geometry":{"type":"Point","coordinates":[-51.1346124,-30.1512925]}},{"type":"Feature","properties":{"nome":null,"detalhe":"water_tower","osm_id":"node/2511595963"},"geometry":{"type":"Point","coordinates":[-51.1916859,-30.0323557]}},{"type":"Feature","properties":{"nome":"Corsan","detalhe":"water_tower","osm_id":"node/2667884576"},"geometry":{"type":"Point","coordinates":[-51.0764869,-30.0989591]}},{"type":"Feature","properties":{"nome":null,"detalhe":"water_tower","osm_id":"node/3778983664"},"geometry":{"type":"Point","coordinates":[-51.2193112,-30.0809752]}},{"type":"Feature","properties":{"nome":null,"detalhe":"water_tower","osm_id":"node/3778983665"},"geometry":{"type":"Point","coordinates":[-51.2183222,-30.0798702]}},{"type":"Feature","properties":{"nome":"DMAE","detalhe":"water_tower","osm_id":"node/3833217873"},"geometry":{"type":"Point","coordinates":[-51.1757809,-30.1156715]}},{"type":"Feature","properties":{"nome":null,"detalhe":"water_tower","osm_id":"node/4104009447"},"geometry":{"type":"Point","coordinates":[-51.1483007,-30.0085233]}},{"type":"Feature","properties":{"nome":"Caixa d'Água Corsan","detalhe":"water_tower","osm_id":"node/4728345975"},"geometry":{"type":"Point","coordinates":[-51.0961413,-29.9364589]}},{"type":"Feature","properties":{"nome":null,"detalhe":"water_tower","osm_id":"node/5314020050"},"geometry":{"type":"Point","coordinates":[-51.1497635,-30.0580268]}},{"type":"Feature","properties":{"nome":"Caixa d'água Jardim Algarve","detalhe":"water_tower","osm_id":"node/5572344224"},"geometry":{"type":"Point","coordinates":[-51.0826245,-30.0357277]}},{"type":"Feature","properties":{"nome":null,"detalhe":"water_tower","osm_id":"node/5752222704"},"geometry":{"type":"Point","coordinates":[-51.240957,-30.0415326]}},{"type":"Feature","properties":{"nome":null,"detalhe":"water_tower","osm_id":"node/6265589283"},"geometry":{"type":"Point","coordinates":[-51.1633193,-30.1593804]}},{"type":"Feature","properties":{"nome":null,"detalhe":"water_tower","osm_id":"node/6265589284"},"geometry":{"type":"Point","coordinates":[-51.163318,-30.1593108]}},{"type":"Feature","properties":{"nome":null,"detalhe":"water_tower","osm_id":"node/6265589985"},"geometry":{"type":"Point","coordinates":[-51.1630766,-30.1584678]}},{"type":"Feature","properties":{"nome":null,"detalhe":"water_tower","osm_id":"node/6265589986"},"geometry":{"type":"Point","coordinates":[-51.1629908,-30.1584689]}},{"type":"Feature","properties":{"nome":null,"detalhe":"storage_tank","osm_id":"node/10653442326"},"geometry":{"type":"Point","coordinates":[-51.1111829,-29.991384]}},{"type":"Feature","properties":{"nome":null,"detalhe":"storage_tank","osm_id":"node/10653442327"},"geometry":{"type":"Point","coordinates":[-51.1111473,-29.9913753]}},{"type":"Feature","properties":{"nome":null,"detalhe":"storage_tank","osm_id":"node/10653442328"},"geometry":{"type":"Point","coordinates":[-51.1111118,-29.991368]}},{"type":"Feature","properties":{"nome":null,"detalhe":"storage_tank","osm_id":"node/10653442340"},"geometry":{"type":"Point","coordinates":[-51.1118383,-29.9890719]}},{"type":"Feature","properties":{"nome":null,"detalhe":"storage_tank","osm_id":"node/10653442341"},"geometry":{"type":"Point","coordinates":[-51.1118226,-29.9891187]}},{"type":"Feature","properties":{"nome":null,"detalhe":"storage_tank","osm_id":"node/10653442342"},"geometry":{"type":"Point","coordinates":[-51.1118322,-29.9890923]}},{"type":"Feature","properties":{"nome":null,"detalhe":"water_tower","osm_id":"node/12007810326"},"geometry":{"type":"Point","coordinates":[-51.1622313,-30.0395645]}},{"type":"Feature","properties":{"nome":null,"detalhe":"water_tower","osm_id":"node/12565689417"},"geometry":{"type":"Point","coordinates":[-51.1642264,-30.1579688]}},{"type":"Feature","properties":{"nome":null,"detalhe":"water_tower","osm_id":"node/12565689418"},"geometry":{"type":"Point","coordinates":[-51.1641372,-30.1579688]}},{"type":"Feature","properties":{"nome":"Hidráulica Tristeza","detalhe":"water_works","osm_id":"way/38436744"},"geometry":{"type":"Point","coordinates":[-51.2534483,-30.0992061]}},{"type":"Feature","properties":{"nome":"ETE Serraria","detalhe":"wastewater_plant","osm_id":"way/88149818"},"geometry":{"type":"Point","coordinates":[-51.2225229,-30.1697925]}},{"type":"Feature","properties":{"nome":"EBAB Menino Deus","detalhe":"water_works","osm_id":"way/112414429"},"geometry":{"type":"Point","coordinates":[-51.2313685,-30.0608557]}},{"type":"Feature","properties":{"nome":"Estação de Tratamento DMAE","detalhe":"water_works","osm_id":"way/127733770"},"geometry":{"type":"Point","coordinates":[-51.1522372,-30.1509598]}},{"type":"Feature","properties":{"nome":"Hidráulica São João","detalhe":"water_works","osm_id":"way/168663784"},"geometry":{"type":"Point","coordinates":[-51.1853373,-30.0132671]}},{"type":"Feature","properties":{"nome":"EBE C1","detalhe":"wastewater_plant","osm_id":"way/207313673"},"geometry":{"type":"Point","coordinates":[-51.2468938,-30.0809039]}},{"type":"Feature","properties":{"nome":"EBE Cristal e C2","detalhe":"wastewater_plant","osm_id":"way/207313674"},"geometry":{"type":"Point","coordinates":[-51.24832,-30.0909182]}},{"type":"Feature","properties":{"nome":"DMAE - Hidráulica Moinhos de Vento","detalhe":"water_works","osm_id":"way/235759237"},"geometry":{"type":"Point","coordinates":[-51.2056489,-30.0261625]}},{"type":"Feature","properties":{"nome":"Torre da Hidráulica","detalhe":"water_tower","osm_id":"way/235759241"},"geometry":{"type":"Point","coordinates":[-51.205539,-30.0275721]}},{"type":"Feature","properties":{"nome":"Hidráulica Menino Deus","detalhe":"water_works","osm_id":"way/235999554"},"geometry":{"type":"Point","coordinates":[-51.2235785,-30.06286]}},{"type":"Feature","properties":{"nome":"Hidráulica Belém Novo","detalhe":"water_works","osm_id":"way/236845420"},"geometry":{"type":"Point","coordinates":[-51.1777537,-30.2100289]}},{"type":"Feature","properties":{"nome":"Hidráulica Ilha da Pintada","detalhe":"water_works","osm_id":"way/236845421"},"geometry":{"type":"Point","coordinates":[-51.2599266,-30.0137341]}},{"type":"Feature","properties":{"nome":null,"detalhe":"water_tower","osm_id":"way/243463352"},"geometry":{"type":"Point","coordinates":[-51.2580646,-30.0991658]}},{"type":"Feature","properties":{"nome":"EBE 4S","detalhe":"wastewater_plant","osm_id":"way/244335047"},"geometry":{"type":"Point","coordinates":[-51.2246235,-30.1474846]}},{"type":"Feature","properties":{"nome":null,"detalhe":"water_tower","osm_id":"way/254044521"},"geometry":{"type":"Point","coordinates":[-51.1820601,-30.0999484]}},{"type":"Feature","properties":{"nome":"ETA Niterói","detalhe":"water_works","osm_id":"way/254270750"},"geometry":{"type":"Point","coordinates":[-51.1655087,-29.964021]}},{"type":"Feature","properties":{"nome":"ETE Mato Grande","detalhe":"wastewater_plant","osm_id":"way/254270800"},"geometry":{"type":"Point","coordinates":[-51.1965864,-29.9400299]}},{"type":"Feature","properties":{"nome":"EBAT Morro do Osso I","detalhe":"water_works","osm_id":"way/260508506"},"geometry":{"type":"Point","coordinates":[-51.2492194,-30.113154]}},{"type":"Feature","properties":{"nome":null,"detalhe":"water_tower","osm_id":"way/288129099"},"geometry":{"type":"Point","coordinates":[-51.1713175,-29.9699927]}},{"type":"Feature","properties":{"nome":null,"detalhe":"wastewater_plant","osm_id":"way/288520075"},"geometry":{"type":"Point","coordinates":[-51.1934509,-29.9910615]}},{"type":"Feature","properties":{"nome":"Estação de Tratamento de Esgoto","detalhe":"wastewater_plant","osm_id":"way/289756181"},"geometry":{"type":"Point","coordinates":[-51.078659,-29.9608234]}},{"type":"Feature","properties":{"nome":null,"detalhe":"water_tower","osm_id":"way/315410133"},"geometry":{"type":"Point","coordinates":[-51.1209862,-30.0655937]}},{"type":"Feature","properties":{"nome":null,"detalhe":"water_tower","osm_id":"way/315455674"},"geometry":{"type":"Point","coordinates":[-51.1054191,-30.0551761]}},{"type":"Feature","properties":{"nome":null,"detalhe":"water_tower","osm_id":"way/318717220"},"geometry":{"type":"Point","coordinates":[-51.0726073,-30.0934376]}},{"type":"Feature","properties":{"nome":null,"detalhe":"water_tower","osm_id":"way/318987715"},"geometry":{"type":"Point","coordinates":[-51.2486733,-30.1193823]}},{"type":"Feature","properties":{"nome":null,"detalhe":"storage_tank","osm_id":"way/326113899"},"geometry":{"type":"Point","coordinates":[-51.1851365,-30.1007483]}},{"type":"Feature","properties":{"nome":null,"detalhe":"water_tower","osm_id":"way/336593047"},"geometry":{"type":"Point","coordinates":[-51.2010215,-30.0951069]}},{"type":"Feature","properties":{"nome":null,"detalhe":"water_tower","osm_id":"way/343466398"},"geometry":{"type":"Point","coordinates":[-51.2204938,-30.0820947]}},{"type":"Feature","properties":{"nome":null,"detalhe":"wastewater_plant","osm_id":"way/361644064"},"geometry":{"type":"Point","coordinates":[-51.0691656,-29.977767]}},{"type":"Feature","properties":{"nome":null,"detalhe":"water_tower","osm_id":"way/419345450"},"geometry":{"type":"Point","coordinates":[-51.2071166,-30.0145814]}},{"type":"Feature","properties":{"nome":null,"detalhe":"water_tower","osm_id":"way/424310580"},"geometry":{"type":"Point","coordinates":[-51.1879314,-30.0447021]}},{"type":"Feature","properties":{"nome":null,"detalhe":"water_tower","osm_id":"way/425033278"},"geometry":{"type":"Point","coordinates":[-51.1737514,-30.0376283]}},{"type":"Feature","properties":{"nome":null,"detalhe":"water_tower","osm_id":"way/425360982"},"geometry":{"type":"Point","coordinates":[-51.1671967,-30.0709906]}},{"type":"Feature","properties":{"nome":null,"detalhe":"water_tower","osm_id":"way/425396151"},"geometry":{"type":"Point","coordinates":[-51.1612665,-30.0791195]}},{"type":"Feature","properties":{"nome":null,"detalhe":"water_tower","osm_id":"way/425398453"},"geometry":{"type":"Point","coordinates":[-51.1611544,-30.0791293]}},{"type":"Feature","properties":{"nome":null,"detalhe":"water_tower","osm_id":"way/426148721"},"geometry":{"type":"Point","coordinates":[-51.2279913,-30.1229726]}},{"type":"Feature","properties":{"nome":null,"detalhe":"water_tower","osm_id":"way/426389633"},"geometry":{"type":"Point","coordinates":[-51.1958325,-29.979404]}},{"type":"Feature","properties":{"nome":null,"detalhe":"water_tower","osm_id":"way/426416410"},"geometry":{"type":"Point","coordinates":[-51.1679812,-29.9782965]}},{"type":"Feature","properties":{"nome":null,"detalhe":"wastewater_plant","osm_id":"way/426492614"},"geometry":{"type":"Point","coordinates":[-51.1372268,-29.9699714]}},{"type":"Feature","properties":{"nome":"Reservatório Colônia de Pescadores Z-5","detalhe":"water_tower","osm_id":"way/426622312"},"geometry":{"type":"Point","coordinates":[-51.2602126,-30.0157893]}},{"type":"Feature","properties":{"nome":null,"detalhe":"water_tower","osm_id":"way/426622313"},"geometry":{"type":"Point","coordinates":[-51.2597848,-30.0136682]}},{"type":"Feature","properties":{"nome":null,"detalhe":"water_tower","osm_id":"way/427380661"},"geometry":{"type":"Point","coordinates":[-51.1540177,-30.0740424]}},{"type":"Feature","properties":{"nome":null,"detalhe":"water_tower","osm_id":"way/427506426"},"geometry":{"type":"Point","coordinates":[-51.1781435,-30.0964399]}},{"type":"Feature","properties":{"nome":null,"detalhe":"water_tower","osm_id":"way/427506428"},"geometry":{"type":"Point","coordinates":[-51.1794571,-30.0933123]}},{"type":"Feature","properties":{"nome":null,"detalhe":"water_tower","osm_id":"way/428115116"},"geometry":{"type":"Point","coordinates":[-51.1443541,-30.0620383]}},{"type":"Feature","properties":{"nome":null,"detalhe":"water_tower","osm_id":"way/428218337"},"geometry":{"type":"Point","coordinates":[-51.1227627,-30.0736786]}},{"type":"Feature","properties":{"nome":null,"detalhe":"water_tower","osm_id":"way/429392343"},"geometry":{"type":"Point","coordinates":[-51.2593688,-30.0147228]}},{"type":"Feature","properties":{"nome":"ETE Rubem Berta","detalhe":"wastewater_plant","osm_id":"way/431708676"},"geometry":{"type":"Point","coordinates":[-51.103146,-30.0194536]}},{"type":"Feature","properties":{"nome":null,"detalhe":"water_tower","osm_id":"way/472237544"},"geometry":{"type":"Point","coordinates":[-51.2476137,-30.0994618]}},{"type":"Feature","properties":{"nome":null,"detalhe":"water_tower","osm_id":"way/472237545"},"geometry":{"type":"Point","coordinates":[-51.2476208,-30.099497]}},{"type":"Feature","properties":{"nome":null,"detalhe":"water_tower","osm_id":"way/472237546"},"geometry":{"type":"Point","coordinates":[-51.2476273,-30.0995314]}},{"type":"Feature","properties":{"nome":null,"detalhe":"water_tower","osm_id":"way/472237547"},"geometry":{"type":"Point","coordinates":[-51.2476342,-30.0995653]}},{"type":"Feature","properties":{"nome":null,"detalhe":"water_tower","osm_id":"way/504000355"},"geometry":{"type":"Point","coordinates":[-51.2185832,-30.0795299]}},{"type":"Feature","properties":{"nome":null,"detalhe":"storage_tank","osm_id":"way/542128803"},"geometry":{"type":"Point","coordinates":[-51.1118719,-30.0369883]}},{"type":"Feature","properties":{"nome":null,"detalhe":"water_tower","osm_id":"way/542128805"},"geometry":{"type":"Point","coordinates":[-51.1135892,-30.0371857]}},{"type":"Feature","properties":{"nome":null,"detalhe":"water_tower","osm_id":"way/558039680"},"geometry":{"type":"Point","coordinates":[-51.0773394,-29.9430302]}},{"type":"Feature","properties":{"nome":"Estação de Bombeamento de Esgoto Ponta da Cadeia","detalhe":"water_works","osm_id":"way/759145031"},"geometry":{"type":"Point","coordinates":[-51.2401838,-30.0362666]}},{"type":"Feature","properties":{"nome":"Corsan","detalhe":"storage_tank","osm_id":"way/967285531"},"geometry":{"type":"Point","coordinates":[-51.0826255,-30.035727]}},{"type":"Feature","properties":{"nome":"CORSAN","detalhe":"storage_tank","osm_id":"way/968593444"},"geometry":{"type":"Point","coordinates":[-51.0612115,-30.0346805]}},{"type":"Feature","properties":{"nome":"Petrobras","detalhe":"storage_tank","osm_id":"way/969314244"},"geometry":{"type":"Point","coordinates":[-51.1450161,-29.9407722]}},{"type":"Feature","properties":{"nome":null,"detalhe":"water_tower","osm_id":"way/969314249"},"geometry":{"type":"Point","coordinates":[-51.1451048,-29.9391169]}},{"type":"Feature","properties":{"nome":"CORSAN","detalhe":"storage_tank","osm_id":"way/1192664970"},"geometry":{"type":"Point","coordinates":[-51.0606697,-30.0182257]}},{"type":"Feature","properties":{"nome":null,"detalhe":"wastewater_plant","osm_id":"way/1211501359"},"geometry":{"type":"Point","coordinates":[-51.2166286,-30.1678869]}},{"type":"Feature","properties":{"nome":"Estação de Tratamento de Esgoto","detalhe":"wastewater_plant","osm_id":"way/1212928499"},"geometry":{"type":"Point","coordinates":[-51.0831119,-30.2350485]}},{"type":"Feature","properties":{"nome":null,"detalhe":"wastewater_plant","osm_id":"way/1282143361"},"geometry":{"type":"Point","coordinates":[-51.0699692,-29.9537161]}},{"type":"Feature","properties":{"nome":"ETA Tristeza","detalhe":"water_works","osm_id":"way/1372197816"},"geometry":{"type":"Point","coordinates":[-51.2428237,-30.0922033]}},{"type":"Feature","properties":{"nome":null,"detalhe":"storage_tank","osm_id":"way/1512710075"},"geometry":{"type":"Point","coordinates":[-51.068855,-29.9785289]}},{"type":"Feature","properties":{"nome":null,"detalhe":"storage_tank","osm_id":"way/1512710076"},"geometry":{"type":"Point","coordinates":[-51.0690266,-29.9785289]}},{"type":"Feature","properties":{"nome":null,"detalhe":"storage_tank","osm_id":"way/1535621676"},"geometry":{"type":"Point","coordinates":[-51.0933565,-29.954518]}},{"type":"Feature","properties":{"nome":null,"detalhe":"storage_tank","osm_id":"way/1535621677"},"geometry":{"type":"Point","coordinates":[-51.0934917,-29.954326]}}]}