{"type":"FeatureCollection","features":[{"type":"Feature","properties":{"nome":null,"detalhe":"mast","osm_id":"node/1296868512"},"geometry":{"type":"Point","coordinates":[-51.2873178,-29.9979822]}},{"type":"Feature","properties":{"nome":null,"detalhe":"mast","osm_id":"node/1296868532"},"geometry":{"type":"Point","coordinates":[-51.2877196,-29.9994222]}},{"type":"Feature","properties":{"nome":null,"detalhe":"mast","osm_id":"node/1989354540"},"geometry":{"type":"Point","coordinates":[-51.1869817,-30.0796696]}},{"type":"Feature","properties":{"nome":null,"detalhe":"mast","osm_id":"node/1989354568"},"geometry":{"type":"Point","coordinates":[-51.1837593,-30.079631]}},{"type":"Feature","properties":{"nome":null,"detalhe":"tower","osm_id":"node/1989354616"},"geometry":{"type":"Point","coordinates":[-51.1839519,-30.079605]}},{"type":"Feature","properties":{"nome":null,"detalhe":"mast","osm_id":"node/1989354644"},"geometry":{"type":"Point","coordinates":[-51.1823081,-30.0797839]}},{"type":"Feature","properties":{"nome":null,"detalhe":"mast","osm_id":"node/1989354684"},"geometry":{"type":"Point","coordinates":[-51.1837132,-30.079837]}},{"type":"Feature","properties":{"nome":null,"detalhe":"mast","osm_id":"node/1989354705"},"geometry":{"type":"Point","coordinates":[-51.1832231,-30.0799893]}},{"type":"Feature","properties":{"nome":null,"detalhe":"mast","osm_id":"node/1989354728"},"geometry":{"type":"Point","coordinates":[-51.1835981,-30.0804616]}},{"type":"Feature","properties":{"nome":null,"detalhe":"mast","osm_id":"node/1989354824"},"geometry":{"type":"Point","coordinates":[-51.1834592,-30.0809198]}},{"type":"Feature","properties":{"nome":null,"detalhe":"mast","osm_id":"node/1989354924"},"geometry":{"type":"Point","coordinates":[-51.1833754,-30.081445]}},{"type":"Feature","properties":{"nome":null,"detalhe":"mast","osm_id":"node/1989355021"},"geometry":{"type":"Point","coordinates":[-51.1832218,-30.0816775]}},{"type":"Feature","properties":{"nome":null,"detalhe":"mast","osm_id":"node/1989355126"},"geometry":{"type":"Point","coordinates":[-51.1829991,-30.0819632]}},{"type":"Feature","properties":{"nome":null,"detalhe":"mast","osm_id":"node/2118471803"},"geometry":{"type":"Point","coordinates":[-51.2572858,-30.026306]}},{"type":"Feature","properties":{"nome":null,"detalhe":"mast","osm_id":"node/2118471962"},"geometry":{"type":"Point","coordinates":[-51.2589258,-30.0263819]}},{"type":"Feature","properties":{"nome":null,"detalhe":"tower","osm_id":"node/2118767033"},"geometry":{"type":"Point","coordinates":[-51.2984553,-29.9575201]}},{"type":"Feature","properties":{"nome":null,"detalhe":"tower","osm_id":"node/2118767394"},"geometry":{"type":"Point","coordinates":[-51.2959003,-29.9594101]}},{"type":"Feature","properties":{"nome":"Presídio Central","detalhe":"tower","osm_id":"node/2230236842"},"geometry":{"type":"Point","coordinates":[-51.1823522,-30.072901]}},{"type":"Feature","properties":{"nome":"Presídio da Ilha das Pedras Brancas","detalhe":"tower","osm_id":"node/2231965396"},"geometry":{"type":"Point","coordinates":[-51.2873676,-30.1202785]}},{"type":"Feature","properties":{"nome":"Presídio da Ilha das Pedras Brancas","detalhe":"tower","osm_id":"node/2231965404"},"geometry":{"type":"Point","coordinates":[-51.2881207,-30.1211601]}},{"type":"Feature","properties":{"nome":"RBS TV","detalhe":"tower","osm_id":"node/2434640683"},"geometry":{"type":"Point","coordinates":[-51.2302177,-30.0712643]}},{"type":"Feature","properties":{"nome":null,"detalhe":"tower","osm_id":"node/2435861446"},"geometry":{"type":"Point","coordinates":[-51.2320473,-30.072171]}},{"type":"Feature","properties":{"nome":null,"detalhe":"tower","osm_id":"node/2501317527"},"geometry":{"type":"Point","coordinates":[-51.1567028,-30.0049009]}},{"type":"Feature","properties":{"nome":null,"detalhe":"tower","osm_id":"node/2601841753"},"geometry":{"type":"Point","coordinates":[-51.1241673,-30.0511926]}},{"type":"Feature","properties":{"nome":null,"detalhe":"tower","osm_id":"node/2902054876"},"geometry":{"type":"Point","coordinates":[-51.2353566,-30.0324293]}},{"type":"Feature","properties":{"nome":null,"detalhe":"tower","osm_id":"node/2902054877"},"geometry":{"type":"Point","coordinates":[-51.2355538,-30.0324925]}},{"type":"Feature","properties":{"nome":null,"detalhe":"tower","osm_id":"node/3215257779"},"geometry":{"type":"Point","coordinates":[-51.1253852,-30.0530712]}},{"type":"Feature","properties":{"nome":null,"detalhe":"tower","osm_id":"node/3218328947"},"geometry":{"type":"Point","coordinates":[-51.130069,-30.0542878]}},{"type":"Feature","properties":{"nome":null,"detalhe":"tower","osm_id":"node/3250818941"},"geometry":{"type":"Point","coordinates":[-51.1787197,-30.085801]}},{"type":"Feature","properties":{"nome":null,"detalhe":"tower","osm_id":"node/3254337757"},"geometry":{"type":"Point","coordinates":[-51.2336193,-30.1217188]}},{"type":"Feature","properties":{"nome":null,"detalhe":"mast","osm_id":"node/3327301575"},"geometry":{"type":"Point","coordinates":[-51.1852178,-30.1010303]}},{"type":"Feature","properties":{"nome":null,"detalhe":"tower","osm_id":"node/3780932051"},"geometry":{"type":"Point","coordinates":[-51.1522215,-30.1519635]}},{"type":"Feature","properties":{"nome":null,"detalhe":"tower","osm_id":"node/4258983176"},"geometry":{"type":"Point","coordinates":[-51.262074,-30.0160248]}},{"type":"Feature","properties":{"nome":null,"detalhe":"tower","osm_id":"node/4258983738"},"geometry":{"type":"Point","coordinates":[-51.2617522,-30.0164266]}},{"type":"Feature","properties":{"nome":null,"detalhe":"tower","osm_id":"node/4452772713"},"geometry":{"type":"Point","coordinates":[-51.2308507,-30.1336249]}},{"type":"Feature","properties":{"nome":null,"detalhe":"tower","osm_id":"node/4915327650"},"geometry":{"type":"Point","coordinates":[-51.1631929,-30.0871517]}},{"type":"Feature","properties":{"nome":null,"detalhe":"tower","osm_id":"node/4974338971"},"geometry":{"type":"Point","coordinates":[-51.1512494,-30.0514695]}},{"type":"Feature","properties":{"nome":null,"detalhe":"mast","osm_id":"node/5058179457"},"geometry":{"type":"Point","coordinates":[-51.2150446,-30.0956734]}},{"type":"Feature","properties":{"nome":null,"detalhe":"mast","osm_id":"node/5058179458"},"geometry":{"type":"Point","coordinates":[-51.1874093,-30.0796784]}},{"type":"Feature","properties":{"nome":null,"detalhe":"mast","osm_id":"node/5058179459"},"geometry":{"type":"Point","coordinates":[-51.1880255,-30.0796544]}},{"type":"Feature","properties":{"nome":null,"detalhe":"tower","osm_id":"node/5431643081"},"geometry":{"type":"Point","coordinates":[-51.1303546,-30.0545327]}},{"type":"Feature","properties":{"nome":"TV Urbana","detalhe":"tower","osm_id":"node/5706428747"},"geometry":{"type":"Point","coordinates":[-51.2463662,-30.0880697]}},{"type":"Feature","properties":{"nome":null,"detalhe":"tower","osm_id":"node/6101433960"},"geometry":{"type":"Point","coordinates":[-51.259093,-30.0142987]}},{"type":"Feature","properties":{"nome":null,"detalhe":"tower","osm_id":"node/7055133233"},"geometry":{"type":"Point","coordinates":[-51.2569613,-30.0189607]}},{"type":"Feature","properties":{"nome":null,"detalhe":"tower","osm_id":"node/7354108442"},"geometry":{"type":"Point","coordinates":[-51.1383534,-30.143202]}},{"type":"Feature","properties":{"nome":null,"detalhe":"tower","osm_id":"node/7354830510"},"geometry":{"type":"Point","coordinates":[-51.114595,-30.2040139]}},{"type":"Feature","properties":{"nome":null,"detalhe":"tower","osm_id":"node/7354844106"},"geometry":{"type":"Point","coordinates":[-51.1183858,-30.1900693]}},{"type":"Feature","properties":{"nome":null,"detalhe":"tower","osm_id":"node/7354845643"},"geometry":{"type":"Point","coordinates":[-51.0605657,-30.1554608]}},{"type":"Feature","properties":{"nome":null,"detalhe":"tower","osm_id":"node/7354850913"},"geometry":{"type":"Point","coordinates":[-51.0923338,-30.1282434]}},{"type":"Feature","properties":{"nome":null,"detalhe":"tower","osm_id":"node/7354856213"},"geometry":{"type":"Point","coordinates":[-51.1005853,-30.1259815]}},{"type":"Feature","properties":{"nome":null,"detalhe":"tower","osm_id":"node/7354862985"},"geometry":{"type":"Point","coordinates":[-51.1088711,-30.1205222]}},{"type":"Feature","properties":{"nome":null,"detalhe":"tower","osm_id":"node/7467864516"},"geometry":{"type":"Point","coordinates":[-51.21336,-30.176333]}},{"type":"Feature","properties":{"nome":null,"detalhe":"tower","osm_id":"node/7467870356"},"geometry":{"type":"Point","coordinates":[-51.1783453,-30.205794]}},{"type":"Feature","properties":{"nome":null,"detalhe":"tower","osm_id":"node/7467870475"},"geometry":{"type":"Point","coordinates":[-51.1894317,-30.1824026]}},{"type":"Feature","properties":{"nome":null,"detalhe":"tower","osm_id":"node/7467871233"},"geometry":{"type":"Point","coordinates":[-51.1966683,-30.1852748]}},{"type":"Feature","properties":{"nome":null,"detalhe":"tower","osm_id":"node/7467875657"},"geometry":{"type":"Point","coordinates":[-51.1711389,-30.2055833]}},{"type":"Feature","properties":{"nome":null,"detalhe":"tower","osm_id":"node/7467875658"},"geometry":{"type":"Point","coordinates":[-51.1703241,-30.2056907]}},{"type":"Feature","properties":{"nome":null,"detalhe":"tower","osm_id":"node/7467880103"},"geometry":{"type":"Point","coordinates":[-51.1623778,-30.1896694]}},{"type":"Feature","properties":{"nome":null,"detalhe":"tower","osm_id":"node/7467886088"},"geometry":{"type":"Point","coordinates":[-51.1930207,-30.1615325]}},{"type":"Feature","properties":{"nome":null,"detalhe":"tower","osm_id":"node/7467890219"},"geometry":{"type":"Point","coordinates":[-51.2197775,-30.1562353]}},{"type":"Feature","properties":{"nome":null,"detalhe":"tower","osm_id":"node/7467922847"},"geometry":{"type":"Point","coordinates":[-51.2344028,-30.1299409]}},{"type":"Feature","properties":{"nome":null,"detalhe":"tower","osm_id":"node/7467932521"},"geometry":{"type":"Point","coordinates":[-51.2435056,-30.1309389]}},{"type":"Feature","properties":{"nome":null,"detalhe":"tower","osm_id":"node/7467939930"},"geometry":{"type":"Point","coordinates":[-51.2059588,-30.1267799]}},{"type":"Feature","properties":{"nome":null,"detalhe":"tower","osm_id":"node/7467945769"},"geometry":{"type":"Point","coordinates":[-51.1718494,-30.1563662]}},{"type":"Feature","properties":{"nome":null,"detalhe":"tower","osm_id":"node/7467947047"},"geometry":{"type":"Point","coordinates":[-51.2537051,-30.1179606]}},{"type":"Feature","properties":{"nome":null,"detalhe":"tower","osm_id":"node/7467947380"},"geometry":{"type":"Point","coordinates":[-51.2198737,-30.1481711]}},{"type":"Feature","properties":{"nome":null,"detalhe":"tower","osm_id":"node/7467948600"},"geometry":{"type":"Point","coordinates":[-51.2231657,-30.1177129]}},{"type":"Feature","properties":{"nome":null,"detalhe":"tower","osm_id":"node/7467957679"},"geometry":{"type":"Point","coordinates":[-51.2225732,-30.1129513]}},{"type":"Feature","properties":{"nome":null,"detalhe":"tower","osm_id":"node/7467959400"},"geometry":{"type":"Point","coordinates":[-51.1583528,-30.1517878]}},{"type":"Feature","properties":{"nome":null,"detalhe":"tower","osm_id":"node/7467966766"},"geometry":{"type":"Point","coordinates":[-51.2276381,-30.1329292]}},{"type":"Feature","properties":{"nome":null,"detalhe":"tower","osm_id":"node/7467973866"},"geometry":{"type":"Point","coordinates":[-51.1379167,-30.1571667]}},{"type":"Feature","properties":{"nome":null,"detalhe":"tower","osm_id":"node/7467975732"},"geometry":{"type":"Point","coordinates":[-51.1453084,-30.1586065]}},{"type":"Feature","properties":{"nome":null,"detalhe":"tower","osm_id":"node/7467985465"},"geometry":{"type":"Point","coordinates":[-51.2045767,-30.1197062]}},{"type":"Feature","properties":{"nome":null,"detalhe":"tower","osm_id":"node/7467986921"},"geometry":{"type":"Point","coordinates":[-51.2201903,-30.1069828]}},{"type":"Feature","properties":{"nome":null,"detalhe":"tower","osm_id":"node/7467987343"},"geometry":{"type":"Point","coordinates":[-51.2265172,-30.073671]}},{"type":"Feature","properties":{"nome":null,"detalhe":"tower","osm_id":"node/7467987516"},"geometry":{"type":"Point","coordinates":[-51.2246475,-30.1188542]}},{"type":"Feature","properties":{"nome":null,"detalhe":"tower","osm_id":"node/7467988077"},"geometry":{"type":"Point","coordinates":[-51.1851856,-30.1009653]}},{"type":"Feature","properties":{"nome":null,"detalhe":"tower","osm_id":"node/7467988230"},"geometry":{"type":"Point","coordinates":[-51.2423602,-30.1064358]}},{"type":"Feature","properties":{"nome":null,"detalhe":"tower","osm_id":"node/7467995497"},"geometry":{"type":"Point","coordinates":[-51.2487991,-30.1061884]}},{"type":"Feature","properties":{"nome":null,"detalhe":"tower","osm_id":"node/7468000262"},"geometry":{"type":"Point","coordinates":[-51.1787573,-30.1160633]}},{"type":"Feature","properties":{"nome":null,"detalhe":"tower","osm_id":"node/7468001447"},"geometry":{"type":"Point","coordinates":[-51.2439818,-30.1061901]}},{"type":"Feature","properties":{"nome":null,"detalhe":"tower","osm_id":"node/7468003405"},"geometry":{"type":"Point","coordinates":[-51.2638996,-30.1091923]}},{"type":"Feature","properties":{"nome":null,"detalhe":"tower","osm_id":"node/7468007977"},"geometry":{"type":"Point","coordinates":[-51.2251752,-30.0925745]}},{"type":"Feature","properties":{"nome":null,"detalhe":"tower","osm_id":"node/7468011026"},"geometry":{"type":"Point","coordinates":[-51.2538918,-30.0994283]}},{"type":"Feature","properties":{"nome":null,"detalhe":"tower","osm_id":"node/7468011618"},"geometry":{"type":"Point","coordinates":[-51.2403972,-30.0862972]}},{"type":"Feature","properties":{"nome":null,"detalhe":"tower","osm_id":"node/7468013744"},"geometry":{"type":"Point","coordinates":[-51.2153144,-30.0882493]}},{"type":"Feature","properties":{"nome":null,"detalhe":"tower","osm_id":"node/7468013827"},"geometry":{"type":"Point","coordinates":[-51.2324811,-30.0993314]}},{"type":"Feature","properties":{"nome":null,"detalhe":"tower","osm_id":"node/7468015561"},"geometry":{"type":"Point","coordinates":[-51.1980085,-30.0842033]}},{"type":"Feature","properties":{"nome":null,"detalhe":"tower","osm_id":"node/7468015568"},"geometry":{"type":"Point","coordinates":[-51.2298437,-30.0550443]}},{"type":"Feature","properties":{"nome":null,"detalhe":"tower","osm_id":"node/7468016992"},"geometry":{"type":"Point","coordinates":[-51.2322895,-30.0647198]}},{"type":"Feature","properties":{"nome":null,"detalhe":"tower","osm_id":"node/7468016993"},"geometry":{"type":"Point","coordinates":[-51.2356714,-30.0303184]}},{"type":"Feature","properties":{"nome":null,"detalhe":"tower","osm_id":"node/7468018617"},"geometry":{"type":"Point","coordinates":[-51.2199173,-30.0799421]}},{"type":"Feature","properties":{"nome":null,"detalhe":"tower","osm_id":"node/7468024948"},"geometry":{"type":"Point","coordinates":[-51.2346393,-30.0898471]}},{"type":"Feature","properties":{"nome":null,"detalhe":"tower","osm_id":"node/7468026093"},"geometry":{"type":"Point","coordinates":[-51.229061,-30.048685]}},{"type":"Feature","properties":{"nome":null,"detalhe":"tower","osm_id":"node/7468032224"},"geometry":{"type":"Point","coordinates":[-51.2095239,-30.0897128]}},{"type":"Feature","properties":{"nome":null,"detalhe":"tower","osm_id":"node/7468038158"},"geometry":{"type":"Point","coordinates":[-51.2286944,-30.0621389]}},{"type":"Feature","properties":{"nome":null,"detalhe":"tower","osm_id":"node/7468040074"},"geometry":{"type":"Point","coordinates":[-51.192817,-29.9634401]}},{"type":"Feature","properties":{"nome":null,"detalhe":"tower","osm_id":"node/7468042494"},"geometry":{"type":"Point","coordinates":[-51.212979,-30.0695512]}},{"type":"Feature","properties":{"nome":null,"detalhe":"tower","osm_id":"node/7468045302"},"geometry":{"type":"Point","coordinates":[-51.2183528,-30.0721028]}},{"type":"Feature","properties":{"nome":null,"detalhe":"tower","osm_id":"node/7468046397"},"geometry":{"type":"Point","coordinates":[-51.2131899,-30.0303863]}},{"type":"Feature","properties":{"nome":null,"detalhe":"tower","osm_id":"node/7468046409"},"geometry":{"type":"Point","coordinates":[-51.1546127,-30.0178302]}},{"type":"Feature","properties":{"nome":null,"detalhe":"tower","osm_id":"node/7468046808"},"geometry":{"type":"Point","coordinates":[-51.2275551,-30.0310488]}},{"type":"Feature","properties":{"nome":null,"detalhe":"tower","osm_id":"node/7468047836"},"geometry":{"type":"Point","coordinates":[-51.2277306,-30.0357694]}},{"type":"Feature","properties":{"nome":null,"detalhe":"tower","osm_id":"node/7468048115"},"geometry":{"type":"Point","coordinates":[-51.2298943,-30.03193]}},{"type":"Feature","properties":{"nome":null,"detalhe":"tower","osm_id":"node/7468048291"},"geometry":{"type":"Point","coordinates":[-51.2295483,-30.0453814]}},{"type":"Feature","properties":{"nome":null,"detalhe":"tower","osm_id":"node/7468048483"},"geometry":{"type":"Point","coordinates":[-51.2376722,-30.0334389]}},{"type":"Feature","properties":{"nome":null,"detalhe":"tower","osm_id":"node/7468050687"},"geometry":{"type":"Point","coordinates":[-51.2314689,-30.0308729]}},{"type":"Feature","properties":{"nome":null,"detalhe":"tower","osm_id":"node/7468050688"},"geometry":{"type":"Point","coordinates":[-51.2323322,-30.0309257]}},{"type":"Feature","properties":{"nome":null,"detalhe":"tower","osm_id":"node/7468056124"},"geometry":{"type":"Point","coordinates":[-51.2340272,-30.0306972]}},{"type":"Feature","properties":{"nome":null,"detalhe":"tower","osm_id":"node/7468061133"},"geometry":{"type":"Point","coordinates":[-51.1874167,-29.9481667]}},{"type":"Feature","properties":{"nome":null,"detalhe":"tower","osm_id":"node/7468064268"},"geometry":{"type":"Point","coordinates":[-51.1908917,-30.0341417]}},{"type":"Feature","properties":{"nome":null,"detalhe":"tower","osm_id":"node/7468064430"},"geometry":{"type":"Point","coordinates":[-51.2197778,-30.0473333]}},{"type":"Feature","properties":{"nome":null,"detalhe":"tower","osm_id":"node/7468066238"},"geometry":{"type":"Point","coordinates":[-51.2123141,-30.0586489]}},{"type":"Feature","properties":{"nome":null,"detalhe":"tower","osm_id":"node/7468066892"},"geometry":{"type":"Point","coordinates":[-51.2108056,-30.0269444]}},{"type":"Feature","properties":{"nome":null,"detalhe":"tower","osm_id":"node/7468067519"},"geometry":{"type":"Point","coordinates":[-51.2130833,-30.0198056]}},{"type":"Feature","properties":{"nome":null,"detalhe":"tower","osm_id":"node/7468068481"},"geometry":{"type":"Point","coordinates":[-51.2037089,-30.0465072]}},{"type":"Feature","properties":{"nome":null,"detalhe":"tower","osm_id":"node/7468069654"},"geometry":{"type":"Point","coordinates":[-51.1742583,-29.9463889]}},{"type":"Feature","properties":{"nome":null,"detalhe":"tower","osm_id":"node/7468070415"},"geometry":{"type":"Point","coordinates":[-51.1915906,-29.9836713]}},{"type":"Feature","properties":{"nome":null,"detalhe":"tower","osm_id":"node/7468072220"},"geometry":{"type":"Point","coordinates":[-51.1635231,-30.0213945]}},{"type":"Feature","properties":{"nome":null,"detalhe":"tower","osm_id":"node/7468072473"},"geometry":{"type":"Point","coordinates":[-51.1939787,-29.9842362]}},{"type":"Feature","properties":{"nome":null,"detalhe":"tower","osm_id":"node/7468073017"},"geometry":{"type":"Point","coordinates":[-51.206993,-30.0341175]}},{"type":"Feature","properties":{"nome":null,"detalhe":"tower","osm_id":"node/7468073446"},"geometry":{"type":"Point","coordinates":[-51.164992,-30.0096814]}},{"type":"Feature","properties":{"nome":null,"detalhe":"tower","osm_id":"node/7468074191"},"geometry":{"type":"Point","coordinates":[-51.2035278,-29.9968056]}},{"type":"Feature","properties":{"nome":null,"detalhe":"tower","osm_id":"node/7468075989"},"geometry":{"type":"Point","coordinates":[-51.1917361,-29.9844103]}},{"type":"Feature","properties":{"nome":null,"detalhe":"tower","osm_id":"node/7468083671"},"geometry":{"type":"Point","coordinates":[-51.1761242,-29.9501897]}},{"type":"Feature","properties":{"nome":null,"detalhe":"tower","osm_id":"node/7468083892"},"geometry":{"type":"Point","coordinates":[-51.1684472,-30.0155333]}},{"type":"Feature","properties":{"nome":null,"detalhe":"tower","osm_id":"node/7468084431"},"geometry":{"type":"Point","coordinates":[-51.1990722,-30.0466861]}},{"type":"Feature","properties":{"nome":null,"detalhe":"tower","osm_id":"node/7468086202"},"geometry":{"type":"Point","coordinates":[-51.2231893,-30.057301]}},{"type":"Feature","properties":{"nome":null,"detalhe":"tower","osm_id":"node/7468086231"},"geometry":{"type":"Point","coordinates":[-51.17375,-30.0036944]}},{"type":"Feature","properties":{"nome":null,"detalhe":"tower","osm_id":"node/7468086386"},"geometry":{"type":"Point","coordinates":[-51.1857,-29.9559628]}},{"type":"Feature","properties":{"nome":null,"detalhe":"tower","osm_id":"node/7468087889"},"geometry":{"type":"Point","coordinates":[-51.1742128,-29.9497116]}},{"type":"Feature","properties":{"nome":null,"detalhe":"tower","osm_id":"node/7468091920"},"geometry":{"type":"Point","coordinates":[-51.1895722,-30.0351861]}},{"type":"Feature","properties":{"nome":null,"detalhe":"tower","osm_id":"node/7468092362"},"geometry":{"type":"Point","coordinates":[-51.1660778,-30.0192139]}},{"type":"Feature","properties":{"nome":null,"detalhe":"tower","osm_id":"node/7468092796"},"geometry":{"type":"Point","coordinates":[-51.1724386,-30.0037083]}},{"type":"Feature","properties":{"nome":null,"detalhe":"tower","osm_id":"node/7468094177"},"geometry":{"type":"Point","coordinates":[-51.2017354,-30.0534327]}},{"type":"Feature","properties":{"nome":null,"detalhe":"tower","osm_id":"node/7468101783"},"geometry":{"type":"Point","coordinates":[-51.0974571,-30.068828]}},{"type":"Feature","properties":{"nome":null,"detalhe":"tower","osm_id":"node/7468104313"},"geometry":{"type":"Point","coordinates":[-51.150442,-30.0313189]}},{"type":"Feature","properties":{"nome":null,"detalhe":"tower","osm_id":"node/7468106514"},"geometry":{"type":"Point","coordinates":[-51.0840278,-30.0921389]}},{"type":"Feature","properties":{"nome":null,"detalhe":"tower","osm_id":"node/7468106699"},"geometry":{"type":"Point","coordinates":[-51.1084167,-30.0638611]}},{"type":"Feature","properties":{"nome":null,"detalhe":"tower","osm_id":"node/7468106760"},"geometry":{"type":"Point","coordinates":[-51.0896321,-30.054312]}},{"type":"Feature","properties":{"nome":null,"detalhe":"tower","osm_id":"node/7468121378"},"geometry":{"type":"Point","coordinates":[-51.0724104,-30.0754086]}},{"type":"Feature","properties":{"nome":null,"detalhe":"tower","osm_id":"node/7468121975"},"geometry":{"type":"Point","coordinates":[-51.0757407,-29.9977941]}},{"type":"Feature","properties":{"nome":null,"detalhe":"tower","osm_id":"node/7468128486"},"geometry":{"type":"Point","coordinates":[-51.1000814,-30.0804263]}},{"type":"Feature","properties":{"nome":null,"detalhe":"tower","osm_id":"node/7468130008"},"geometry":{"type":"Point","coordinates":[-51.0637083,-30.02165]}},{"type":"Feature","properties":{"nome":null,"detalhe":"tower","osm_id":"node/7468130188"},"geometry":{"type":"Point","coordinates":[-51.1163242,-30.0691575]}},{"type":"Feature","properties":{"nome":null,"detalhe":"tower","osm_id":"node/7468130878"},"geometry":{"type":"Point","coordinates":[-51.08125,-30.0230278]}},{"type":"Feature","properties":{"nome":null,"detalhe":"tower","osm_id":"node/7468133160"},"geometry":{"type":"Point","coordinates":[-51.0634439,-30.0176678]}},{"type":"Feature","properties":{"nome":null,"detalhe":"tower","osm_id":"node/7468139555"},"geometry":{"type":"Point","coordinates":[-51.0641293,-30.0932111]}},{"type":"Feature","properties":{"nome":null,"detalhe":"tower","osm_id":"node/7468142858"},"geometry":{"type":"Point","coordinates":[-51.0560739,-29.9896168]}},{"type":"Feature","properties":{"nome":null,"detalhe":"tower","osm_id":"node/7468148139"},"geometry":{"type":"Point","coordinates":[-51.0620047,-29.9998718]}},{"type":"Feature","properties":{"nome":null,"detalhe":"tower","osm_id":"node/7468151341"},"geometry":{"type":"Point","coordinates":[-51.1134639,-30.03405]}},{"type":"Feature","properties":{"nome":null,"detalhe":"tower","osm_id":"node/7468151522"},"geometry":{"type":"Point","coordinates":[-51.060137,-30.0090983]}},{"type":"Feature","properties":{"nome":null,"detalhe":"tower","osm_id":"node/7468152321"},"geometry":{"type":"Point","coordinates":[-51.0563783,-30.0336803]}},{"type":"Feature","properties":{"nome":null,"detalhe":"tower","osm_id":"node/7468152322"},"geometry":{"type":"Point","coordinates":[-51.0564661,-30.0337106]}},{"type":"Feature","properties":{"nome":null,"detalhe":"tower","osm_id":"node/7468154162"},"geometry":{"type":"Point","coordinates":[-51.1148694,-29.9982306]}},{"type":"Feature","properties":{"nome":null,"detalhe":"tower","osm_id":"node/7468155808"},"geometry":{"type":"Point","coordinates":[-51.0629366,-30.0479652]}},{"type":"Feature","properties":{"nome":null,"detalhe":"tower","osm_id":"node/7468156658"},"geometry":{"type":"Point","coordinates":[-51.0569773,-30.0000296]}},{"type":"Feature","properties":{"nome":null,"detalhe":"tower","osm_id":"node/7468158554"},"geometry":{"type":"Point","coordinates":[-51.0682493,-30.0246272]}},{"type":"Feature","properties":{"nome":null,"detalhe":"tower","osm_id":"node/7468159390"},"geometry":{"type":"Point","coordinates":[-51.0761188,-29.9874581]}},{"type":"Feature","properties":{"nome":null,"detalhe":"tower","osm_id":"node/7468161352"},"geometry":{"type":"Point","coordinates":[-51.0606769,-29.9971088]}},{"type":"Feature","properties":{"nome":null,"detalhe":"tower","osm_id":"node/7468163018"},"geometry":{"type":"Point","coordinates":[-51.0809716,-30.03119]}},{"type":"Feature","properties":{"nome":null,"detalhe":"tower","osm_id":"node/7468163407"},"geometry":{"type":"Point","coordinates":[-51.0777937,-30.0101095]}},{"type":"Feature","properties":{"nome":null,"detalhe":"tower","osm_id":"node/7468167384"},"geometry":{"type":"Point","coordinates":[-51.0761156,-29.995944]}},{"type":"Feature","properties":{"nome":null,"detalhe":"tower","osm_id":"node/7468170535"},"geometry":{"type":"Point","coordinates":[-51.1217626,-30.0368286]}},{"type":"Feature","properties":{"nome":null,"detalhe":"tower","osm_id":"node/7468170895"},"geometry":{"type":"Point","coordinates":[-51.0832222,-30.008]}},{"type":"Feature","properties":{"nome":null,"detalhe":"tower","osm_id":"node/7468173285"},"geometry":{"type":"Point","coordinates":[-51.0766693,-29.9958697]}},{"type":"Feature","properties":{"nome":null,"detalhe":"tower","osm_id":"node/7468173587"},"geometry":{"type":"Point","coordinates":[-51.0806389,-30.0076944]}},{"type":"Feature","properties":{"nome":null,"detalhe":"tower","osm_id":"node/7468173588"},"geometry":{"type":"Point","coordinates":[-51.1006688,-30.0025351]}},{"type":"Feature","properties":{"nome":null,"detalhe":"tower","osm_id":"node/7468173590"},"geometry":{"type":"Point","coordinates":[-51.1615833,-30.0686944]}},{"type":"Feature","properties":{"nome":null,"detalhe":"tower","osm_id":"node/7468174041"},"geometry":{"type":"Point","coordinates":[-51.2021412,-30.0597272]}},{"type":"Feature","properties":{"nome":null,"detalhe":"tower","osm_id":"node/7468174171"},"geometry":{"type":"Point","coordinates":[-51.1952017,-30.0736667]}},{"type":"Feature","properties":{"nome":null,"detalhe":"tower","osm_id":"node/7468174519"},"geometry":{"type":"Point","coordinates":[-51.0968056,-29.9940278]}},{"type":"Feature","properties":{"nome":null,"detalhe":"tower","osm_id":"node/7468174520"},"geometry":{"type":"Point","coordinates":[-51.1078988,-30.0157198]}},{"type":"Feature","properties":{"nome":null,"detalhe":"tower","osm_id":"node/7468174534"},"geometry":{"type":"Point","coordinates":[-51.1330417,-30.0206889]}},{"type":"Feature","properties":{"nome":null,"detalhe":"tower","osm_id":"node/7468176987"},"geometry":{"type":"Point","coordinates":[-51.1355583,-30.0447194]}},{"type":"Feature","properties":{"nome":null,"detalhe":"tower","osm_id":"node/7468178110"},"geometry":{"type":"Point","coordinates":[-51.1465,-30.0427]}},{"type":"Feature","properties":{"nome":null,"detalhe":"tower","osm_id":"node/7468178603"},"geometry":{"type":"Point","coordinates":[-51.1092051,-30.0082615]}},{"type":"Feature","properties":{"nome":null,"detalhe":"tower","osm_id":"node/7468179387"},"geometry":{"type":"Point","coordinates":[-51.0953573,-29.987563]}},{"type":"Feature","properties":{"nome":null,"detalhe":"tower","osm_id":"node/7468180353"},"geometry":{"type":"Point","coordinates":[-51.0979174,-30.0103634]}},{"type":"Feature","properties":{"nome":null,"detalhe":"tower","osm_id":"node/7468180354"},"geometry":{"type":"Point","coordinates":[-51.1052111,-30.0167528]}},{"type":"Feature","properties":{"nome":null,"detalhe":"tower","osm_id":"node/7468183522"},"geometry":{"type":"Point","coordinates":[-51.1521972,-30.0648972]}},{"type":"Feature","properties":{"nome":null,"detalhe":"tower","osm_id":"node/7468187490"},"geometry":{"type":"Point","coordinates":[-51.1169712,-30.0213189]}},{"type":"Feature","properties":{"nome":null,"detalhe":"tower","osm_id":"node/7468190037"},"geometry":{"type":"Point","coordinates":[-51.1310805,-30.0209657]}},{"type":"Feature","properties":{"nome":null,"detalhe":"tower","osm_id":"node/7468190131"},"geometry":{"type":"Point","coordinates":[-51.1635944,-30.0402689]}},{"type":"Feature","properties":{"nome":null,"detalhe":"tower","osm_id":"node/7468194289"},"geometry":{"type":"Point","coordinates":[-51.177287,-30.0862964]}},{"type":"Feature","properties":{"nome":null,"detalhe":"tower","osm_id":"node/7468196101"},"geometry":{"type":"Point","coordinates":[-51.1808889,-30.0647222]}},{"type":"Feature","properties":{"nome":null,"detalhe":"tower","osm_id":"node/7468196274"},"geometry":{"type":"Point","coordinates":[-51.135977,-30.0310091]}},{"type":"Feature","properties":{"nome":null,"detalhe":"tower","osm_id":"node/7468202498"},"geometry":{"type":"Point","coordinates":[-51.1847803,-30.0859419]}},{"type":"Feature","properties":{"nome":null,"detalhe":"tower","osm_id":"node/7468204220"},"geometry":{"type":"Point","coordinates":[-51.1543333,-30.0370022]}},{"type":"Feature","properties":{"nome":null,"detalhe":"tower","osm_id":"node/7468220658"},"geometry":{"type":"Point","coordinates":[-51.1927,-30.0656]}},{"type":"Feature","properties":{"nome":null,"detalhe":"tower","osm_id":"node/7473247236"},"geometry":{"type":"Point","coordinates":[-51.1133456,-29.935621]}},{"type":"Feature","properties":{"nome":null,"detalhe":"tower","osm_id":"node/7473282367"},"geometry":{"type":"Point","coordinates":[-51.0804444,-29.9518611]}},{"type":"Feature","properties":{"nome":null,"detalhe":"tower","osm_id":"node/7473291437"},"geometry":{"type":"Point","coordinates":[-51.0853314,-29.9393374]}},{"type":"Feature","properties":{"nome":null,"detalhe":"tower","osm_id":"node/7473321724"},"geometry":{"type":"Point","coordinates":[-51.1701667,-29.9513056]}},{"type":"Feature","properties":{"nome":null,"detalhe":"tower","osm_id":"node/7473325542"},"geometry":{"type":"Point","coordinates":[-51.100295,-29.9514721]}},{"type":"Feature","properties":{"nome":null,"detalhe":"tower","osm_id":"node/7473328371"},"geometry":{"type":"Point","coordinates":[-51.1139657,-29.9778907]}},{"type":"Feature","properties":{"nome":null,"detalhe":"tower","osm_id":"node/7473329465"},"geometry":{"type":"Point","coordinates":[-51.1979564,-30.0077209]}},{"type":"Feature","properties":{"nome":null,"detalhe":"tower","osm_id":"node/7473332532"},"geometry":{"type":"Point","coordinates":[-51.1567331,-29.948172]}},{"type":"Feature","properties":{"nome":null,"detalhe":"tower","osm_id":"node/7473332886"},"geometry":{"type":"Point","coordinates":[-51.1664929,-29.955963]}},{"type":"Feature","properties":{"nome":null,"detalhe":"tower","osm_id":"node/7473336914"},"geometry":{"type":"Point","coordinates":[-51.1293333,-29.98025]}},{"type":"Feature","properties":{"nome":null,"detalhe":"tower","osm_id":"node/7473336915"},"geometry":{"type":"Point","coordinates":[-51.1379987,-29.9684112]}},{"type":"Feature","properties":{"nome":null,"detalhe":"tower","osm_id":"node/7473337752"},"geometry":{"type":"Point","coordinates":[-51.1959207,-30.0171113]}},{"type":"Feature","properties":{"nome":null,"detalhe":"tower","osm_id":"node/7473338128"},"geometry":{"type":"Point","coordinates":[-51.1476766,-29.9985909]}},{"type":"Feature","properties":{"nome":null,"detalhe":"tower","osm_id":"node/7473338129"},"geometry":{"type":"Point","coordinates":[-51.1466143,-29.9992396]}},{"type":"Feature","properties":{"nome":null,"detalhe":"tower","osm_id":"node/7473340444"},"geometry":{"type":"Point","coordinates":[-51.1053303,-29.9611094]}},{"type":"Feature","properties":{"nome":null,"detalhe":"tower","osm_id":"node/7473350876"},"geometry":{"type":"Point","coordinates":[-51.1242483,-29.9877769]}},{"type":"Feature","properties":{"nome":null,"detalhe":"tower","osm_id":"node/7473352966"},"geometry":{"type":"Point","coordinates":[-51.0989139,-29.942048]}},{"type":"Feature","properties":{"nome":null,"detalhe":"tower","osm_id":"node/7473357775"},"geometry":{"type":"Point","coordinates":[-51.1781297,-29.9598711]}},{"type":"Feature","properties":{"nome":null,"detalhe":"tower","osm_id":"node/7473357993"},"geometry":{"type":"Point","coordinates":[-51.1277268,-29.9933684]}},{"type":"Feature","properties":{"nome":null,"detalhe":"tower","osm_id":"node/7473357994"},"geometry":{"type":"Point","coordinates":[-51.1274583,-29.9936583]}},{"type":"Feature","properties":{"nome":null,"detalhe":"tower","osm_id":"node/7473359193"},"geometry":{"type":"Point","coordinates":[-51.1940833,-30.0057778]}},{"type":"Feature","properties":{"nome":null,"detalhe":"tower","osm_id":"node/7473360159"},"geometry":{"type":"Point","coordinates":[-51.1360322,-30.0023478]}},{"type":"Feature","properties":{"nome":null,"detalhe":"tower","osm_id":"node/7473362588"},"geometry":{"type":"Point","coordinates":[-51.1885278,-29.9628333]}},{"type":"Feature","properties":{"nome":null,"detalhe":"tower","osm_id":"node/7473362589"},"geometry":{"type":"Point","coordinates":[-51.1879722,-29.9623611]}},{"type":"Feature","properties":{"nome":null,"detalhe":"tower","osm_id":"node/7473365124"},"geometry":{"type":"Point","coordinates":[-51.1678889,-29.9783333]}},{"type":"Feature","properties":{"nome":null,"detalhe":"tower","osm_id":"node/7473368043"},"geometry":{"type":"Point","coordinates":[-51.2197864,-29.9929529]}},{"type":"Feature","properties":{"nome":null,"detalhe":"tower","osm_id":"node/7473369342"},"geometry":{"type":"Point","coordinates":[-51.180678,-30.0079065]}},{"type":"Feature","properties":{"nome":null,"detalhe":"tower","osm_id":"node/7473369513"},"geometry":{"type":"Point","coordinates":[-51.1925805,-30.0075082]}},{"type":"Feature","properties":{"nome":null,"detalhe":"tower","osm_id":"node/7473369755"},"geometry":{"type":"Point","coordinates":[-51.1866389,-30.0457778]}},{"type":"Feature","properties":{"nome":null,"detalhe":"tower","osm_id":"node/7473370814"},"geometry":{"type":"Point","coordinates":[-51.1983941,-30.0106225]}},{"type":"Feature","properties":{"nome":null,"detalhe":"tower","osm_id":"node/7473372036"},"geometry":{"type":"Point","coordinates":[-51.1984213,-30.0164883]}},{"type":"Feature","properties":{"nome":null,"detalhe":"tower","osm_id":"node/7473373314"},"geometry":{"type":"Point","coordinates":[-51.1656528,-30.0478278]}},{"type":"Feature","properties":{"nome":null,"detalhe":"tower","osm_id":"node/7473375541"},"geometry":{"type":"Point","coordinates":[-51.1898944,-30.0542722]}},{"type":"Feature","properties":{"nome":null,"detalhe":"tower","osm_id":"node/7473375542"},"geometry":{"type":"Point","coordinates":[-51.1890847,-30.0540665]}},{"type":"Feature","properties":{"nome":null,"detalhe":"tower","osm_id":"node/7473378366"},"geometry":{"type":"Point","coordinates":[-51.1980059,-30.0076846]}},{"type":"Feature","properties":{"nome":null,"detalhe":"tower","osm_id":"node/7473379292"},"geometry":{"type":"Point","coordinates":[-51.1730371,-30.0398203]}},{"type":"Feature","properties":{"nome":null,"detalhe":"tower","osm_id":"node/7473382055"},"geometry":{"type":"Point","coordinates":[-51.1468611,-30.022]}},{"type":"Feature","properties":{"nome":null,"detalhe":"tower","osm_id":"node/7473382056"},"geometry":{"type":"Point","coordinates":[-51.1507278,-30.0226056]}},{"type":"Feature","properties":{"nome":null,"detalhe":"tower","osm_id":"node/7473385445"},"geometry":{"type":"Point","coordinates":[-51.1536483,-30.025981]}},{"type":"Feature","properties":{"nome":null,"detalhe":"tower","osm_id":"node/7473386882"},"geometry":{"type":"Point","coordinates":[-51.2116785,-30.0390839]}},{"type":"Feature","properties":{"nome":null,"detalhe":"tower","osm_id":"node/7473386886"},"geometry":{"type":"Point","coordinates":[-51.1516243,-30.0134891]}},{"type":"Feature","properties":{"nome":null,"detalhe":"tower","osm_id":"node/7473387784"},"geometry":{"type":"Point","coordinates":[-51.1770791,-30.0357502]}},{"type":"Feature","properties":{"nome":null,"detalhe":"tower","osm_id":"node/7473390631"},"geometry":{"type":"Point","coordinates":[-51.2048103,-30.0388562]}},{"type":"Feature","properties":{"nome":null,"detalhe":"tower","osm_id":"node/7473392786"},"geometry":{"type":"Point","coordinates":[-51.1723944,-30.03955]}},{"type":"Feature","properties":{"nome":null,"detalhe":"tower","osm_id":"node/7473393085"},"geometry":{"type":"Point","coordinates":[-51.1816577,-30.052115]}},{"type":"Feature","properties":{"nome":null,"detalhe":"tower","osm_id":"node/7473396938"},"geometry":{"type":"Point","coordinates":[-51.1923,-30.0238]}},{"type":"Feature","properties":{"nome":null,"detalhe":"tower","osm_id":"node/7473403431"},"geometry":{"type":"Point","coordinates":[-51.2035056,-30.0409389]}},{"type":"Feature","properties":{"nome":null,"detalhe":"tower","osm_id":"node/7473412685"},"geometry":{"type":"Point","coordinates":[-51.1980922,-30.0258794]}},{"type":"Feature","properties":{"nome":null,"detalhe":"tower","osm_id":"node/9367028143"},"geometry":{"type":"Point","coordinates":[-51.200814,-29.9661619]}},{"type":"Feature","properties":{"nome":null,"detalhe":"tower","osm_id":"node/9367028144"},"geometry":{"type":"Point","coordinates":[-51.200657,-29.9662955]}},{"type":"Feature","properties":{"nome":null,"detalhe":"tower","osm_id":"node/10743552324"},"geometry":{"type":"Point","coordinates":[-51.2020786,-29.9995333]}},{"type":"Feature","properties":{"nome":"VIVO","detalhe":"tower","osm_id":"node/13281616751"},"geometry":{"type":"Point","coordinates":[-51.0625116,-30.1098537]}}]}