{"type":"FeatureCollection","features":[{"type":"Feature","properties":{"nome":"Subestação Lajeado 2","detalhe":"substation","osm_id":"way/255732033"},"geometry":{"type":"Point","coordinates":[-51.9845868,-29.4651078]}},{"type":"Feature","properties":{"nome":"Subestação Lajeado","detalhe":"substation","osm_id":"way/301181660"},"geometry":{"type":"Point","coordinates":[-51.9589074,-29.4398888]}},{"type":"Feature","properties":{"nome":"Subestação Estrela 2","detalhe":"substation","osm_id":"way/301181661"},"geometry":{"type":"Point","coordinates":[-51.9613918,-29.4829666]}},{"type":"Feature","properties":{"nome":"Subestação Lajeado","detalhe":"substation","osm_id":"way/436175747"},"geometry":{"type":"Point","coordinates":[-51.9572373,-29.4384678]}},{"type":"Feature","properties":{"nome":"Subestação BRF","detalhe":"substation","osm_id":"way/532152538"},"geometry":{"type":"Point","coordinates":[-51.9894639,-29.4647378]}},{"type":"Feature","properties":{"nome":"Subestação Granóleo","detalhe":"substation","osm_id":"way/532152540"},"geometry":{"type":"Point","coordinates":[-51.9695837,-29.4797985]}},{"type":"Feature","properties":{"nome":"CCR ViaSul","detalhe":"plant","osm_id":"way/784079720"},"geometry":{"type":"Point","coordinates":[-51.9739919,-29.4466642]}}]}