{"type":"FeatureCollection","features":[{"type":"Feature","properties":{"nome":"Rodovia Governador Leonel de Moura Brizola","detalhe":"via: trunk","osm_id":"way/39818637"},"geometry":{"type":"Point","coordinates":[-51.9537845,-29.469452]}},{"type":"Feature","properties":{"nome":"Viaduto sobre a BR-386","detalhe":"via: trunk","osm_id":"way/42811224"},"geometry":{"type":"Point","coordinates":[-51.9548362,-29.4849223]}},{"type":"Feature","properties":{"nome":"Rodovia Governador Leonel de Moura Brizola","detalhe":"via: trunk","osm_id":"way/42811891"},"geometry":{"type":"Point","coordinates":[-51.9536751,-29.4694302]}},{"type":"Feature","properties":{"nome":"RSC-453","detalhe":"via: trunk","osm_id":"way/49014969"},"geometry":{"type":"Point","coordinates":[-51.9738557,-29.4472363]}},{"type":"Feature","properties":{"nome":null,"detalhe":"via: secondary","osm_id":"way/148614365"},"geometry":{"type":"Point","coordinates":[-51.9565757,-29.4586968]}},{"type":"Feature","properties":{"nome":"Rodovia Governador Leonel de Moura Brizola","detalhe":"via: trunk","osm_id":"way/148624213"},"geometry":{"type":"Point","coordinates":[-51.9654863,-29.4518975]}},{"type":"Feature","properties":{"nome":"Rodovia Governador Leonel de Moura Brizola","detalhe":"via: trunk","osm_id":"way/148624215"},"geometry":{"type":"Point","coordinates":[-51.9655796,-29.4520027]}},{"type":"Feature","properties":{"nome":"Ponte de Ferro","detalhe":"via: secondary","osm_id":"way/176546011"},"geometry":{"type":"Point","coordinates":[-51.9588541,-29.4208887]}},{"type":"Feature","properties":{"nome":"ERS-130","detalhe":"via: primary","osm_id":"way/176546012"},"geometry":{"type":"Point","coordinates":[-51.9662352,-29.4215892]}},{"type":"Feature","properties":{"nome":"Rua Marechal Floriano Peixoto","detalhe":"via: secondary","osm_id":"way/176546016"},"geometry":{"type":"Point","coordinates":[-51.9448657,-29.4066173]}},{"type":"Feature","properties":{"nome":null,"detalhe":"via: tertiary","osm_id":"way/183604240"},"geometry":{"type":"Point","coordinates":[-51.9653144,-29.4976027]}},{"type":"Feature","properties":{"nome":"Rodovia Governador Leonel de Moura Brizola","detalhe":"via: trunk","osm_id":"way/191772690"},"geometry":{"type":"Point","coordinates":[-51.954937,-29.4664057]}},{"type":"Feature","properties":{"nome":"Rodovia Governador Leonel de Moura Brizola","detalhe":"via: trunk","osm_id":"way/191772697"},"geometry":{"type":"Point","coordinates":[-51.9548273,-29.4663332]}},{"type":"Feature","properties":{"nome":"Avenida Benjamin Constant","detalhe":"via: secondary","osm_id":"way/196290885"},"geometry":{"type":"Point","coordinates":[-51.9795699,-29.4514801]}},{"type":"Feature","properties":{"nome":"Rodovia Governador Leonel de Moura Brizola","detalhe":"via: trunk","osm_id":"way/196299166"},"geometry":{"type":"Point","coordinates":[-51.9536351,-29.4787415]}},{"type":"Feature","properties":{"nome":"Rodovia Governador Leonel de Moura Brizola","detalhe":"via: trunk","osm_id":"way/196299167"},"geometry":{"type":"Point","coordinates":[-51.9531447,-29.475273]}},{"type":"Feature","properties":{"nome":"Rodovia Governador Leonel de Moura Brizola","detalhe":"via: trunk","osm_id":"way/196299170"},"geometry":{"type":"Point","coordinates":[-51.9535186,-29.4787624]}},{"type":"Feature","properties":{"nome":"Rodovia Governador Leonel de Moura Brizola","detalhe":"via: trunk","osm_id":"way/196299171"},"geometry":{"type":"Point","coordinates":[-51.9530279,-29.4752792]}},{"type":"Feature","properties":{"nome":null,"detalhe":"via: tertiary","osm_id":"way/210661256"},"geometry":{"type":"Point","coordinates":[-51.9475724,-29.4717703]}},{"type":"Feature","properties":{"nome":"Rua João Lino Braun","detalhe":"via: tertiary","osm_id":"way/210662140"},"geometry":{"type":"Point","coordinates":[-51.9527049,-29.4791686]}},{"type":"Feature","properties":{"nome":null,"detalhe":"via: footway","osm_id":"way/210664629"},"geometry":{"type":"Point","coordinates":[-51.9529891,-29.4889731]}},{"type":"Feature","properties":{"nome":null,"detalhe":"via: footway","osm_id":"way/230873547"},"geometry":{"type":"Point","coordinates":[-51.955492,-29.4446787]}},{"type":"Feature","properties":{"nome":"Ramal de Estrela","detalhe":"ferrovia","osm_id":"way/231237019"},"geometry":{"type":"Point","coordinates":[-51.9440106,-29.4757924]}},{"type":"Feature","properties":{"nome":null,"detalhe":"via: secondary","osm_id":"way/231850840"},"geometry":{"type":"Point","coordinates":[-51.9710149,-29.4729735]}},{"type":"Feature","properties":{"nome":"Rua 1º de Maio","detalhe":"via: residential","osm_id":"way/300703405"},"geometry":{"type":"Point","coordinates":[-52.0186421,-29.4535048]}},{"type":"Feature","properties":{"nome":"RSC-453;ERS-130","detalhe":"via: trunk","osm_id":"way/301011124"},"geometry":{"type":"Point","coordinates":[-51.9934483,-29.4639942]}},{"type":"Feature","properties":{"nome":"Rodovia Governador Leonel de Moura Brizola","detalhe":"via: trunk","osm_id":"way/301011125"},"geometry":{"type":"Point","coordinates":[-52.0279552,-29.4111995]}},{"type":"Feature","properties":{"nome":"Rua Arnaldo Brey","detalhe":"via: tertiary","osm_id":"way/301011128"},"geometry":{"type":"Point","coordinates":[-51.9829092,-29.4660349]}},{"type":"Feature","properties":{"nome":"Rua João Reinaldo Saffran","detalhe":"via: residential","osm_id":"way/301011131"},"geometry":{"type":"Point","coordinates":[-52.0259353,-29.4511265]}},{"type":"Feature","properties":{"nome":"Rua João Benno Mallmann","detalhe":"via: residential","osm_id":"way/303866721"},"geometry":{"type":"Point","coordinates":[-52.0104465,-29.4599849]}},{"type":"Feature","properties":{"nome":null,"detalhe":"via: primary","osm_id":"way/304516235"},"geometry":{"type":"Point","coordinates":[-51.9699918,-29.4383804]}},{"type":"Feature","properties":{"nome":"Rua Carlos Spohr Filho","detalhe":"via: secondary","osm_id":"way/304588102"},"geometry":{"type":"Point","coordinates":[-52.0045581,-29.4600107]}},{"type":"Feature","properties":{"nome":null,"detalhe":"via: footway","osm_id":"way/312267020"},"geometry":{"type":"Point","coordinates":[-51.955886,-29.4616787]}},{"type":"Feature","properties":{"nome":null,"detalhe":"via: track","osm_id":"way/402154230"},"geometry":{"type":"Point","coordinates":[-51.9928666,-29.4067651]}},{"type":"Feature","properties":{"nome":null,"detalhe":"via: footway","osm_id":"way/552130997"},"geometry":{"type":"Point","coordinates":[-51.9554606,-29.4454532]}},{"type":"Feature","properties":{"nome":"Rua da Divisa","detalhe":"via: tertiary","osm_id":"way/566228647"},"geometry":{"type":"Point","coordinates":[-51.9893063,-29.4932916]}},{"type":"Feature","properties":{"nome":"Rua Henrique Eckhard","detalhe":"via: tertiary","osm_id":"way/790231071"},"geometry":{"type":"Point","coordinates":[-52.0259215,-29.4750327]}},{"type":"Feature","properties":{"nome":"ERS-413","detalhe":"via: secondary","osm_id":"way/790231074"},"geometry":{"type":"Point","coordinates":[-52.0432337,-29.4544818]}},{"type":"Feature","properties":{"nome":"Rua Borges de Medeiros","detalhe":"via: secondary","osm_id":"way/790231078"},"geometry":{"type":"Point","coordinates":[-51.9709329,-29.468516]}},{"type":"Feature","properties":{"nome":null,"detalhe":"via: footway","osm_id":"way/790231087"},"geometry":{"type":"Point","coordinates":[-51.9699466,-29.4652553]}},{"type":"Feature","properties":{"nome":"Rua Leopoldo Auler","detalhe":"via: residential","osm_id":"way/881025815"},"geometry":{"type":"Point","coordinates":[-52.0079607,-29.4247761]}},{"type":"Feature","properties":{"nome":null,"detalhe":"via: service","osm_id":"way/930613052"},"geometry":{"type":"Point","coordinates":[-51.9728274,-29.4489184]}},{"type":"Feature","properties":{"nome":null,"detalhe":"via: footway","osm_id":"way/942603267"},"geometry":{"type":"Point","coordinates":[-51.9702554,-29.4646792]}},{"type":"Feature","properties":{"nome":"Rua Coronel Mussnich","detalhe":"via: secondary","osm_id":"way/957020049"},"geometry":{"type":"Point","coordinates":[-51.9633487,-29.4962057]}},{"type":"Feature","properties":{"nome":"Avenida Benjamin Constant","detalhe":"via: secondary","osm_id":"way/1117862103"},"geometry":{"type":"Point","coordinates":[-51.9796251,-29.4515228]}},{"type":"Feature","properties":{"nome":"Rua Arnoldo Alfredo Scherer","detalhe":"via: tertiary","osm_id":"way/1134103650"},"geometry":{"type":"Point","coordinates":[-52.0245438,-29.4171801]}},{"type":"Feature","properties":{"nome":"Rodovia Governador Leonel de Moura Brizola","detalhe":"via: trunk","osm_id":"way/1134103651"},"geometry":{"type":"Point","coordinates":[-52.0279727,-29.4113425]}},{"type":"Feature","properties":{"nome":null,"detalhe":"via: tertiary","osm_id":"way/1146795045"},"geometry":{"type":"Point","coordinates":[-51.9889467,-29.4410699]}},{"type":"Feature","properties":{"nome":"Rua Carlos Spohr Filho","detalhe":"via: secondary","osm_id":"way/1164571793"},"geometry":{"type":"Point","coordinates":[-52.004374,-29.4599842]}},{"type":"Feature","properties":{"nome":"Rodovia Governador Leonel de Moura Brizola","detalhe":"via: trunk","osm_id":"way/1164976833"},"geometry":{"type":"Point","coordinates":[-51.9802995,-29.4446261]}},{"type":"Feature","properties":{"nome":null,"detalhe":"via: footway","osm_id":"way/1179623731"},"geometry":{"type":"Point","coordinates":[-51.9623365,-29.4587832]}},{"type":"Feature","properties":{"nome":null,"detalhe":"via: footway","osm_id":"way/1179623735"},"geometry":{"type":"Point","coordinates":[-51.962446,-29.4589547]}},{"type":"Feature","properties":{"nome":null,"detalhe":"via: footway","osm_id":"way/1179633716"},"geometry":{"type":"Point","coordinates":[-51.9552674,-29.4453343]}},{"type":"Feature","properties":{"nome":null,"detalhe":"via: footway","osm_id":"way/1179633717"},"geometry":{"type":"Point","coordinates":[-51.9555973,-29.4452171]}},{"type":"Feature","properties":{"nome":null,"detalhe":"via: path","osm_id":"way/1185843073"},"geometry":{"type":"Point","coordinates":[-52.0358794,-29.4046032]}},{"type":"Feature","properties":{"nome":null,"detalhe":"via: footway","osm_id":"way/1229143956"},"geometry":{"type":"Point","coordinates":[-52.0062865,-29.4342216]}},{"type":"Feature","properties":{"nome":"Rodovia Governador Leonel de Moura Brizola","detalhe":"via: trunk","osm_id":"way/1229143970"},"geometry":{"type":"Point","coordinates":[-52.0128828,-29.4312917]}},{"type":"Feature","properties":{"nome":"Rodovia Governador Leonel de Moura Brizola","detalhe":"via: trunk","osm_id":"way/1229143972"},"geometry":{"type":"Point","coordinates":[-52.012833,-29.4312123]}},{"type":"Feature","properties":{"nome":null,"detalhe":"via: footway","osm_id":"way/1235022092"},"geometry":{"type":"Point","coordinates":[-51.9692391,-29.4499853]}},{"type":"Feature","properties":{"nome":null,"detalhe":"via: footway","osm_id":"way/1235022095"},"geometry":{"type":"Point","coordinates":[-51.9576347,-29.4564037]}},{"type":"Feature","properties":{"nome":null,"detalhe":"via: service","osm_id":"way/1237860059"},"geometry":{"type":"Point","coordinates":[-51.9618759,-29.4644986]}},{"type":"Feature","properties":{"nome":"Rua Pedro Otto Mallmann","detalhe":"via: residential","osm_id":"way/1237870755"},"geometry":{"type":"Point","coordinates":[-51.9960892,-29.4641414]}},{"type":"Feature","properties":{"nome":"EGR","detalhe":"via: trunk","osm_id":"way/1264724382"},"geometry":{"type":"Point","coordinates":[-51.9900819,-29.4603398]}},{"type":"Feature","properties":{"nome":null,"detalhe":"via: track","osm_id":"way/1285541359"},"geometry":{"type":"Point","coordinates":[-51.9985717,-29.4027103]}},{"type":"Feature","properties":{"nome":"Rua Marechal Floriano Peixoto","detalhe":"via: secondary","osm_id":"way/1287250619"},"geometry":{"type":"Point","coordinates":[-51.9519824,-29.4141322]}},{"type":"Feature","properties":{"nome":null,"detalhe":"via: service","osm_id":"way/1287632675"},"geometry":{"type":"Point","coordinates":[-52.0117838,-29.4162411]}},{"type":"Feature","properties":{"nome":null,"detalhe":"via: track","osm_id":"way/1287720636"},"geometry":{"type":"Point","coordinates":[-52.0159268,-29.4110614]}},{"type":"Feature","properties":{"nome":null,"detalhe":"via: residential","osm_id":"way/1287720677"},"geometry":{"type":"Point","coordinates":[-52.0147858,-29.4120209]}},{"type":"Feature","properties":{"nome":null,"detalhe":"via: residential","osm_id":"way/1287720696"},"geometry":{"type":"Point","coordinates":[-52.0127453,-29.4143892]}},{"type":"Feature","properties":{"nome":null,"detalhe":"via: unclassified","osm_id":"way/1287772424"},"geometry":{"type":"Point","coordinates":[-52.0019169,-29.4183367]}},{"type":"Feature","properties":{"nome":"Exército","detalhe":"via: tertiary","osm_id":"way/1291380565"},"geometry":{"type":"Point","coordinates":[-51.9841229,-29.4118648]}},{"type":"Feature","properties":{"nome":"Rua Henrique Eckhard","detalhe":"via: tertiary","osm_id":"way/1304781588"},"geometry":{"type":"Point","coordinates":[-52.0258943,-29.4750399]}},{"type":"Feature","properties":{"nome":"Rua Assyria da Costa Mello","detalhe":"via: unclassified","osm_id":"way/1317148589"},"geometry":{"type":"Point","coordinates":[-51.9566756,-29.4228533]}},{"type":"Feature","properties":{"nome":null,"detalhe":"via: path","osm_id":"way/1343812741"},"geometry":{"type":"Point","coordinates":[-51.9980925,-29.4586617]}},{"type":"Feature","properties":{"nome":null,"detalhe":"via: path","osm_id":"way/1343812760"},"geometry":{"type":"Point","coordinates":[-51.9961395,-29.4525794]}},{"type":"Feature","properties":{"nome":null,"detalhe":"via: path","osm_id":"way/1343812765"},"geometry":{"type":"Point","coordinates":[-51.9965395,-29.4527375]}},{"type":"Feature","properties":{"nome":null,"detalhe":"via: path","osm_id":"way/1343812767"},"geometry":{"type":"Point","coordinates":[-51.996587,-29.4526434]}},{"type":"Feature","properties":{"nome":null,"detalhe":"via: path","osm_id":"way/1343812770"},"geometry":{"type":"Point","coordinates":[-51.9969782,-29.4578136]}},{"type":"Feature","properties":{"nome":null,"detalhe":"via: path","osm_id":"way/1343812773"},"geometry":{"type":"Point","coordinates":[-51.9967862,-29.4577296]}},{"type":"Feature","properties":{"nome":"Rodovia Governador Leonel de Moura Brizola","detalhe":"via: trunk","osm_id":"way/1460716428"},"geometry":{"type":"Point","coordinates":[-51.9802597,-29.4445292]}}]}