{"type":"FeatureCollection","features":[{"type":"Feature","properties":{"nome":null,"detalhe":"water_tower","osm_id":"node/4286975140"},"geometry":{"type":"Point","coordinates":[-51.966103,-29.4550191]}},{"type":"Feature","properties":{"nome":null,"detalhe":"water_tower","osm_id":"node/4293849544"},"geometry":{"type":"Point","coordinates":[-51.9702918,-29.4560195]}},{"type":"Feature","properties":{"nome":null,"detalhe":"water_tower","osm_id":"node/4293849545"},"geometry":{"type":"Point","coordinates":[-51.9702739,-29.4561517]}},{"type":"Feature","properties":{"nome":null,"detalhe":"water_tower","osm_id":"node/4293898436"},"geometry":{"type":"Point","coordinates":[-51.9571944,-29.4612255]}},{"type":"Feature","properties":{"nome":null,"detalhe":"water_tower","osm_id":"node/4293898437"},"geometry":{"type":"Point","coordinates":[-51.9571293,-29.4613199]}},{"type":"Feature","properties":{"nome":null,"detalhe":"water_tower","osm_id":"node/5524028549"},"geometry":{"type":"Point","coordinates":[-51.9712944,-29.4126372]}},{"type":"Feature","properties":{"nome":null,"detalhe":"water_tower","osm_id":"node/5529541642"},"geometry":{"type":"Point","coordinates":[-51.929353,-29.4619307]}},{"type":"Feature","properties":{"nome":"EDEF","detalhe":"water_tower","osm_id":"node/8954285663"},"geometry":{"type":"Point","coordinates":[-51.9270985,-29.4601879]}},{"type":"Feature","properties":{"nome":"EDEF","detalhe":"water_tower","osm_id":"node/8954285664"},"geometry":{"type":"Point","coordinates":[-51.927134,-29.4602072]}},{"type":"Feature","properties":{"nome":null,"detalhe":"water_tower","osm_id":"node/10942391480"},"geometry":{"type":"Point","coordinates":[-52.0288628,-29.4362409]}},{"type":"Feature","properties":{"nome":null,"detalhe":"water_tower","osm_id":"node/10942391481"},"geometry":{"type":"Point","coordinates":[-52.0289015,-29.4362361]}},{"type":"Feature","properties":{"nome":null,"detalhe":"water_tower","osm_id":"node/10942391482"},"geometry":{"type":"Point","coordinates":[-52.0289383,-29.4362315]}},{"type":"Feature","properties":{"nome":null,"detalhe":"water_tower","osm_id":"node/10942391483"},"geometry":{"type":"Point","coordinates":[-52.0289755,-29.4362269]}},{"type":"Feature","properties":{"nome":null,"detalhe":"water_tower","osm_id":"node/11963945734"},"geometry":{"type":"Point","coordinates":[-51.9342794,-29.4977644]}},{"type":"Feature","properties":{"nome":null,"detalhe":"water_tower","osm_id":"node/11963992286"},"geometry":{"type":"Point","coordinates":[-51.9370669,-29.4963228]}},{"type":"Feature","properties":{"nome":null,"detalhe":"water_tower","osm_id":"node/11980361067"},"geometry":{"type":"Point","coordinates":[-51.9480097,-29.4866106]}},{"type":"Feature","properties":{"nome":null,"detalhe":"water_tower","osm_id":"node/12433792840"},"geometry":{"type":"Point","coordinates":[-51.9974408,-29.4596467]}},{"type":"Feature","properties":{"nome":"Corsan","detalhe":"water_works","osm_id":"way/231739751"},"geometry":{"type":"Point","coordinates":[-51.9573654,-29.4614483]}},{"type":"Feature","properties":{"nome":null,"detalhe":"storage_tank","osm_id":"way/576508325"},"geometry":{"type":"Point","coordinates":[-51.9597386,-29.4073913]}},{"type":"Feature","properties":{"nome":null,"detalhe":"storage_tank","osm_id":"way/576508328"},"geometry":{"type":"Point","coordinates":[-51.9596985,-29.4067842]}},{"type":"Feature","properties":{"nome":null,"detalhe":"storage_tank","osm_id":"way/576508331"},"geometry":{"type":"Point","coordinates":[-51.9598118,-29.406919]}},{"type":"Feature","properties":{"nome":null,"detalhe":"storage_tank","osm_id":"way/576508334"},"geometry":{"type":"Point","coordinates":[-51.9596791,-29.4070077]}},{"type":"Feature","properties":{"nome":null,"detalhe":"storage_tank","osm_id":"way/576508338"},"geometry":{"type":"Point","coordinates":[-51.959672,-29.4075817]}},{"type":"Feature","properties":{"nome":null,"detalhe":"storage_tank","osm_id":"way/576508368"},"geometry":{"type":"Point","coordinates":[-51.957823,-29.4067864]}},{"type":"Feature","properties":{"nome":null,"detalhe":"water_tower","osm_id":"way/1290410632"},"geometry":{"type":"Point","coordinates":[-51.9440383,-29.4947928]}},{"type":"Feature","properties":{"nome":null,"detalhe":"storage_tank","osm_id":"way/1292332868"},"geometry":{"type":"Point","coordinates":[-51.9495824,-29.4965172]}},{"type":"Feature","properties":{"nome":null,"detalhe":"storage_tank","osm_id":"way/1292408338"},"geometry":{"type":"Point","coordinates":[-51.9525427,-29.4822585]}},{"type":"Feature","properties":{"nome":null,"detalhe":"storage_tank","osm_id":"way/1292408339"},"geometry":{"type":"Point","coordinates":[-51.9525768,-29.4822491]}},{"type":"Feature","properties":{"nome":null,"detalhe":"storage_tank","osm_id":"way/1292408340"},"geometry":{"type":"Point","coordinates":[-51.9526106,-29.4822396]}},{"type":"Feature","properties":{"nome":null,"detalhe":"storage_tank","osm_id":"way/1292563175"},"geometry":{"type":"Point","coordinates":[-51.9515428,-29.4977495]}},{"type":"Feature","properties":{"nome":null,"detalhe":"storage_tank","osm_id":"way/1292563176"},"geometry":{"type":"Point","coordinates":[-51.9515311,-29.4977198]}},{"type":"Feature","properties":{"nome":null,"detalhe":"storage_tank","osm_id":"way/1292563177"},"geometry":{"type":"Point","coordinates":[-51.9515188,-29.4976913]}}]}