{"type":"FeatureCollection","features":[{"type":"Feature","properties":{"nome":null,"detalhe":"tower","osm_id":"node/7429992725"},"geometry":{"type":"Point","coordinates":[-51.9839444,-29.4814167]}},{"type":"Feature","properties":{"nome":null,"detalhe":"tower","osm_id":"node/7430031922"},"geometry":{"type":"Point","coordinates":[-51.9681707,-29.4525055]}},{"type":"Feature","properties":{"nome":null,"detalhe":"tower","osm_id":"node/7430033429"},"geometry":{"type":"Point","coordinates":[-51.9853981,-29.4557444]}},{"type":"Feature","properties":{"nome":null,"detalhe":"tower","osm_id":"node/7430033451"},"geometry":{"type":"Point","coordinates":[-51.968215,-29.4484523]}},{"type":"Feature","properties":{"nome":null,"detalhe":"tower","osm_id":"node/7430033543"},"geometry":{"type":"Point","coordinates":[-51.9647092,-29.4663354]}},{"type":"Feature","properties":{"nome":null,"detalhe":"tower","osm_id":"node/7430034196"},"geometry":{"type":"Point","coordinates":[-52.0107531,-29.4357082]}},{"type":"Feature","properties":{"nome":null,"detalhe":"tower","osm_id":"node/7430034197"},"geometry":{"type":"Point","coordinates":[-52.0103391,-29.4368386]}},{"type":"Feature","properties":{"nome":null,"detalhe":"tower","osm_id":"node/7430045313"},"geometry":{"type":"Point","coordinates":[-51.9503333,-29.4875]}},{"type":"Feature","properties":{"nome":null,"detalhe":"tower","osm_id":"node/7430048815"},"geometry":{"type":"Point","coordinates":[-51.9581536,-29.4402968]}},{"type":"Feature","properties":{"nome":null,"detalhe":"tower","osm_id":"node/10644488561"},"geometry":{"type":"Point","coordinates":[-51.9886592,-29.4505802]}},{"type":"Feature","properties":{"nome":null,"detalhe":"tower","osm_id":"node/11895498299"},"geometry":{"type":"Point","coordinates":[-52.0060406,-29.4932254]}}]}