{"type": "FeatureCollection", "features": [{"type": "Feature", "geometry": {"type": "Polygon", "coordinates": [[[-51.15977408283406, -30.236483979707383], [-51.15896559907836, -30.23675347429262], [-51.15977408283406, -30.237022968877856], [-51.15977408283406, -30.236483979707383]]]}, "properties": {"cultura": "Outras Lavouras Temporárias"}}, {"type": "Feature", "geometry": {"type": "Polygon", "coordinates": [[[-51.15896559907836, -30.236214485122147], [-51.15950458824883, -30.23594499053691], [-51.15896559907836, -30.23594499053691], [-51.15896559907836, -30.236214485122147]]]}, "properties": {"cultura": "Outras Lavouras Temporárias"}}, {"type": "Feature", "geometry": {"type": "Polygon", "coordinates": [[[-51.15680964239647, -30.234597517610734], [-51.158426609907885, -30.23675347429262], [-51.15896559907836, -30.236483979707383], [-51.15788762073741, -30.234328023025498], [-51.15680964239647, -30.234597517610734]]]}, "properties": {"cultura": "Outras Lavouras Temporárias"}}, {"type": "Feature", "geometry": {"type": "Polygon", "coordinates": [[[-51.16166054493072, -30.235675495951675], [-51.161121555760246, -30.23540600136644], [-51.161121555760246, -30.235675495951675], [-51.16166054493072, -30.235675495951675]]]}, "properties": {"cultura": "Outras Lavouras Temporárias"}}, {"type": "Feature", "geometry": {"type": "Polygon", "coordinates": [[[-51.16085206117501, -30.235675495951675], [-51.160582566589774, -30.23540600136644], [-51.160582566589774, -30.235675495951675], [-51.16085206117501, -30.235675495951675]]]}, "properties": {"cultura": "Outras Lavouras Temporárias"}}, {"type": "Feature", "geometry": {"type": "Polygon", "coordinates": [[[-51.16085206117501, -30.23540600136644], [-51.161121555760246, -30.235136506781203], [-51.16085206117501, -30.235136506781203], [-51.16085206117501, -30.23540600136644]]]}, "properties": {"cultura": "Outras Lavouras Temporárias"}}, {"type": "Feature", "geometry": {"type": "Polygon", "coordinates": [[[-51.16166054493072, -30.23486701219597], [-51.161121555760246, -30.235136506781203], [-51.16166054493072, -30.235136506781203], [-51.16166054493072, -30.23486701219597]]]}, "properties": {"cultura": "Outras Lavouras Temporárias"}}, {"type": "Feature", "geometry": {"type": "Polygon", "coordinates": [[[-51.15788762073741, -30.234328023025498], [-51.15815711532265, -30.233789033855025], [-51.15788762073741, -30.233789033855025], [-51.15788762073741, -30.234328023025498]]]}, "properties": {"cultura": "Outras Lavouras Temporárias"}}, {"type": "Feature", "geometry": {"type": "Polygon", "coordinates": [[[-51.158426609907885, -30.233789033855025], [-51.15815711532265, -30.23351953926979], [-51.15815711532265, -30.233789033855025], [-51.158426609907885, -30.233789033855025]]]}, "properties": {"cultura": "Outras Lavouras Temporárias"}}, {"type": "Feature", "geometry": {"type": "Polygon", "coordinates": [[[-51.161121555760246, -30.229746615076486], [-51.1600435774193, -30.227051669224128], [-51.15815711532265, -30.226782174638892], [-51.15815711532265, -30.225973690883187], [-51.15411469654411, -30.227051669224128], [-51.152497729032696, -30.226512680053656], [-51.15276722361793, -30.2275906583946], [-51.14926379400987, -30.22947712049125], [-51.149802783180334, -30.23028560424696], [-51.14845531025416, -30.231902571758376], [-51.148185815668924, -30.230555098832195], [-51.14656884815751, -30.231363582587903], [-51.15168924527699, -30.237561958048328], [-51.15276722361793, -30.237292463463092], [-51.152497729032696, -30.23594499053691], [-51.154653685714585, -30.23675347429262], [-51.156270653225995, -30.236214485122147], [-51.156540147811235, -30.23540600136644], [-51.15573166405552, -30.23486701219597], [-51.15761812615218, -30.233789033855025], [-51.15815711532265, -30.232441560928844], [-51.16085206117501, -30.23351953926979], [-51.160582566589774, -30.23271105551408], [-51.16085206117501, -30.231902571758376], [-51.162199534101184, -30.232980550099317], [-51.16193003951595, -30.23163307717314], [-51.160313072004534, -30.231363582587903], [-51.1600435774193, -30.23028560424696], [-51.15761812615218, -30.23082459341743], [-51.15707913698171, -30.230016109661722], [-51.161121555760246, -30.229746615076486]], [[-51.15573166405552, -30.234597517610734], [-51.15519267488506, -30.234597517610734], [-51.15492318029982, -30.234328023025498], [-51.15573166405552, -30.234597517610734]], [[-51.15492318029982, -30.234328023025498], [-51.154653685714585, -30.23405852844026], [-51.15492318029982, -30.23405852844026], [-51.15492318029982, -30.234328023025498]], [[-51.154653685714585, -30.23405852844026], [-51.154384191129346, -30.233789033855025], [-51.154653685714585, -30.233789033855025], [-51.154653685714585, -30.23405852844026]], [[-51.154384191129346, -30.233789033855025], [-51.15411469654411, -30.23351953926979], [-51.154384191129346, -30.23351953926979], [-51.154384191129346, -30.233789033855025]], [[-51.15411469654411, -30.23351953926979], [-51.15384520195887, -30.233250044684553], [-51.15411469654411, -30.233250044684553], [-51.15411469654411, -30.23351953926979]], [[-51.15357570737364, -30.233250044684553], [-51.15276722361793, -30.23351953926979], [-51.15222823444746, -30.23271105551408], [-51.152497729032696, -30.23271105551408], [-51.152497729032696, -30.232441560928844], [-51.15357570737364, -30.23271105551408], [-51.15384520195887, -30.232980550099317], [-51.15357570737364, -30.233250044684553]], [[-51.15707913698171, -30.230016109661722], [-51.156540147811235, -30.23082459341743], [-51.15761812615218, -30.23163307717314], [-51.15492318029982, -30.232441560928844], [-51.15600115864076, -30.23163307717314], [-51.15492318029982, -30.231094088002667], [-51.15519267488506, -30.230016109661722], [-51.15600115864076, -30.230016109661722], [-51.15573166405552, -30.230555098832195], [-51.15707913698171, -30.230016109661722]], [[-51.15034177235081, -30.23082459341743], [-51.15168924527699, -30.231363582587903], [-51.15168924527699, -30.23163307717314], [-51.15034177235081, -30.23082459341743]], [[-51.15168924527699, -30.23163307717314], [-51.15195873986222, -30.231902571758376], [-51.15168924527699, -30.231902571758376], [-51.15168924527699, -30.23163307717314]], [[-51.15195873986222, -30.231902571758376], [-51.15222823444746, -30.232172066343608], [-51.15195873986222, -30.232172066343608], [-51.15195873986222, -30.231902571758376]], [[-51.15168924527699, -30.23351953926979], [-51.15222823444746, -30.234328023025498], [-51.15168924527699, -30.234328023025498], [-51.15168924527699, -30.23351953926979]]]}, "properties": {"cultura": "Outras Lavouras Temporárias"}}, {"type": "Feature", "geometry": {"type": "Polygon", "coordinates": [[[-51.1705538662435, -30.23163307717314], [-51.170823360828734, -30.23082459341743], [-51.17028437165826, -30.23082459341743], [-51.1705538662435, -30.23163307717314]]]}, "properties": {"cultura": "Outras Lavouras Temporárias"}}, {"type": "Feature", "geometry": {"type": "Polygon", "coordinates": [[[-51.15600115864076, -30.231094088002667], [-51.156540147811235, -30.23082459341743], [-51.15600115864076, -30.23082459341743], [-51.15600115864076, -30.231094088002667]]]}, "properties": {"cultura": "Outras Lavouras Temporárias"}}, {"type": "Feature", "geometry": {"type": "Polygon", "coordinates": [[[-51.15519267488506, -30.23082459341743], [-51.15573166405552, -30.230555098832195], [-51.15519267488506, -30.230555098832195], [-51.15519267488506, -30.23082459341743]]]}, "properties": {"cultura": "Outras Lavouras Temporárias"}}, {"type": "Feature", "geometry": {"type": "Polygon", "coordinates": [[[-51.15384520195887, -30.222739755860356], [-51.154384191129346, -30.224626217957006], [-51.15707913698171, -30.22435672337177], [-51.15680964239647, -30.223009250445592], [-51.15573166405552, -30.223278745030825], [-51.15492318029982, -30.22247026127512], [-51.15384520195887, -30.222739755860356]]]}, "properties": {"cultura": "Outras Lavouras Temporárias"}}, {"type": "Feature", "geometry": {"type": "Polygon", "coordinates": [[[-51.15573166405552, -30.223009250445592], [-51.15600115864076, -30.222739755860356], [-51.15573166405552, -30.222739755860356], [-51.15573166405552, -30.223009250445592]]]}, "properties": {"cultura": "Outras Lavouras Temporárias"}}, {"type": "Feature", "geometry": {"type": "Polygon", "coordinates": [[[-51.15815711532265, -30.220583799178467], [-51.156540147811235, -30.222739755860356], [-51.158426609907885, -30.22166177751941], [-51.15815711532265, -30.220583799178467]]]}, "properties": {"cultura": "Outras Lavouras Temporárias"}}, {"type": "Feature", "geometry": {"type": "Polygon", "coordinates": [[[-51.156270653225995, -30.22112278834894], [-51.15573166405552, -30.221392282934175], [-51.15573166405552, -30.221931272104648], [-51.156540147811235, -30.221931272104648], [-51.156270653225995, -30.22112278834894]]]}, "properties": {"cultura": "Outras Lavouras Temporárias"}}, {"type": "Feature", "geometry": {"type": "Polygon", "coordinates": [[[-51.15761812615218, -30.220044810007998], [-51.156540147811235, -30.219775315422762], [-51.15680964239647, -30.220853293763703], [-51.15707913698171, -30.220853293763703], [-51.15761812615218, -30.220044810007998]]]}, "properties": {"cultura": "Outras Lavouras Temporárias"}}, {"type": "Feature", "geometry": {"type": "Polygon", "coordinates": [[[-51.15600115864076, -30.22112278834894], [-51.15573166405552, -30.22031430459323], [-51.156540147811235, -30.220583799178467], [-51.156540147811235, -30.220044810007998], [-51.15492318029982, -30.218966831667053], [-51.154384191129346, -30.21788885332611], [-51.15276722361793, -30.21788885332611], [-51.15115025610652, -30.218697337081817], [-51.15168924527699, -30.218966831667053], [-51.152497729032696, -30.221392282934175], [-51.15411469654411, -30.220853293763703], [-51.15303671820317, -30.220044810007998], [-51.15384520195887, -30.218966831667053], [-51.154384191129346, -30.218966831667053], [-51.154384191129346, -30.22031430459323], [-51.15600115864076, -30.22112278834894]], [[-51.15195873986222, -30.21842784249658], [-51.15222823444746, -30.218697337081817], [-51.15195873986222, -30.218697337081817], [-51.15195873986222, -30.21842784249658]], [[-51.15303671820317, -30.219775315422762], [-51.15276722361793, -30.219505820837526], [-51.15303671820317, -30.219505820837526], [-51.15303671820317, -30.219775315422762]], [[-51.15384520195887, -30.218966831667053], [-51.1533062127884, -30.21842784249658], [-51.15384520195887, -30.21842784249658], [-51.15384520195887, -30.218966831667053]]]}, "properties": {"cultura": "Outras Lavouras Temporárias"}}, {"type": "Feature", "geometry": {"type": "Polygon", "coordinates": [[[-51.156270653225995, -30.218966831667053], [-51.15680964239647, -30.219505820837526], [-51.156540147811235, -30.218966831667053], [-51.156270653225995, -30.218966831667053]]]}, "properties": {"cultura": "Outras Lavouras Temporárias"}}, {"type": "Feature", "geometry": {"type": "Polygon", "coordinates": [[[-51.15977408283406, -30.21923632625229], [-51.15923509366359, -30.218966831667053], [-51.15923509366359, -30.21923632625229], [-51.15977408283406, -30.21923632625229]]]}, "properties": {"cultura": "Outras Lavouras Temporárias"}}, {"type": "Feature", "geometry": {"type": "Polygon", "coordinates": [[[-51.15977408283406, -30.218966831667053], [-51.160313072004534, -30.218697337081817], [-51.15977408283406, -30.218697337081817], [-51.15977408283406, -30.218966831667053]]]}, "properties": {"cultura": "Outras Lavouras Temporárias"}}, {"type": "Feature", "geometry": {"type": "Polygon", "coordinates": [[[-51.160582566589774, -30.21842784249658], [-51.160313072004534, -30.218697337081817], [-51.160582566589774, -30.218697337081817], [-51.160582566589774, -30.21842784249658]]]}, "properties": {"cultura": "Outras Lavouras Temporárias"}}, {"type": "Feature", "geometry": {"type": "Polygon", "coordinates": [[[-51.15519267488506, -30.218697337081817], [-51.15600115864076, -30.218697337081817], [-51.15600115864076, -30.218966831667053], [-51.156270653225995, -30.218966831667053], [-51.15600115864076, -30.218158347911345], [-51.15519267488506, -30.218158347911345], [-51.15573166405552, -30.217619358740873], [-51.154384191129346, -30.2170803695704], [-51.15519267488506, -30.218697337081817]]]}, "properties": {"cultura": "Outras Lavouras Temporárias"}}, {"type": "Feature", "geometry": {"type": "Polygon", "coordinates": [[[-51.154384191129346, -30.2170803695704], [-51.15411469654411, -30.216810874985168], [-51.15411469654411, -30.2170803695704], [-51.154384191129346, -30.2170803695704]]]}, "properties": {"cultura": "Outras Lavouras Temporárias"}}, {"type": "Feature", "geometry": {"type": "Polygon", "coordinates": [[[-51.154384191129346, -30.21654138039993], [-51.15411469654411, -30.216271885814695], [-51.15411469654411, -30.21654138039993], [-51.154384191129346, -30.21654138039993]]]}, "properties": {"cultura": "Outras Lavouras Temporárias"}}, {"type": "Feature", "geometry": {"type": "Polygon", "coordinates": [[[-51.154384191129346, -30.21600239122946], [-51.15411469654411, -30.214924412888514], [-51.15303671820317, -30.214654918303278], [-51.1533062127884, -30.215463402058987], [-51.154384191129346, -30.21600239122946]]]}, "properties": {"cultura": "Outras Lavouras Temporárias"}}, {"type": "Feature", "geometry": {"type": "Polygon", "coordinates": [[[-51.1991202922785, -30.177464665540732], [-51.20046776520468, -30.17773416012597], [-51.20046776520468, -30.17692567637026], [-51.1991202922785, -30.177464665540732]]]}, "properties": {"cultura": "Outras Lavouras Temporárias"}}, {"type": "Feature", "geometry": {"type": "Polygon", "coordinates": [[[-51.21933238617119, -30.176656181785024], [-51.21879339700072, -30.177195170955496], [-51.21960188075642, -30.177195170955496], [-51.21933238617119, -30.176656181785024]]]}, "properties": {"cultura": "Outras Lavouras Temporárias"}}, {"type": "Feature", "geometry": {"type": "Polygon", "coordinates": [[[-51.20073725978992, -30.17692567637026], [-51.20046776520468, -30.176386687199788], [-51.20046776520468, -30.17692567637026], [-51.20073725978992, -30.17692567637026]]]}, "properties": {"cultura": "Outras Lavouras Temporárias"}}, {"type": "Feature", "geometry": {"type": "Polygon", "coordinates": [[[-51.154653685714585, -30.17288325759172], [-51.15357570737364, -30.172613763006485], [-51.15357570737364, -30.17288325759172], [-51.154653685714585, -30.17288325759172]]]}, "properties": {"cultura": "Outras Lavouras Temporárias"}}, {"type": "Feature", "geometry": {"type": "Polygon", "coordinates": [[[-51.1533062127884, -30.172613763006485], [-51.15357570737364, -30.17234426842125], [-51.1533062127884, -30.17234426842125], [-51.1533062127884, -30.172613763006485]]]}, "properties": {"cultura": "Outras Lavouras Temporárias"}}, {"type": "Feature", "geometry": {"type": "Polygon", "coordinates": [[[-51.222835815779256, -30.166684882131296], [-51.22418328870543, -30.16641538754606], [-51.222835815779256, -30.16641538754606], [-51.222835815779256, -30.166684882131296]]]}, "properties": {"cultura": "Outras Lavouras Temporárias"}}, {"type": "Feature", "geometry": {"type": "Polygon", "coordinates": [[[-51.163008017856896, -29.974804737443367], [-51.16166054493072, -29.97453524285813], [-51.16166054493072, -29.975613221199076], [-51.162469028686424, -29.975613221199076], [-51.163008017856896, -29.974804737443367]]]}, "properties": {"cultura": "Outras Lavouras Temporárias"}}, {"type": "Feature", "geometry": {"type": "Polygon", "coordinates": [[[-51.15357570737364, -30.233250044684553], [-51.15303671820317, -30.232980550099317], [-51.15303671820317, -30.233250044684553], [-51.15357570737364, -30.233250044684553]]]}, "properties": {"cultura": "Outras Lavouras Temporárias"}}, {"type": "Feature", "geometry": {"type": "Polygon", "coordinates": [[[-51.15276722361793, -30.232980550099317], [-51.152497729032696, -30.23271105551408], [-51.152497729032696, -30.232980550099317], [-51.15276722361793, -30.232980550099317]]]}, "properties": {"cultura": "Outras Lavouras Temporárias"}}, {"type": "Feature", "geometry": {"type": "Polygon", "coordinates": [[[-51.146299353572275, -30.23082459341743], [-51.14656884815751, -30.230555098832195], [-51.146299353572275, -30.230555098832195], [-51.146299353572275, -30.23082459341743]]]}, "properties": {"cultura": "Outras Lavouras Temporárias"}}, {"type": "Feature", "geometry": {"type": "Polygon", "coordinates": [[[-51.147916321083684, -30.230016109661722], [-51.14764682649845, -30.22947712049125], [-51.14764682649845, -30.230016109661722], [-51.147916321083684, -30.230016109661722]]]}, "properties": {"cultura": "Outras Lavouras Temporárias"}}, {"type": "Feature", "geometry": {"type": "Polygon", "coordinates": [[[-51.147916321083684, -30.229207625906014], [-51.148185815668924, -30.22947712049125], [-51.148185815668924, -30.229207625906014], [-51.147916321083684, -30.229207625906014]]]}, "properties": {"cultura": "Outras Lavouras Temporárias"}}, {"type": "Feature", "geometry": {"type": "Polygon", "coordinates": [[[-51.146029858987035, -30.22947712049125], [-51.1457603644018, -30.22893813132078], [-51.14468238606086, -30.228668636735545], [-51.14522137523133, -30.229746615076486], [-51.146029858987035, -30.22947712049125]]]}, "properties": {"cultura": "Outras Lavouras Temporárias"}}, {"type": "Feature", "geometry": {"type": "Polygon", "coordinates": [[[-51.14468238606086, -30.228129647565073], [-51.14441289147562, -30.228668636735545], [-51.14468238606086, -30.228668636735545], [-51.14468238606086, -30.228129647565073]]]}, "properties": {"cultura": "Outras Lavouras Temporárias"}}, {"type": "Feature", "geometry": {"type": "Polygon", "coordinates": [[[-51.144143396890385, -30.228129647565073], [-51.14441289147562, -30.227860152979837], [-51.144143396890385, -30.227860152979837], [-51.144143396890385, -30.228129647565073]]]}, "properties": {"cultura": "Outras Lavouras Temporárias"}}, {"type": "Feature", "geometry": {"type": "Polygon", "coordinates": [[[-51.143873902305145, -30.227860152979837], [-51.144143396890385, -30.2275906583946], [-51.143873902305145, -30.2275906583946], [-51.143873902305145, -30.227860152979837]]]}, "properties": {"cultura": "Outras Lavouras Temporárias"}}, {"type": "Feature", "geometry": {"type": "Polygon", "coordinates": [[[-51.15034177235081, -30.227321163809364], [-51.150072277765574, -30.226782174638892], [-51.149802783180334, -30.227321163809364], [-51.15034177235081, -30.227321163809364]]]}, "properties": {"cultura": "Outras Lavouras Temporárias"}}, {"type": "Feature", "geometry": {"type": "Polygon", "coordinates": [[[-51.15088076152128, -30.22516520712748], [-51.150072277765574, -30.22624318546842], [-51.15115025610652, -30.226782174638892], [-51.15088076152128, -30.22516520712748]]]}, "properties": {"cultura": "Outras Lavouras Temporárias"}}, {"type": "Feature", "geometry": {"type": "Polygon", "coordinates": [[[-51.146299353572275, -30.22247026127512], [-51.148185815668924, -30.221392282934175], [-51.148185815668924, -30.220044810007998], [-51.14683834274274, -30.22031430459323], [-51.146299353572275, -30.221931272104648], [-51.14495188064609, -30.22166177751941], [-51.14333491313468, -30.222739755860356], [-51.14468238606086, -30.223817734201297], [-51.14522137523133, -30.22570419629795], [-51.146029858987035, -30.22570419629795], [-51.14710783732798, -30.227860152979837], [-51.14845531025416, -30.228668636735545], [-51.14845531025416, -30.23028560424696], [-51.14926379400987, -30.23028560424696], [-51.1487248048394, -30.230016109661722], [-51.14899429942463, -30.227860152979837], [-51.149802783180334, -30.227321163809364], [-51.1487248048394, -30.226782174638892], [-51.14926379400987, -30.22624318546842], [-51.14710783732798, -30.22570419629795], [-51.146299353572275, -30.223817734201297], [-51.146299353572275, -30.22247026127512]], [[-51.14656884815751, -30.224626217957006], [-51.146299353572275, -30.224895712542242], [-51.146299353572275, -30.224626217957006], [-51.14656884815751, -30.224626217957006]]]}, "properties": {"cultura": "Outras Lavouras Temporárias"}}, {"type": "Feature", "geometry": {"type": "Polygon", "coordinates": [[[-51.15222823444746, -30.222200766689884], [-51.14845531025416, -30.221931272104648], [-51.14683834274274, -30.224087228786534], [-51.15088076152128, -30.22435672337177], [-51.15195873986222, -30.22570419629795], [-51.15115025610652, -30.226512680053656], [-51.15411469654411, -30.22516520712748], [-51.15303671820317, -30.223278745030825], [-51.15303671820317, -30.222739755860356], [-51.15384520195887, -30.222739755860356], [-51.15384520195887, -30.22247026127512], [-51.15303671820317, -30.22247026127512], [-51.15303671820317, -30.22166177751941], [-51.15222823444746, -30.221392282934175], [-51.15222823444746, -30.222200766689884]]]}, "properties": {"cultura": "Outras Lavouras Temporárias"}}, {"type": "Feature", "geometry": {"type": "Polygon", "coordinates": [[[-51.15303671820317, -30.22166177751941], [-51.1533062127884, -30.221392282934175], [-51.15303671820317, -30.221392282934175], [-51.15303671820317, -30.22166177751941]]]}, "properties": {"cultura": "Outras Lavouras Temporárias"}}, {"type": "Feature", "geometry": {"type": "Polygon", "coordinates": [[[-51.15115025610652, -30.221931272104648], [-51.15168924527699, -30.220853293763703], [-51.15115025610652, -30.220853293763703], [-51.15115025610652, -30.221931272104648]]]}, "properties": {"cultura": "Outras Lavouras Temporárias"}}, {"type": "Feature", "geometry": {"type": "Polygon", "coordinates": [[[-51.15195873986222, -30.22112278834894], [-51.15222823444746, -30.220853293763703], [-51.15195873986222, -30.220853293763703], [-51.15195873986222, -30.22112278834894]]]}, "properties": {"cultura": "Outras Lavouras Temporárias"}}, {"type": "Feature", "geometry": {"type": "Polygon", "coordinates": [[[-51.146299353572275, -30.22112278834894], [-51.146029858987035, -30.220853293763703], [-51.146029858987035, -30.22112278834894], [-51.146299353572275, -30.22112278834894]]]}, "properties": {"cultura": "Outras Lavouras Temporárias"}}, {"type": "Feature", "geometry": {"type": "Polygon", "coordinates": [[[-51.15195873986222, -30.220583799178467], [-51.15168924527699, -30.22031430459323], [-51.15168924527699, -30.220583799178467], [-51.15195873986222, -30.220583799178467]]]}, "properties": {"cultura": "Outras Lavouras Temporárias"}}, {"type": "Feature", "geometry": {"type": "Polygon", "coordinates": [[[-51.15115025610652, -30.218966831667053], [-51.14845531025416, -30.22031430459323], [-51.15034177235081, -30.220853293763703], [-51.15115025610652, -30.219505820837526], [-51.15115025610652, -30.218966831667053]]]}, "properties": {"cultura": "Outras Lavouras Temporárias"}}, {"type": "Feature", "geometry": {"type": "Polygon", "coordinates": [[[-51.15168924527699, -30.220044810007998], [-51.15115025610652, -30.219505820837526], [-51.15115025610652, -30.220044810007998], [-51.15168924527699, -30.220044810007998]]]}, "properties": {"cultura": "Outras Lavouras Temporárias"}}, {"type": "Feature", "geometry": {"type": "Polygon", "coordinates": [[[-51.150611266936046, -30.218966831667053], [-51.15088076152128, -30.21842784249658], [-51.150611266936046, -30.21842784249658], [-51.150611266936046, -30.218966831667053]]]}, "properties": {"cultura": "Outras Lavouras Temporárias"}}, {"type": "Feature", "geometry": {"type": "Polygon", "coordinates": [[[-51.15088076152128, -30.21842784249658], [-51.15141975069175, -30.21788885332611], [-51.15088076152128, -30.21788885332611], [-51.15088076152128, -30.21842784249658]]]}, "properties": {"cultura": "Outras Lavouras Temporárias"}}, {"type": "Feature", "geometry": {"type": "Polygon", "coordinates": [[[-51.150611266936046, -30.21788885332611], [-51.15088076152128, -30.217619358740873], [-51.150611266936046, -30.217619358740873], [-51.150611266936046, -30.21788885332611]]]}, "properties": {"cultura": "Outras Lavouras Temporárias"}}, {"type": "Feature", "geometry": {"type": "Polygon", "coordinates": [[[-51.15276722361793, -30.21788885332611], [-51.15222823444746, -30.217349864155636], [-51.15195873986222, -30.21788885332611], [-51.15276722361793, -30.21788885332611]]]}, "properties": {"cultura": "Outras Lavouras Temporárias"}}, {"type": "Feature", "geometry": {"type": "Polygon", "coordinates": [[[-51.148185815668924, -30.217619358740873], [-51.14683834274274, -30.217349864155636], [-51.14683834274274, -30.217619358740873], [-51.148185815668924, -30.217619358740873]]]}, "properties": {"cultura": "Outras Lavouras Temporárias"}}, {"type": "Feature", "geometry": {"type": "Polygon", "coordinates": [[[-51.146299353572275, -30.2170803695704], [-51.14522137523133, -30.2170803695704], [-51.14468238606086, -30.216810874985168], [-51.146029858987035, -30.217619358740873], [-51.146299353572275, -30.2170803695704]]]}, "properties": {"cultura": "Outras Lavouras Temporárias"}}, {"type": "Feature", "geometry": {"type": "Polygon", "coordinates": [[[-51.14441289147562, -30.216810874985168], [-51.14468238606086, -30.216271885814695], [-51.14441289147562, -30.216271885814695], [-51.14441289147562, -30.216810874985168]]]}, "properties": {"cultura": "Outras Lavouras Temporárias"}}, {"type": "Feature", "geometry": {"type": "Polygon", "coordinates": [[[-51.149802783180334, -30.215463402058987], [-51.150072277765574, -30.214115929132806], [-51.14899429942463, -30.215463402058987], [-51.149802783180334, -30.215463402058987]]]}, "properties": {"cultura": "Outras Lavouras Temporárias"}}, {"type": "Feature", "geometry": {"type": "Polygon", "coordinates": [[[-51.150072277765574, -30.214115929132806], [-51.150611266936046, -30.213576939962337], [-51.15034177235081, -30.213037950791865], [-51.150072277765574, -30.213037950791865], [-51.150072277765574, -30.214115929132806]]]}, "properties": {"cultura": "Outras Lavouras Temporárias"}}, {"type": "Feature", "geometry": {"type": "Polygon", "coordinates": [[[-51.14683834274274, -30.12949462936875], [-51.148185815668924, -30.130303113124455], [-51.14926379400987, -30.12814715644257], [-51.14764682649845, -30.12868614561304], [-51.14764682649845, -30.12949462936875], [-51.14683834274274, -30.12949462936875]]]}, "properties": {"cultura": "Outras Lavouras Temporárias"}}, {"type": "Feature", "geometry": {"type": "Polygon", "coordinates": [[[-51.148185815668924, -30.127877661857333], [-51.1487248048394, -30.12814715644257], [-51.1487248048394, -30.127877661857333], [-51.148185815668924, -30.127877661857333]]]}, "properties": {"cultura": "Outras Lavouras Temporárias"}}, {"type": "Feature", "geometry": {"type": "Polygon", "coordinates": [[[-51.149802783180334, -30.12814715644257], [-51.1495332885951, -30.127877661857333], [-51.14926379400987, -30.12814715644257], [-51.149802783180334, -30.12814715644257]]]}, "properties": {"cultura": "Outras Lavouras Temporárias"}}, {"type": "Feature", "geometry": {"type": "Polygon", "coordinates": [[[-51.14899429942463, -29.966719899886293], [-51.15168924527699, -29.96725888905676], [-51.15222823444746, -29.966450405301057], [-51.149802783180334, -29.96564192154535], [-51.150072277765574, -29.96618091071582], [-51.14899429942463, -29.966719899886293]]]}, "properties": {"cultura": "Outras Lavouras Temporárias"}}, {"type": "Feature", "geometry": {"type": "Polygon", "coordinates": [[[-51.1495332885951, -29.96564192154535], [-51.149802783180334, -29.965372426960112], [-51.1495332885951, -29.965372426960112], [-51.1495332885951, -29.96564192154535]]]}, "properties": {"cultura": "Outras Lavouras Temporárias"}}, {"type": "Feature", "geometry": {"type": "Polygon", "coordinates": [[[-51.143873902305145, -30.256157084429603], [-51.144143396890385, -30.254809611503422], [-51.14360440771991, -30.254540116918186], [-51.143873902305145, -30.256157084429603]]]}, "properties": {"cultura": "Outras Lavouras Temporárias"}}, {"type": "Feature", "geometry": {"type": "Polygon", "coordinates": [[[-51.13848401060043, -30.25103668731012], [-51.13875350518567, -30.250767192724883], [-51.13848401060043, -30.250767192724883], [-51.13848401060043, -30.25103668731012]]]}, "properties": {"cultura": "Outras Lavouras Temporárias"}}, {"type": "Feature", "geometry": {"type": "Polygon", "coordinates": [[[-51.13875350518567, -30.25103668731012], [-51.13983148352661, -30.251306181895355], [-51.140370472697086, -30.250497698139647], [-51.1390229997709, -30.249958708969178], [-51.13875350518567, -30.25103668731012]]]}, "properties": {"cultura": "Outras Lavouras Temporárias"}}, {"type": "Feature", "geometry": {"type": "Polygon", "coordinates": [[[-51.14306541854944, -30.25022820355441], [-51.14279592396421, -30.249958708969178], [-51.14279592396421, -30.25022820355441], [-51.14306541854944, -30.25022820355441]]]}, "properties": {"cultura": "Outras Lavouras Temporárias"}}, {"type": "Feature", "geometry": {"type": "Polygon", "coordinates": [[[-51.13848401060043, -30.25022820355441], [-51.138214516015196, -30.249958708969178], [-51.138214516015196, -30.25022820355441], [-51.13848401060043, -30.25022820355441]]]}, "properties": {"cultura": "Outras Lavouras Temporárias"}}, {"type": "Feature", "geometry": {"type": "Polygon", "coordinates": [[[-51.13875350518567, -30.249958708969178], [-51.1390229997709, -30.24915022521347], [-51.13848401060043, -30.24915022521347], [-51.138214516015196, -30.24968921438394], [-51.13875350518567, -30.249958708969178]]]}, "properties": {"cultura": "Outras Lavouras Temporárias"}}, {"type": "Feature", "geometry": {"type": "Polygon", "coordinates": [[[-51.14063996728232, -30.247263763116816], [-51.141987440208496, -30.250497698139647], [-51.14279592396421, -30.250497698139647], [-51.142256934793735, -30.246994268531584], [-51.14063996728232, -30.247263763116816]]]}, "properties": {"cultura": "Outras Lavouras Temporárias"}}, {"type": "Feature", "geometry": {"type": "Polygon", "coordinates": [[[-51.13848401060043, -30.248880730628233], [-51.13875350518567, -30.248611236042997], [-51.13848401060043, -30.248611236042997], [-51.13848401060043, -30.248880730628233]]]}, "properties": {"cultura": "Outras Lavouras Temporárias"}}, {"type": "Feature", "geometry": {"type": "Polygon", "coordinates": [[[-51.13983148352661, -30.248072246872525], [-51.140370472697086, -30.24834174145776], [-51.140370472697086, -30.248072246872525], [-51.13983148352661, -30.248072246872525]]]}, "properties": {"cultura": "Outras Lavouras Temporárias"}}, {"type": "Feature", "geometry": {"type": "Polygon", "coordinates": [[[-51.140370472697086, -30.24780275228729], [-51.14063996728232, -30.248072246872525], [-51.14063996728232, -30.24780275228729], [-51.140370472697086, -30.24780275228729]]]}, "properties": {"cultura": "Outras Lavouras Temporárias"}}, {"type": "Feature", "geometry": {"type": "Polygon", "coordinates": [[[-51.14252642937897, -30.22624318546842], [-51.14306541854944, -30.225973690883187], [-51.14252642937897, -30.22570419629795], [-51.14252642937897, -30.22624318546842]]]}, "properties": {"cultura": "Outras Lavouras Temporárias"}}, {"type": "Feature", "geometry": {"type": "Polygon", "coordinates": [[[-51.14333491313468, -30.225973690883187], [-51.14306541854944, -30.22570419629795], [-51.14306541854944, -30.225973690883187], [-51.14333491313468, -30.225973690883187]]]}, "properties": {"cultura": "Outras Lavouras Temporárias"}}, {"type": "Feature", "geometry": {"type": "Polygon", "coordinates": [[[-51.142256934793735, -30.22570419629795], [-51.143873902305145, -30.22516520712748], [-51.143873902305145, -30.224895712542242], [-51.142256934793735, -30.224895712542242], [-51.14171794562326, -30.224087228786534], [-51.14171794562326, -30.22516520712748], [-51.142256934793735, -30.22570419629795]]]}, "properties": {"cultura": "Outras Lavouras Temporárias"}}, {"type": "Feature", "geometry": {"type": "Polygon", "coordinates": [[[-51.14171794562326, -30.224087228786534], [-51.14117895645279, -30.223817734201297], [-51.14117895645279, -30.224087228786534], [-51.14171794562326, -30.224087228786534]]]}, "properties": {"cultura": "Outras Lavouras Temporárias"}}, {"type": "Feature", "geometry": {"type": "Polygon", "coordinates": [[[-51.14117895645279, -30.223817734201297], [-51.14090946186755, -30.22354823961606], [-51.14090946186755, -30.223817734201297], [-51.14117895645279, -30.223817734201297]]]}, "properties": {"cultura": "Outras Lavouras Temporárias"}}, {"type": "Feature", "geometry": {"type": "Polygon", "coordinates": [[[-51.14090946186755, -30.223278745030825], [-51.14063996728232, -30.223009250445592], [-51.14063996728232, -30.223278745030825], [-51.14090946186755, -30.223278745030825]]]}, "properties": {"cultura": "Outras Lavouras Temporárias"}}, {"type": "Feature", "geometry": {"type": "Polygon", "coordinates": [[[-51.14063996728232, -30.223009250445592], [-51.140370472697086, -30.222739755860356], [-51.140370472697086, -30.223009250445592], [-51.14063996728232, -30.223009250445592]]]}, "properties": {"cultura": "Outras Lavouras Temporárias"}}, {"type": "Feature", "geometry": {"type": "Polygon", "coordinates": [[[-51.140100978111846, -30.222200766689884], [-51.140370472697086, -30.222739755860356], [-51.140370472697086, -30.222200766689884], [-51.140100978111846, -30.222200766689884]]]}, "properties": {"cultura": "Outras Lavouras Temporárias"}}, {"type": "Feature", "geometry": {"type": "Polygon", "coordinates": [[[-51.140100978111846, -30.222200766689884], [-51.140100978111846, -30.221931272104648], [-51.13983148352661, -30.221931272104648], [-51.13983148352661, -30.222200766689884], [-51.140100978111846, -30.222200766689884]]]}, "properties": {"cultura": "Outras Lavouras Temporárias"}}, {"type": "Feature", "geometry": {"type": "Polygon", "coordinates": [[[-51.14333491313468, -30.221392282934175], [-51.14306541854944, -30.221931272104648], [-51.14333491313468, -30.221931272104648], [-51.14333491313468, -30.221392282934175]]]}, "properties": {"cultura": "Outras Lavouras Temporárias"}}, {"type": "Feature", "geometry": {"type": "Polygon", "coordinates": [[[-51.14279592396421, -30.220853293763703], [-51.142256934793735, -30.221392282934175], [-51.14279592396421, -30.221392282934175], [-51.14279592396421, -30.220853293763703]]]}, "properties": {"cultura": "Outras Lavouras Temporárias"}}, {"type": "Feature", "geometry": {"type": "Polygon", "coordinates": [[[-51.14090946186755, -30.22112278834894], [-51.14252642937897, -30.220853293763703], [-51.142256934793735, -30.219775315422762], [-51.14144845103802, -30.219775315422762], [-51.14090946186755, -30.22112278834894]]]}, "properties": {"cultura": "Outras Lavouras Temporárias"}}, {"type": "Feature", "geometry": {"type": "Polygon", "coordinates": [[[-51.142256934793735, -30.219505820837526], [-51.14252642937897, -30.21923632625229], [-51.142256934793735, -30.21923632625229], [-51.142256934793735, -30.219505820837526]]]}, "properties": {"cultura": "Outras Lavouras Temporárias"}}, {"type": "Feature", "geometry": {"type": "Polygon", "coordinates": [[[-51.14306541854944, -30.218158347911345], [-51.14117895645279, -30.219505820837526], [-51.142256934793735, -30.21923632625229], [-51.14306541854944, -30.218158347911345]]]}, "properties": {"cultura": "Outras Lavouras Temporárias"}}, {"type": "Feature", "geometry": {"type": "Polygon", "coordinates": [[[-51.144143396890385, -30.218158347911345], [-51.143873902305145, -30.217349864155636], [-51.14306541854944, -30.218158347911345], [-51.144143396890385, -30.218158347911345]]]}, "properties": {"cultura": "Outras Lavouras Temporárias"}}, {"type": "Feature", "geometry": {"type": "Polygon", "coordinates": [[[-51.140370472697086, -30.2170803695704], [-51.140100978111846, -30.216810874985168], [-51.140100978111846, -30.2170803695704], [-51.140370472697086, -30.2170803695704]]]}, "properties": {"cultura": "Outras Lavouras Temporárias"}}, {"type": "Feature", "geometry": {"type": "Polygon", "coordinates": [[[-51.13929249435614, -30.2170803695704], [-51.13983148352661, -30.216810874985168], [-51.13929249435614, -30.216810874985168], [-51.13929249435614, -30.2170803695704]]]}, "properties": {"cultura": "Outras Lavouras Temporárias"}}, {"type": "Feature", "geometry": {"type": "Polygon", "coordinates": [[[-51.140100978111846, -30.21654138039993], [-51.13983148352661, -30.216810874985168], [-51.140100978111846, -30.216810874985168], [-51.140100978111846, -30.21654138039993]]]}, "properties": {"cultura": "Outras Lavouras Temporárias"}}, {"type": "Feature", "geometry": {"type": "Polygon", "coordinates": [[[-51.13929249435614, -30.216271885814695], [-51.1390229997709, -30.216810874985168], [-51.13929249435614, -30.216810874985168], [-51.13929249435614, -30.216271885814695]]]}, "properties": {"cultura": "Outras Lavouras Temporárias"}}, {"type": "Feature", "geometry": {"type": "Polygon", "coordinates": [[[-51.14441289147562, -30.215732896644223], [-51.14333491313468, -30.216271885814695], [-51.14441289147562, -30.216271885814695], [-51.14441289147562, -30.215732896644223]]]}, "properties": {"cultura": "Outras Lavouras Temporárias"}}, {"type": "Feature", "geometry": {"type": "Polygon", "coordinates": [[[-51.14090946186755, -30.215732896644223], [-51.140370472697086, -30.214924412888514], [-51.140100978111846, -30.215463402058987], [-51.14090946186755, -30.215732896644223]]]}, "properties": {"cultura": "Outras Lavouras Temporárias"}}, {"type": "Feature", "geometry": {"type": "Polygon", "coordinates": [[[-51.14090946186755, -29.965372426960112], [-51.14117895645279, -29.964563943204404], [-51.140370472697086, -29.964294448619167], [-51.140100978111846, -29.965102932374876], [-51.14090946186755, -29.965372426960112]]]}, "properties": {"cultura": "Outras Lavouras Temporárias"}}, {"type": "Feature", "geometry": {"type": "Polygon", "coordinates": [[[-51.140370472697086, -29.9637554594487], [-51.14144845103802, -29.9637554594487], [-51.14144845103802, -29.96213849193728], [-51.14063996728232, -29.962677481107754], [-51.140370472697086, -29.9637554594487]]]}, "properties": {"cultura": "Outras Lavouras Temporárias"}}, {"type": "Feature", "geometry": {"type": "Polygon", "coordinates": [[[-51.14117895645279, -29.95890455691445], [-51.14063996728232, -29.95836556774398], [-51.13983148352661, -29.95836556774398], [-51.14063996728232, -29.959174051499687], [-51.14117895645279, -29.95890455691445]]]}, "properties": {"cultura": "Outras Lavouras Temporárias"}}, {"type": "Feature", "geometry": {"type": "Polygon", "coordinates": [[[-51.137675526844724, -30.249958708969178], [-51.13659754850378, -30.25022820355441], [-51.13659754850378, -30.250497698139647], [-51.13713653767425, -30.250767192724883], [-51.137675526844724, -30.249958708969178]]]}, "properties": {"cultura": "Outras Lavouras Temporárias"}}, {"type": "Feature", "geometry": {"type": "Polygon", "coordinates": [[[-51.13659754850378, -30.25022820355441], [-51.13632805391855, -30.24968921438394], [-51.13632805391855, -30.25022820355441], [-51.13659754850378, -30.25022820355441]]]}, "properties": {"cultura": "Outras Lavouras Temporárias"}}, {"type": "Feature", "geometry": {"type": "Polygon", "coordinates": [[[-51.138214516015196, -30.249958708969178], [-51.13794502142996, -30.24968921438394], [-51.13794502142996, -30.249958708969178], [-51.138214516015196, -30.249958708969178]]]}, "properties": {"cultura": "Outras Lavouras Temporárias"}}, {"type": "Feature", "geometry": {"type": "Polygon", "coordinates": [[[-51.137675526844724, -30.24780275228729], [-51.135789064748074, -30.249419719798706], [-51.13848401060043, -30.248072246872525], [-51.137675526844724, -30.24780275228729]]]}, "properties": {"cultura": "Outras Lavouras Temporárias"}}, {"type": "Feature", "geometry": {"type": "Polygon", "coordinates": [[[-51.13632805391855, -30.24834174145776], [-51.13659754850378, -30.248072246872525], [-51.13632805391855, -30.248072246872525], [-51.13632805391855, -30.24834174145776]]]}, "properties": {"cultura": "Outras Lavouras Temporárias"}}, {"type": "Feature", "geometry": {"type": "Polygon", "coordinates": [[[-51.13794502142996, -30.247263763116816], [-51.137675526844724, -30.247533257702052], [-51.13794502142996, -30.247533257702052], [-51.13794502142996, -30.247263763116816]]]}, "properties": {"cultura": "Outras Lavouras Temporárias"}}, {"type": "Feature", "geometry": {"type": "Polygon", "coordinates": [[[-51.13605855933331, -30.24780275228729], [-51.137675526844724, -30.24780275228729], [-51.13713653767425, -30.247533257702052], [-51.137675526844724, -30.246724773946347], [-51.13605855933331, -30.246724773946347], [-51.13605855933331, -30.24780275228729]]]}, "properties": {"cultura": "Outras Lavouras Temporárias"}}, {"type": "Feature", "geometry": {"type": "Polygon", "coordinates": [[[-51.1352500755776, -30.235675495951675], [-51.13605855933331, -30.236214485122147], [-51.13605855933331, -30.23594499053691], [-51.1352500755776, -30.235675495951675]]]}, "properties": {"cultura": "Outras Lavouras Temporárias"}}, {"type": "Feature", "geometry": {"type": "Polygon", "coordinates": [[[-51.13605855933331, -30.223009250445592], [-51.13632805391855, -30.222200766689884], [-51.1352500755776, -30.221931272104648], [-51.13605855933331, -30.223009250445592]]]}, "properties": {"cultura": "Outras Lavouras Temporárias"}}, {"type": "Feature", "geometry": {"type": "Polygon", "coordinates": [[[-51.12662624885005, -30.216271885814695], [-51.12635675426482, -30.215732896644223], [-51.12608725967958, -30.216271885814695], [-51.12662624885005, -30.216271885814695]]]}, "properties": {"cultura": "Outras Lavouras Temporárias"}}, {"type": "Feature", "geometry": {"type": "Polygon", "coordinates": [[[-51.13093816221383, -30.214385423718042], [-51.13039917304336, -30.214115929132806], [-51.13093816221383, -30.214924412888514], [-51.13093816221383, -30.214385423718042]]]}, "properties": {"cultura": "Outras Lavouras Temporárias"}}, {"type": "Feature", "geometry": {"type": "Polygon", "coordinates": [[[-51.13012967845812, -30.203336145723373], [-51.129051700117174, -30.202527661967665], [-51.129051700117174, -30.20360564030861], [-51.13012967845812, -30.203336145723373]]]}, "properties": {"cultura": "Outras Lavouras Temporárias"}}, {"type": "Feature", "geometry": {"type": "Polygon", "coordinates": [[[-51.12635675426482, -30.20037170528578], [-51.125548270509114, -30.199832716115306], [-51.125548270509114, -30.200641199871015], [-51.12635675426482, -30.20037170528578]]]}, "properties": {"cultura": "Outras Lavouras Temporárias"}}, {"type": "Feature", "geometry": {"type": "Polygon", "coordinates": [[[-51.12932119470241, -30.191478383972996], [-51.12851271094671, -30.192017373143468], [-51.12932119470241, -30.192017373143468], [-51.12932119470241, -30.191478383972996]]]}, "properties": {"cultura": "Outras Lavouras Temporárias"}}, {"type": "Feature", "geometry": {"type": "Polygon", "coordinates": [[[-51.129590689287646, -30.190669900217287], [-51.12932119470241, -30.191478383972996], [-51.129590689287646, -30.191478383972996], [-51.129590689287646, -30.190669900217287]]]}, "properties": {"cultura": "Outras Lavouras Temporárias"}}, {"type": "Feature", "geometry": {"type": "Polygon", "coordinates": [[[-51.13012967845812, -30.190130911046815], [-51.129590689287646, -30.190669900217287], [-51.13039917304336, -30.190669900217287], [-51.13012967845812, -30.190130911046815]]]}, "properties": {"cultura": "Outras Lavouras Temporárias"}}, {"type": "Feature", "geometry": {"type": "Polygon", "coordinates": [[[-51.13039917304336, -30.179620622222618], [-51.13093816221383, -30.180429105978327], [-51.13093816221383, -30.179620622222618], [-51.13039917304336, -30.179620622222618]]]}, "properties": {"cultura": "Outras Lavouras Temporárias"}}, {"type": "Feature", "geometry": {"type": "Polygon", "coordinates": [[[-51.123392313827225, -29.96887585656818], [-51.12231433548628, -29.969145351153415], [-51.12231433548628, -29.971570802420537], [-51.12447029216817, -29.972379286176245], [-51.12420079758293, -29.972918275346714], [-51.12662624885005, -29.97264878076148], [-51.12500928133864, -29.971840297005773], [-51.125548270509114, -29.969145351153415], [-51.12635675426482, -29.96887585656818], [-51.12447029216817, -29.96887585656818], [-51.1239313029977, -29.971031813250065], [-51.123392313827225, -29.971031813250065], [-51.123392313827225, -29.96887585656818]]]}, "properties": {"cultura": "Outras Lavouras Temporárias"}}, {"type": "Feature", "geometry": {"type": "Polygon", "coordinates": [[[-51.129051700117174, -29.972379286176245], [-51.129590689287646, -29.971570802420537], [-51.13471108640713, -29.97210979159101], [-51.13417209723666, -29.969684340323887], [-51.13471108640713, -29.968336867397706], [-51.13282462431048, -29.968606361982943], [-51.13336361348095, -29.969684340323887], [-51.13066866762859, -29.970223329494356], [-51.13066866762859, -29.9713013078353], [-51.129051700117174, -29.9713013078353], [-51.12932119470241, -29.970492824079592], [-51.12851271094671, -29.969684340323887], [-51.129590689287646, -29.96941484573865], [-51.129590689287646, -29.969145351153415], [-51.12851271094671, -29.968606361982943], [-51.12824321636147, -29.971031813250065], [-51.127165238020524, -29.971570802420537], [-51.12689574343529, -29.97264878076148], [-51.129051700117174, -29.972379286176245]], [[-51.127434732605764, -29.971570802420537], [-51.127973721776236, -29.971840297005773], [-51.127434732605764, -29.971840297005773], [-51.127434732605764, -29.971570802420537]], [[-51.13228563514001, -29.971570802420537], [-51.1314771513843, -29.971031813250065], [-51.1314771513843, -29.970492824079592], [-51.13255512972524, -29.971031813250065], [-51.13228563514001, -29.971570802420537]]]}, "properties": {"cultura": "Outras Lavouras Temporárias"}}, {"type": "Feature", "geometry": {"type": "Polygon", "coordinates": [[[-51.11180404666208, -29.96995383490912], [-51.11126505749161, -29.969684340323887], [-51.11126505749161, -29.96995383490912], [-51.11180404666208, -29.96995383490912]]]}, "properties": {"cultura": "Outras Lavouras Temporárias"}}, {"type": "Feature", "geometry": {"type": "Polygon", "coordinates": [[[-51.13012967845812, -29.969684340323887], [-51.129590689287646, -29.96941484573865], [-51.129590689287646, -29.969684340323887], [-51.13012967845812, -29.969684340323887]]]}, "properties": {"cultura": "Outras Lavouras Temporárias"}}, {"type": "Feature", "geometry": {"type": "Polygon", "coordinates": [[[-51.13093816221383, -29.969684340323887], [-51.13066866762859, -29.96941484573865], [-51.13066866762859, -29.969684340323887], [-51.13093816221383, -29.969684340323887]]]}, "properties": {"cultura": "Outras Lavouras Temporárias"}}, {"type": "Feature", "geometry": {"type": "Polygon", "coordinates": [[[-51.13120765679906, -29.96941484573865], [-51.13093816221383, -29.96887585656818], [-51.13093816221383, -29.96941484573865], [-51.13120765679906, -29.96941484573865]]]}, "properties": {"cultura": "Outras Lavouras Temporárias"}}, {"type": "Feature", "geometry": {"type": "Polygon", "coordinates": [[[-51.13066866762859, -29.96941484573865], [-51.13012967845812, -29.968606361982943], [-51.13012967845812, -29.96941484573865], [-51.13066866762859, -29.96941484573865]]]}, "properties": {"cultura": "Outras Lavouras Temporárias"}}, {"type": "Feature", "geometry": {"type": "Polygon", "coordinates": [[[-51.1344415918219, -29.965102932374876], [-51.135789064748074, -29.96483343778964], [-51.1344415918219, -29.96483343778964], [-51.1344415918219, -29.965102932374876]]]}, "properties": {"cultura": "Outras Lavouras Temporárias"}}, {"type": "Feature", "geometry": {"type": "Polygon", "coordinates": [[[-51.129590689287646, -29.964563943204404], [-51.129590689287646, -29.965102932374876], [-51.1314771513843, -29.965102932374876], [-51.13093816221383, -29.964563943204404], [-51.129590689287646, -29.964563943204404]]]}, "properties": {"cultura": "Outras Lavouras Temporárias"}}, {"type": "Feature", "geometry": {"type": "Polygon", "coordinates": [[[-51.13336361348095, -29.961060513596337], [-51.13282462431048, -29.960791019011104], [-51.13282462431048, -29.961060513596337], [-51.13336361348095, -29.961060513596337]]]}, "properties": {"cultura": "Outras Lavouras Temporárias"}}, {"type": "Feature", "geometry": {"type": "Polygon", "coordinates": [[[-51.13282462431048, -29.960521524425868], [-51.13201614055477, -29.960521524425868], [-51.13282462431048, -29.960791019011104], [-51.13282462431048, -29.960521524425868]]]}, "properties": {"cultura": "Outras Lavouras Temporárias"}}, {"type": "Feature", "geometry": {"type": "Polygon", "coordinates": [[[-51.12042787338963, -29.95971304067016], [-51.12015837880439, -29.959174051499687], [-51.12015837880439, -29.95971304067016], [-51.12042787338963, -29.95971304067016]]]}, "properties": {"cultura": "Outras Lavouras Temporárias"}}, {"type": "Feature", "geometry": {"type": "Polygon", "coordinates": [[[-51.11773292753727, -29.959443546084923], [-51.11800242212251, -29.959174051499687], [-51.11773292753727, -29.959174051499687], [-51.11773292753727, -29.959443546084923]]]}, "properties": {"cultura": "Outras Lavouras Temporárias"}}, {"type": "Feature", "geometry": {"type": "Polygon", "coordinates": [[[-51.12015837880439, -29.95890455691445], [-51.11800242212251, -29.959174051499687], [-51.12015837880439, -29.959174051499687], [-51.12015837880439, -29.95890455691445]]]}, "properties": {"cultura": "Outras Lavouras Temporárias"}}, {"type": "Feature", "geometry": {"type": "Polygon", "coordinates": [[[-51.129051700117174, -29.958096073158742], [-51.12851271094671, -29.95782657857351], [-51.12851271094671, -29.958096073158742], [-51.129051700117174, -29.958096073158742]]]}, "properties": {"cultura": "Outras Lavouras Temporárias"}}, {"type": "Feature", "geometry": {"type": "Polygon", "coordinates": [[[-51.12851271094671, -29.957287589403037], [-51.127973721776236, -29.95782657857351], [-51.12851271094671, -29.95782657857351], [-51.12851271094671, -29.957287589403037]]]}, "properties": {"cultura": "Outras Lavouras Temporárias"}}, {"type": "Feature", "geometry": {"type": "Polygon", "coordinates": [[[-51.12447029216817, -29.95782657857351], [-51.12662624885005, -29.95782657857351], [-51.127973721776236, -29.9570180948178], [-51.1247397867534, -29.9570180948178], [-51.12447029216817, -29.95782657857351]]]}, "properties": {"cultura": "Outras Lavouras Temporárias"}}, {"type": "Feature", "geometry": {"type": "Polygon", "coordinates": [[[-51.069762891365286, -30.23863993638927], [-51.069493396780054, -30.2381009472188], [-51.06868491302434, -30.2381009472188], [-51.069762891365286, -30.23863993638927]]]}, "properties": {"cultura": "Outras Lavouras Temporárias"}}, {"type": "Feature", "geometry": {"type": "Polygon", "coordinates": [[[-51.10021577949694, -30.222739755860356], [-51.100485274082175, -30.223278745030825], [-51.10102426325265, -30.223278745030825], [-51.10102426325265, -30.222739755860356], [-51.10021577949694, -30.222739755860356]]]}, "properties": {"cultura": "Outras Lavouras Temporárias"}}, {"type": "Feature", "geometry": {"type": "Polygon", "coordinates": [[[-51.0961733607184, -30.22247026127512], [-51.09698184447411, -30.22166177751941], [-51.0961733607184, -30.221931272104648], [-51.0961733607184, -30.22247026127512]]]}, "properties": {"cultura": "Outras Lavouras Temporárias"}}, {"type": "Feature", "geometry": {"type": "Polygon", "coordinates": [[[-51.06221704297869, -30.220044810007998], [-51.061678053808215, -30.220044810007998], [-51.0608695700525, -30.219505820837526], [-51.061678053808215, -30.220853293763703], [-51.06221704297869, -30.220044810007998]]]}, "properties": {"cultura": "Outras Lavouras Temporárias"}}, {"type": "Feature", "geometry": {"type": "Polygon", "coordinates": [[[-51.07084086970623, -30.21842784249658], [-51.069762891365286, -30.21842784249658], [-51.069762891365286, -30.219505820837526], [-51.07030188053576, -30.219505820837526], [-51.07084086970623, -30.21842784249658]]]}, "properties": {"cultura": "Outras Lavouras Temporárias"}}, {"type": "Feature", "geometry": {"type": "Polygon", "coordinates": [[[-51.03176415484703, -30.211420983280448], [-51.03203364943227, -30.21088199410998], [-51.03176415484703, -30.21088199410998], [-51.03176415484703, -30.211420983280448]]]}, "properties": {"cultura": "Outras Lavouras Temporárias"}}, {"type": "Feature", "geometry": {"type": "Polygon", "coordinates": [[[-51.0743442993143, -30.21115148869521], [-51.07326632097335, -30.210612499524743], [-51.07299682638812, -30.21115148869521], [-51.0743442993143, -30.21115148869521]]]}, "properties": {"cultura": "Outras Lavouras Temporárias"}}, {"type": "Feature", "geometry": {"type": "Polygon", "coordinates": [[[-51.03257263860274, -30.21088199410998], [-51.03203364943227, -30.210612499524743], [-51.03203364943227, -30.21088199410998], [-51.03257263860274, -30.21088199410998]]]}, "properties": {"cultura": "Outras Lavouras Temporárias"}}, {"type": "Feature", "geometry": {"type": "Polygon", "coordinates": [[[-51.03311162777321, -30.210343004939507], [-51.03392011152892, -30.210612499524743], [-51.03392011152892, -30.21007351035427], [-51.03311162777321, -30.210343004939507]]]}, "properties": {"cultura": "Outras Lavouras Temporárias"}}, {"type": "Feature", "geometry": {"type": "Polygon", "coordinates": [[[-51.07326632097335, -30.210612499524743], [-51.07299682638812, -30.21007351035427], [-51.07299682638812, -30.210612499524743], [-51.07326632097335, -30.210612499524743]]]}, "properties": {"cultura": "Outras Lavouras Temporárias"}}, {"type": "Feature", "geometry": {"type": "Polygon", "coordinates": [[[-51.03122516567656, -30.210343004939507], [-51.03095567109133, -30.21007351035427], [-51.03095567109133, -30.210343004939507], [-51.03122516567656, -30.210343004939507]]]}, "properties": {"cultura": "Outras Lavouras Temporárias"}}, {"type": "Feature", "geometry": {"type": "Polygon", "coordinates": [[[-51.03122516567656, -30.209804015769034], [-51.0314946602618, -30.210343004939507], [-51.03203364943227, -30.210343004939507], [-51.03203364943227, -30.209804015769034], [-51.03122516567656, -30.209804015769034]]]}, "properties": {"cultura": "Outras Lavouras Temporárias"}}, {"type": "Feature", "geometry": {"type": "Polygon", "coordinates": [[[-51.09563437154793, -30.21007351035427], [-51.09805982281505, -30.209265026598562], [-51.09563437154793, -30.209804015769034], [-51.09563437154793, -30.21007351035427]]]}, "properties": {"cultura": "Outras Lavouras Temporárias"}}, {"type": "Feature", "geometry": {"type": "Polygon", "coordinates": [[[-51.03203364943227, -30.209804015769034], [-51.032303144017504, -30.209534521183798], [-51.03203364943227, -30.209534521183798], [-51.03203364943227, -30.209804015769034]]]}, "properties": {"cultura": "Outras Lavouras Temporárias"}}, {"type": "Feature", "geometry": {"type": "Polygon", "coordinates": [[[-51.02933870357991, -30.209265026598562], [-51.02906920899468, -30.208456542842853], [-51.02906920899468, -30.209265026598562], [-51.02933870357991, -30.209265026598562]]]}, "properties": {"cultura": "Outras Lavouras Temporárias"}}, {"type": "Feature", "geometry": {"type": "Polygon", "coordinates": [[[-51.02960819816514, -30.20872603742809], [-51.0314946602618, -30.207917553672385], [-51.02933870357991, -30.208187048257617], [-51.02960819816514, -30.20872603742809]]]}, "properties": {"cultura": "Outras Lavouras Temporárias"}}, {"type": "Feature", "geometry": {"type": "Polygon", "coordinates": [[[-51.1096480899802, -30.207917553672385], [-51.1104565737359, -30.20764805908715], [-51.1096480899802, -30.20764805908715], [-51.1096480899802, -30.207917553672385]]]}, "properties": {"cultura": "Outras Lavouras Temporárias"}}, {"type": "Feature", "geometry": {"type": "Polygon", "coordinates": [[[-51.110726068321135, -30.207378564501912], [-51.1104565737359, -30.20764805908715], [-51.110726068321135, -30.20764805908715], [-51.110726068321135, -30.207378564501912]]]}, "properties": {"cultura": "Outras Lavouras Temporárias"}}, {"type": "Feature", "geometry": {"type": "Polygon", "coordinates": [[[-51.065450978001515, -30.20225816738243], [-51.06572047258675, -30.203066651138137], [-51.06625946175722, -30.203066651138137], [-51.06625946175722, -30.20225816738243], [-51.065450978001515, -30.20225816738243]]]}, "properties": {"cultura": "Outras Lavouras Temporárias"}}, {"type": "Feature", "geometry": {"type": "Polygon", "coordinates": [[[-51.098598811985525, -30.190939394802523], [-51.09940729574123, -30.190669900217287], [-51.09940729574123, -30.19040040563205], [-51.098598811985525, -30.19040040563205], [-51.098598811985525, -30.190939394802523]]]}, "properties": {"cultura": "Outras Lavouras Temporárias"}}, {"type": "Feature", "geometry": {"type": "Polygon", "coordinates": [[[-51.09940729574123, -30.190130911046815], [-51.09967679032647, -30.19040040563205], [-51.09967679032647, -30.190130911046815], [-51.09940729574123, -30.190130911046815]]]}, "properties": {"cultura": "Outras Lavouras Temporárias"}}, {"type": "Feature", "geometry": {"type": "Polygon", "coordinates": [[[-51.09509538237746, -30.14296935863054], [-51.09563437154793, -30.143508347801014], [-51.09590386613316, -30.14243036946007], [-51.09509538237746, -30.14296935863054]]]}, "properties": {"cultura": "Outras Lavouras Temporárias"}}, {"type": "Feature", "geometry": {"type": "Polygon", "coordinates": [[[-51.09105296359892, -29.9818115966595], [-51.0894359960875, -29.98235058582997], [-51.09105296359892, -29.98235058582997], [-51.09105296359892, -29.9818115966595]]]}, "properties": {"cultura": "Outras Lavouras Temporárias"}}, {"type": "Feature", "geometry": {"type": "Polygon", "coordinates": [[[-51.089974985257975, -29.98127260748903], [-51.090244479843214, -29.980733618318556], [-51.089974985257975, -29.980733618318556], [-51.089974985257975, -29.98127260748903]]]}, "properties": {"cultura": "Outras Lavouras Temporárias"}}, {"type": "Feature", "geometry": {"type": "Polygon", "coordinates": [[[-51.09105296359892, -29.980733618318556], [-51.09078346901369, -29.981003112903792], [-51.09105296359892, -29.981003112903792], [-51.09105296359892, -29.980733618318556]]]}, "properties": {"cultura": "Outras Lavouras Temporárias"}}, {"type": "Feature", "geometry": {"type": "Polygon", "coordinates": [[[-51.090244479843214, -29.980733618318556], [-51.09078346901369, -29.980194629148084], [-51.090244479843214, -29.980194629148084], [-51.090244479843214, -29.980733618318556]]]}, "properties": {"cultura": "Outras Lavouras Temporárias"}}, {"type": "Feature", "geometry": {"type": "Polygon", "coordinates": [[[-51.094556393206986, -29.977769177880962], [-51.09428689862175, -29.978847156221907], [-51.094825887792226, -29.978847156221907], [-51.094556393206986, -29.977769177880962]]]}, "properties": {"cultura": "Outras Lavouras Temporárias"}}, {"type": "Feature", "geometry": {"type": "Polygon", "coordinates": [[[-51.092400436525104, -29.97723018871049], [-51.09320892028081, -29.977769177880962], [-51.09320892028081, -29.977499683295726], [-51.092400436525104, -29.97723018871049]]]}, "properties": {"cultura": "Outras Lavouras Temporárias"}}, {"type": "Feature", "geometry": {"type": "Polygon", "coordinates": [[[-51.088088523161325, -29.974265748272895], [-51.0886275123318, -29.975074232028604], [-51.0886275123318, -29.974265748272895], [-51.088088523161325, -29.974265748272895]]]}, "properties": {"cultura": "Outras Lavouras Temporárias"}}, {"type": "Feature", "geometry": {"type": "Polygon", "coordinates": [[[-51.11126505749161, -29.970223329494356], [-51.11180404666208, -29.97076231866483], [-51.11153455207685, -29.970223329494356], [-51.11126505749161, -29.970223329494356]]]}, "properties": {"cultura": "Outras Lavouras Temporárias"}}, {"type": "Feature", "geometry": {"type": "Polygon", "coordinates": [[[-51.11126505749161, -29.96995383490912], [-51.110726068321135, -29.970223329494356], [-51.11126505749161, -29.970223329494356], [-51.11126505749161, -29.96995383490912]]]}, "properties": {"cultura": "Outras Lavouras Temporárias"}}, {"type": "Feature", "geometry": {"type": "Polygon", "coordinates": [[[-51.11018707915067, -29.96995383490912], [-51.110726068321135, -29.969684340323887], [-51.11018707915067, -29.969684340323887], [-51.11018707915067, -29.96995383490912]]]}, "properties": {"cultura": "Outras Lavouras Temporárias"}}, {"type": "Feature", "geometry": {"type": "Polygon", "coordinates": [[[-51.24250892050147, -30.187435965194457], [-51.24170043674577, -30.186896976023988], [-51.241161447575294, -30.1885139435354], [-51.23981397464912, -30.1885139435354], [-51.23954448006388, -30.18932242729111], [-51.240891952990054, -30.189861416461582], [-51.24223942591624, -30.189052932705874], [-51.24170043674577, -30.18797495436493], [-51.24385639342765, -30.187705459779693], [-51.243317404257176, -30.186896976023988], [-51.24250892050147, -30.187435965194457]]]}, "properties": {"cultura": "Arroz"}}, {"type": "Feature", "geometry": {"type": "Polygon", "coordinates": [[[-51.24439538259812, -30.18662748143875], [-51.24493437176859, -30.186357986853515], [-51.24439538259812, -30.186357986853515], [-51.24439538259812, -30.18662748143875]]]}, "properties": {"cultura": "Arroz"}}, {"type": "Feature", "geometry": {"type": "Polygon", "coordinates": [[[-51.247359823035715, -30.185549503097807], [-51.24493437176859, -30.18608849226828], [-51.245473360939066, -30.186896976023988], [-51.24709032845048, -30.186896976023988], [-51.247359823035715, -30.185549503097807]]]}, "properties": {"cultura": "Arroz"}}, {"type": "Feature", "geometry": {"type": "Polygon", "coordinates": [[[-51.24493437176859, -30.18339354641592], [-51.24601235010954, -30.1847410193421], [-51.24682083386524, -30.185010513927335], [-51.24493437176859, -30.18339354641592]]]}, "properties": {"cultura": "Arroz"}}, {"type": "Feature", "geometry": {"type": "Polygon", "coordinates": [[[-51.24493437176859, -30.183124051830685], [-51.24466487718336, -30.18339354641592], [-51.24493437176859, -30.18339354641592], [-51.24493437176859, -30.183124051830685]]]}, "properties": {"cultura": "Arroz"}}, {"type": "Feature", "geometry": {"type": "Polygon", "coordinates": [[[-51.24439538259812, -30.183124051830685], [-51.24466487718336, -30.18285455724545], [-51.24439538259812, -30.18285455724545], [-51.24439538259812, -30.183124051830685]]]}, "properties": {"cultura": "Arroz"}}, {"type": "Feature", "geometry": {"type": "Polygon", "coordinates": [[[-51.17998617672675, -30.179620622222618], [-51.1780997146301, -30.179890116807854], [-51.17783022004487, -30.182315568074976], [-51.17594375794822, -30.18204607348974], [-51.175404768777746, -30.183124051830685], [-51.17675224170392, -30.18339354641592], [-51.17756072545963, -30.1847410193421], [-51.179447187556285, -30.184471524756862], [-51.17998617672675, -30.179620622222618]]]}, "properties": {"cultura": "Arroz"}}, {"type": "Feature", "geometry": {"type": "Polygon", "coordinates": [[[-51.14063996728232, -29.963216470278226], [-51.140370472697086, -29.96294697569299], [-51.140370472697086, -29.963216470278226], [-51.14063996728232, -29.963216470278226]]]}, "properties": {"cultura": "Arroz"}}, {"type": "Feature", "geometry": {"type": "Polygon", "coordinates": [[[-51.09779032822982, -29.985045531682328], [-51.098598811985525, -29.985854015438036], [-51.098598811985525, -29.985045531682328], [-51.09779032822982, -29.985045531682328]]]}, "properties": {"cultura": "Arroz"}}, {"type": "Feature", "geometry": {"type": "Polygon", "coordinates": [[[-51.11396000334397, -29.977499683295726], [-51.113151519588264, -29.97723018871049], [-51.113151519588264, -29.977499683295726], [-51.11396000334397, -29.977499683295726]]]}, "properties": {"cultura": "Arroz"}}, {"type": "Feature", "geometry": {"type": "Polygon", "coordinates": [[[-51.1142294979292, -29.97723018871049], [-51.11396000334397, -29.976960694125253], [-51.11396000334397, -29.97723018871049], [-51.1142294979292, -29.97723018871049]]]}, "properties": {"cultura": "Arroz"}}, {"type": "Feature", "geometry": {"type": "Polygon", "coordinates": [[[-51.11234303583255, -29.96887585656818], [-51.113151519588264, -29.969684340323887], [-51.113151519588264, -29.96887585656818], [-51.11234303583255, -29.96887585656818]]]}, "properties": {"cultura": "Arroz"}}, {"type": "Feature", "geometry": {"type": "Polygon", "coordinates": [[[-51.1096480899802, -29.966450405301057], [-51.1104565737359, -29.96725888905676], [-51.1104565737359, -29.965372426960112], [-51.10991758456543, -29.965372426960112], [-51.1096480899802, -29.966450405301057]]]}, "properties": {"cultura": "Arroz"}}, {"type": "Feature", "geometry": {"type": "Polygon", "coordinates": [[[-51.129051700117174, -29.959443546084923], [-51.12689574343529, -29.95971304067016], [-51.127434732605764, -29.958096073158742], [-51.12500928133864, -29.957287589403037], [-51.12420079758293, -29.958096073158742], [-51.125278775923874, -29.95890455691445], [-51.1247397867534, -29.961060513596337], [-51.12258383007152, -29.960791019011104], [-51.12177534631581, -29.961868997352045], [-51.11827191670774, -29.961868997352045], [-51.11692444378156, -29.960791019011104], [-51.11611596002586, -29.96159950276681], [-51.11638545461109, -29.960521524425868], [-51.114768487099674, -29.960521524425868], [-51.11396000334397, -29.96159950276681], [-51.11611596002586, -29.96483343778964], [-51.11692444378156, -29.96483343778964], [-51.11611596002586, -29.962677481107754], [-51.116654949196324, -29.963485964863462], [-51.11988888421916, -29.963216470278226], [-51.12042787338963, -29.9637554594487], [-51.12231433548628, -29.96402495403393], [-51.121505851730575, -29.964563943204404], [-51.11881090587821, -29.9637554594487], [-51.11800242212251, -29.964563943204404], [-51.11800242212251, -29.9637554594487], [-51.117463432952036, -29.9637554594487], [-51.11800242212251, -29.965102932374876], [-51.117193938366796, -29.965372426960112], [-51.11881090587821, -29.967528383641998], [-51.13228563514001, -29.966719899886293], [-51.13713653767425, -29.96725888905676], [-51.13713653767425, -29.966719899886293], [-51.1390229997709, -29.966719899886293], [-51.13929249435614, -29.965911416130584], [-51.139561988941374, -29.966989394471526], [-51.14144845103802, -29.966450405301057], [-51.14117895645279, -29.965372426960112], [-51.140100978111846, -29.965102932374876], [-51.14063996728232, -29.964294448619167], [-51.140100978111846, -29.963216470278226], [-51.14063996728232, -29.961060513596337], [-51.13983148352661, -29.961330008181573], [-51.13848401060043, -29.95971304067016], [-51.13686704308902, -29.961060513596337], [-51.135519570162835, -29.960521524425868], [-51.133633108066185, -29.961868997352045], [-51.13120765679906, -29.96159950276681], [-51.13120765679906, -29.964563943204404], [-51.13794502142996, -29.965102932374876], [-51.127973721776236, -29.965102932374876], [-51.127973721776236, -29.964563943204404], [-51.13093816221383, -29.964563943204404], [-51.13120765679906, -29.959443546084923], [-51.129590689287646, -29.958096073158742], [-51.129051700117174, -29.958096073158742], [-51.129590689287646, -29.958635062329215], [-51.129051700117174, -29.959443546084923]], [[-51.125278775923874, -29.958635062329215], [-51.12635675426482, -29.958635062329215], [-51.12662624885005, -29.959174051499687], [-51.12581776509435, -29.959174051499687], [-51.125278775923874, -29.958635062329215]], [[-51.11611596002586, -29.96159950276681], [-51.11584646544062, -29.961868997352045], [-51.11584646544062, -29.96159950276681], [-51.11611596002586, -29.96159950276681]], [[-51.12042787338963, -29.963485964863462], [-51.12069736797486, -29.963216470278226], [-51.12069736797486, -29.963485964863462], [-51.12042787338963, -29.963485964863462]], [[-51.139561988941374, -29.965911416130584], [-51.13983148352661, -29.965372426960112], [-51.13983148352661, -29.965911416130584], [-51.139561988941374, -29.965911416130584]], [[-51.129590689287646, -29.959443546084923], [-51.129860183872886, -29.95971304067016], [-51.129590689287646, -29.95971304067016], [-51.129590689287646, -29.959443546084923]], [[-51.12662624885005, -29.961330008181573], [-51.125548270509114, -29.96159950276681], [-51.12500928133864, -29.961060513596337], [-51.12635675426482, -29.960791019011104], [-51.12662624885005, -29.961330008181573]], [[-51.123392313827225, -29.961330008181573], [-51.12366180841246, -29.962677481107754], [-51.123392313827225, -29.962677481107754], [-51.123392313827225, -29.961330008181573]], [[-51.12878220553194, -29.96213849193728], [-51.12689574343529, -29.96159950276681], [-51.12878220553194, -29.961868997352045], [-51.12878220553194, -29.96213849193728]], [[-51.12689574343529, -29.963216470278226], [-51.12662624885005, -29.962407986522518], [-51.127165238020524, -29.962407986522518], [-51.12689574343529, -29.963216470278226]], [[-51.123392313827225, -29.963485964863462], [-51.12366180841246, -29.96483343778964], [-51.12689574343529, -29.964563943204404], [-51.127165238020524, -29.965102932374876], [-51.11854141129298, -29.965102932374876], [-51.123122819241985, -29.96483343778964], [-51.123392313827225, -29.963485964863462]]]}, "properties": {"cultura": "Arroz"}}, {"type": "Feature", "geometry": {"type": "Polygon", "coordinates": [[[-51.13120765679906, -29.960521524425868], [-51.13228563514001, -29.959982535255396], [-51.13120765679906, -29.95971304067016], [-51.13120765679906, -29.960521524425868]]]}, "properties": {"cultura": "Arroz"}}, {"type": "Feature", "geometry": {"type": "Polygon", "coordinates": [[[-51.11908040046345, -29.959174051499687], [-51.11449899251444, -29.959174051499687], [-51.11396000334397, -29.959982535255396], [-51.116654949196324, -29.959982535255396], [-51.116654949196324, -29.959443546084923], [-51.11961938963392, -29.959982535255396], [-51.11908040046345, -29.959174051499687]]]}, "properties": {"cultura": "Arroz"}}, {"type": "Feature", "geometry": {"type": "Polygon", "coordinates": [[[-51.15222823444746, -30.23351953926979], [-51.15168924527699, -30.234328023025498], [-51.15222823444746, -30.234328023025498], [-51.15222823444746, -30.23351953926979]]]}, "properties": {"cultura": "Soja"}}, {"type": "Feature", "geometry": {"type": "Polygon", "coordinates": [[[-51.15222823444746, -30.233250044684553], [-51.15357570737364, -30.233250044684553], [-51.15222823444746, -30.23271105551408], [-51.15222823444746, -30.233250044684553]]]}, "properties": {"cultura": "Soja"}}, {"type": "Feature", "geometry": {"type": "Polygon", "coordinates": [[[-51.156540147811235, -30.23082459341743], [-51.15492318029982, -30.232441560928844], [-51.15761812615218, -30.231094088002667], [-51.156540147811235, -30.23082459341743]]]}, "properties": {"cultura": "Soja"}}, {"type": "Feature", "geometry": {"type": "Polygon", "coordinates": [[[-51.15519267488506, -30.230555098832195], [-51.15492318029982, -30.231094088002667], [-51.15519267488506, -30.231094088002667], [-51.15519267488506, -30.230555098832195]]]}, "properties": {"cultura": "Soja"}}, {"type": "Feature", "geometry": {"type": "Polygon", "coordinates": [[[-51.15761812615218, -30.23082459341743], [-51.15815711532265, -30.230016109661722], [-51.15707913698171, -30.229746615076486], [-51.15761812615218, -30.23082459341743]]]}, "properties": {"cultura": "Soja"}}, {"type": "Feature", "geometry": {"type": "Polygon", "coordinates": [[[-51.15519267488506, -30.230555098832195], [-51.15600115864076, -30.230016109661722], [-51.15519267488506, -30.230016109661722], [-51.15519267488506, -30.230555098832195]]]}, "properties": {"cultura": "Soja"}}, {"type": "Feature", "geometry": {"type": "Polygon", "coordinates": [[[-51.14656884815751, -30.224626217957006], [-51.146299353572275, -30.224895712542242], [-51.14656884815751, -30.224895712542242], [-51.14656884815751, -30.224626217957006]]]}, "properties": {"cultura": "Soja"}}, {"type": "Feature", "geometry": {"type": "Polygon", "coordinates": [[[-51.15168924527699, -30.220583799178467], [-51.15115025610652, -30.219505820837526], [-51.15034177235081, -30.220853293763703], [-51.14845531025416, -30.22031430459323], [-51.148185815668924, -30.221392282934175], [-51.14710783732798, -30.221392282934175], [-51.146299353572275, -30.22247026127512], [-51.14710783732798, -30.22570419629795], [-51.14926379400987, -30.22624318546842], [-51.1487248048394, -30.226512680053656], [-51.14926379400987, -30.227321163809364], [-51.150611266936046, -30.226782174638892], [-51.15034177235081, -30.22516520712748], [-51.15088076152128, -30.22516520712748], [-51.15088076152128, -30.226512680053656], [-51.15195873986222, -30.225973690883187], [-51.15168924527699, -30.22516520712748], [-51.15034177235081, -30.224087228786534], [-51.14710783732798, -30.22435672337177], [-51.14683834274274, -30.22354823961606], [-51.147916321083684, -30.223278745030825], [-51.14737733191321, -30.222739755860356], [-51.14845531025416, -30.221931272104648], [-51.15222823444746, -30.222200766689884], [-51.15168924527699, -30.220583799178467]], [[-51.15115025610652, -30.221931272104648], [-51.15168924527699, -30.220853293763703], [-51.15168924527699, -30.221931272104648], [-51.15115025610652, -30.221931272104648]]]}, "properties": {"cultura": "Soja"}}, {"type": "Feature", "geometry": {"type": "Polygon", "coordinates": [[[-51.15680964239647, -30.223009250445592], [-51.15707913698171, -30.223278745030825], [-51.15707913698171, -30.223009250445592], [-51.15680964239647, -30.223009250445592]]]}, "properties": {"cultura": "Soja"}}, {"type": "Feature", "geometry": {"type": "Polygon", "coordinates": [[[-51.15600115864076, -30.223009250445592], [-51.15573166405552, -30.223278745030825], [-51.15600115864076, -30.223278745030825], [-51.15600115864076, -30.223009250445592]]]}, "properties": {"cultura": "Soja"}}, {"type": "Feature", "geometry": {"type": "Polygon", "coordinates": [[[-51.15384520195887, -30.222739755860356], [-51.1533062127884, -30.223009250445592], [-51.15384520195887, -30.223009250445592], [-51.15384520195887, -30.222739755860356]]]}, "properties": {"cultura": "Soja"}}, {"type": "Feature", "geometry": {"type": "Polygon", "coordinates": [[[-51.14683834274274, -30.22031430459323], [-51.15088076152128, -30.21923632625229], [-51.150072277765574, -30.216810874985168], [-51.14683834274274, -30.217619358740873], [-51.149802783180334, -30.214654918303278], [-51.150611266936046, -30.212498961621392], [-51.150072277765574, -30.211690477865684], [-51.14710783732798, -30.210612499524743], [-51.14171794562326, -30.210343004939507], [-51.13605855933331, -30.21195997245092], [-51.13848401060043, -30.216271885814695], [-51.139561988941374, -30.215732896644223], [-51.14090946186755, -30.218158347911345], [-51.14063996728232, -30.218697337081817], [-51.13983148352661, -30.2170803695704], [-51.13875350518567, -30.217619358740873], [-51.138214516015196, -30.216810874985168], [-51.13713653767425, -30.217349864155636], [-51.13632805391855, -30.21654138039993], [-51.13686704308902, -30.21842784249658], [-51.14090946186755, -30.22354823961606], [-51.142256934793735, -30.224087228786534], [-51.142256934793735, -30.224895712542242], [-51.143873902305145, -30.224895712542242], [-51.14252642937897, -30.22516520712748], [-51.14306541854944, -30.227051669224128], [-51.1457603644018, -30.22893813132078], [-51.146029858987035, -30.230555098832195], [-51.148185815668924, -30.230555098832195], [-51.14845531025416, -30.231902571758376], [-51.14926379400987, -30.230555098832195], [-51.14845531025416, -30.23028560424696], [-51.14845531025416, -30.228668636735545], [-51.14710783732798, -30.227860152979837], [-51.146029858987035, -30.22570419629795], [-51.14522137523133, -30.22570419629795], [-51.14468238606086, -30.223817734201297], [-51.14333491313468, -30.222739755860356], [-51.14495188064609, -30.22166177751941], [-51.146299353572275, -30.221931272104648], [-51.14683834274274, -30.22031430459323]], [[-51.1390229997709, -30.215732896644223], [-51.13875350518567, -30.214385423718042], [-51.1390229997709, -30.214385423718042], [-51.1390229997709, -30.215732896644223]], [[-51.14306541854944, -30.225973690883187], [-51.14333491313468, -30.22570419629795], [-51.14333491313468, -30.225973690883187], [-51.14306541854944, -30.225973690883187]], [[-51.148185815668924, -30.229207625906014], [-51.147916321083684, -30.22947712049125], [-51.147916321083684, -30.229207625906014], [-51.148185815668924, -30.229207625906014]], [[-51.147916321083684, -30.22947712049125], [-51.14764682649845, -30.230016109661722], [-51.14764682649845, -30.22947712049125], [-51.147916321083684, -30.22947712049125]], [[-51.146299353572275, -30.22112278834894], [-51.146029858987035, -30.220853293763703], [-51.146299353572275, -30.220853293763703], [-51.146299353572275, -30.22112278834894]], [[-51.14090946186755, -30.215732896644223], [-51.140100978111846, -30.21519390747375], [-51.14063996728232, -30.214924412888514], [-51.14090946186755, -30.215732896644223]], [[-51.143873902305145, -30.215732896644223], [-51.14441289147562, -30.216271885814695], [-51.14333491313468, -30.216271885814695], [-51.143873902305145, -30.215732896644223]], [[-51.14441289147562, -30.216271885814695], [-51.14468238606086, -30.216810874985168], [-51.14441289147562, -30.216810874985168], [-51.14441289147562, -30.216271885814695]], [[-51.14468238606086, -30.216810874985168], [-51.146299353572275, -30.217619358740873], [-51.14306541854944, -30.218158347911345], [-51.14468238606086, -30.216810874985168]], [[-51.14252642937897, -30.218158347911345], [-51.14279592396421, -30.218966831667053], [-51.14117895645279, -30.219505820837526], [-51.14252642937897, -30.218158347911345]], [[-51.142256934793735, -30.21923632625229], [-51.14252642937897, -30.219505820837526], [-51.142256934793735, -30.219505820837526], [-51.142256934793735, -30.21923632625229]], [[-51.14252642937897, -30.2170803695704], [-51.14144845103802, -30.217349864155636], [-51.14117895645279, -30.216810874985168], [-51.14252642937897, -30.216271885814695], [-51.14252642937897, -30.2170803695704]], [[-51.14090946186755, -30.221392282934175], [-51.14144845103802, -30.219775315422762], [-51.142256934793735, -30.219775315422762], [-51.14252642937897, -30.220853293763703], [-51.14090946186755, -30.221392282934175]], [[-51.14252642937897, -30.220853293763703], [-51.14279592396421, -30.221392282934175], [-51.142256934793735, -30.221392282934175], [-51.14252642937897, -30.220853293763703]], [[-51.14279592396421, -30.221392282934175], [-51.14333491313468, -30.221931272104648], [-51.14306541854944, -30.221931272104648], [-51.14279592396421, -30.221392282934175]]]}, "properties": {"cultura": "Soja"}}, {"type": "Feature", "geometry": {"type": "Polygon", "coordinates": [[[-51.154384191129346, -30.218966831667053], [-51.15303671820317, -30.219775315422762], [-51.15411469654411, -30.22031430459323], [-51.15384520195887, -30.22112278834894], [-51.15276722361793, -30.22112278834894], [-51.15303671820317, -30.22247026127512], [-51.15492318029982, -30.22247026127512], [-51.156540147811235, -30.223278745030825], [-51.15680964239647, -30.223009250445592], [-51.156540147811235, -30.22247026127512], [-51.15788762073741, -30.22166177751941], [-51.15734863156694, -30.22112278834894], [-51.15788762073741, -30.22031430459323], [-51.15680964239647, -30.220853293763703], [-51.156540147811235, -30.220044810007998], [-51.156540147811235, -30.220583799178467], [-51.15573166405552, -30.22031430459323], [-51.15600115864076, -30.22112278834894], [-51.15519267488506, -30.22112278834894], [-51.154384191129346, -30.218966831667053]], [[-51.15303671820317, -30.22166177751941], [-51.1533062127884, -30.221392282934175], [-51.1533062127884, -30.22166177751941], [-51.15303671820317, -30.22166177751941]], [[-51.156270653225995, -30.22112278834894], [-51.156540147811235, -30.221931272104648], [-51.15573166405552, -30.221931272104648], [-51.15573166405552, -30.221392282934175], [-51.156270653225995, -30.22112278834894]]]}, "properties": {"cultura": "Soja"}}, {"type": "Feature", "geometry": {"type": "Polygon", "coordinates": [[[-51.15303671820317, -30.219505820837526], [-51.15276722361793, -30.219775315422762], [-51.15303671820317, -30.219775315422762], [-51.15303671820317, -30.219505820837526]]]}, "properties": {"cultura": "Soja"}}, {"type": "Feature", "geometry": {"type": "Polygon", "coordinates": [[[-51.15492318029982, -30.21842784249658], [-51.156540147811235, -30.220044810007998], [-51.15600115864076, -30.218697337081817], [-51.15492318029982, -30.21842784249658]]]}, "properties": {"cultura": "Soja"}}, {"type": "Feature", "geometry": {"type": "Polygon", "coordinates": [[[-51.15384520195887, -30.21842784249658], [-51.1533062127884, -30.218966831667053], [-51.15384520195887, -30.218966831667053], [-51.15384520195887, -30.21842784249658]]]}, "properties": {"cultura": "Soja"}}, {"type": "Feature", "geometry": {"type": "Polygon", "coordinates": [[[-51.15195873986222, -30.21842784249658], [-51.15222823444746, -30.218697337081817], [-51.15222823444746, -30.21842784249658], [-51.15195873986222, -30.21842784249658]]]}, "properties": {"cultura": "Soja"}}, {"type": "Feature", "geometry": {"type": "Polygon", "coordinates": [[[-51.15492318029982, -30.21842784249658], [-51.15492318029982, -30.218158347911345], [-51.154653685714585, -30.218158347911345], [-51.154653685714585, -30.21842784249658], [-51.15492318029982, -30.21842784249658]]]}, "properties": {"cultura": "Soja"}}, {"type": "Feature", "geometry": {"type": "Polygon", "coordinates": [[[-51.154653685714585, -30.218158347911345], [-51.152497729032696, -30.213037950791865], [-51.15034177235081, -30.213576939962337], [-51.149802783180334, -30.216271885814695], [-51.15141975069175, -30.21788885332611], [-51.15115025610652, -30.218697337081817], [-51.15168924527699, -30.218697337081817], [-51.15168924527699, -30.21842784249658], [-51.15195873986222, -30.21842784249658], [-51.15195873986222, -30.218158347911345], [-51.15276722361793, -30.21788885332611], [-51.154653685714585, -30.218158347911345]], [[-51.15195873986222, -30.21788885332611], [-51.15222823444746, -30.217349864155636], [-51.15303671820317, -30.217349864155636], [-51.15276722361793, -30.21788885332611], [-51.15195873986222, -30.21788885332611]]]}, "properties": {"cultura": "Soja"}}, {"type": "Feature", "geometry": {"type": "Polygon", "coordinates": [[[-51.14171794562326, -29.963485964863462], [-51.14144845103802, -29.964294448619167], [-51.14171794562326, -29.964294448619167], [-51.14171794562326, -29.963485964863462]]]}, "properties": {"cultura": "Soja"}}, {"type": "Feature", "geometry": {"type": "Polygon", "coordinates": [[[-51.044699894938354, -30.22112278834894], [-51.04550837869406, -30.22031430459323], [-51.044699894938354, -30.22031430459323], [-51.044699894938354, -30.22112278834894]]]}, "properties": {"cultura": "Soja"}}, {"type": "Feature", "geometry": {"type": "Polygon", "coordinates": [[[-51.03203364943227, -30.21088199410998], [-51.03284213318798, -30.21115148869521], [-51.03284213318798, -30.210612499524743], [-51.03203364943227, -30.21088199410998]]]}, "properties": {"cultura": "Soja"}}, {"type": "Feature", "geometry": {"type": "Polygon", "coordinates": [[[-51.02933870357991, -30.209534521183798], [-51.030416681920855, -30.20872603742809], [-51.02933870357991, -30.208456542842853], [-51.02933870357991, -30.209534521183798]]]}, "properties": {"cultura": "Soja"}}, {"type": "Feature", "geometry": {"type": "Polygon", "coordinates": [[[-51.12635675426482, -30.20091069445625], [-51.12608725967958, -30.20037170528578], [-51.12608725967958, -30.20091069445625], [-51.12635675426482, -30.20091069445625]]]}, "properties": {"cultura": "Soja"}}, {"type": "Feature", "geometry": {"type": "Polygon", "coordinates": [[[-51.12689574343529, -30.19956322153007], [-51.12662624885005, -30.20037170528578], [-51.127434732605764, -30.20037170528578], [-51.12689574343529, -30.19956322153007]]]}, "properties": {"cultura": "Soja"}}, {"type": "Feature", "geometry": {"type": "Polygon", "coordinates": [[[-51.10641415495736, -30.193903835240118], [-51.107222638713075, -30.19309535148441], [-51.10641415495736, -30.19309535148441], [-51.10641415495736, -30.193903835240118]]]}, "properties": {"cultura": "Soja"}}, {"type": "Feature", "geometry": {"type": "Polygon", "coordinates": [[[-51.08916650150227, -29.979386145392375], [-51.09051397442845, -29.979386145392375], [-51.092669931110336, -29.97911665080714], [-51.08916650150227, -29.979386145392375]]]}, "properties": {"cultura": "Soja"}}, {"type": "Feature", "geometry": {"type": "Polygon", "coordinates": [[[-51.08889700691704, -29.97857766163667], [-51.08970549067274, -29.97857766163667], [-51.08970549067274, -29.978038672466198], [-51.08916650150227, -29.978308167051434], [-51.088358017746565, -29.976152210369545], [-51.08889700691704, -29.97857766163667]]]}, "properties": {"cultura": "Soja"}}, {"type": "Feature", "geometry": {"type": "Polygon", "coordinates": [[[-51.089974985257975, -29.97453524285813], [-51.09078346901369, -29.974804737443367], [-51.092130941939864, -29.973726759102423], [-51.09078346901369, -29.973726759102423], [-51.089974985257975, -29.97453524285813]]]}, "properties": {"cultura": "Soja"}}, {"type": "Feature", "geometry": {"type": "Polygon", "coordinates": [[[-51.092669931110336, -29.97210979159101], [-51.092400436525104, -29.97318776993195], [-51.09374790945128, -29.972379286176245], [-51.092669931110336, -29.97210979159101]]]}, "properties": {"cultura": "Soja"}}, {"type": "Feature", "geometry": {"type": "Polygon", "coordinates": [[[-51.088358017746565, -29.971031813250065], [-51.08701054482038, -29.97210979159101], [-51.08754953399085, -29.97318776993195], [-51.0886275123318, -29.972918275346714], [-51.08781902857609, -29.973457264517187], [-51.088088523161325, -29.974265748272895], [-51.08889700691704, -29.973457264517187], [-51.08889700691704, -29.97210979159101], [-51.088358017746565, -29.971031813250065]]]}, "properties": {"cultura": "Soja"}}, {"type": "Feature", "geometry": {"type": "Polygon", "coordinates": [[[-51.0886275123318, -29.97076231866483], [-51.088358017746565, -29.971031813250065], [-51.0886275123318, -29.971031813250065], [-51.0886275123318, -29.97076231866483]]]}, "properties": {"cultura": "Soja"}}, {"type": "Feature", "geometry": {"type": "Polygon", "coordinates": [[[-51.110995562906375, -29.96725888905676], [-51.11126505749161, -29.967528383641998], [-51.11126505749161, -29.96725888905676], [-51.110995562906375, -29.96725888905676]]]}, "properties": {"cultura": "Soja"}}, {"type": "Feature", "geometry": {"type": "Polygon", "coordinates": [[[-51.11207354124732, -29.966450405301057], [-51.11126505749161, -29.966719899886293], [-51.11126505749161, -29.96725888905676], [-51.11207354124732, -29.966450405301057]]]}, "properties": {"cultura": "Soja"}}, {"type": "Feature", "geometry": {"type": "Polygon", "coordinates": [[[-51.09293942569557, -29.96564192154535], [-51.094825887792226, -29.967528383641998], [-51.09590386613316, -29.967797878227234], [-51.0961733607184, -29.966450405301057], [-51.09293942569557, -29.96564192154535]]]}, "properties": {"cultura": "Soja"}}, {"type": "Feature", "geometry": {"type": "Polygon", "coordinates": [[[-51.14144845103802, -29.965372426960112], [-51.14117895645279, -29.965911416130584], [-51.14144845103802, -29.965911416130584], [-51.14144845103802, -29.965372426960112]]]}, "properties": {"cultura": "Soja"}}, {"type": "Feature", "geometry": {"type": "Polygon", "coordinates": [[[-51.108839606224485, -29.965911416130584], [-51.10991758456543, -29.965372426960112], [-51.108839606224485, -29.965372426960112], [-51.108839606224485, -29.965911416130584]]]}, "properties": {"cultura": "Soja"}}, {"type": "Feature", "geometry": {"type": "Polygon", "coordinates": [[[-51.14090946186755, -29.965102932374876], [-51.14117895645279, -29.965372426960112], [-51.14117895645279, -29.965102932374876], [-51.14090946186755, -29.965102932374876]]]}, "properties": {"cultura": "Soja"}}, {"type": "Feature", "geometry": {"type": "Polygon", "coordinates": [[[-51.14090946186755, -29.9637554594487], [-51.14063996728232, -29.964563943204404], [-51.14144845103802, -29.965102932374876], [-51.14144845103802, -29.964294448619167], [-51.14090946186755, -29.9637554594487]]]}, "properties": {"cultura": "Soja"}}]}