{"type":"FeatureCollection","features":[{"type":"Feature","properties":{"nome":"Subestação Rio Grande II","detalhe":"substation","osm_id":"way/239698331"},"geometry":{"type":"Point","coordinates":[-52.0877849,-32.0422664]}},{"type":"Feature","properties":{"nome":"Subestação Estaleiro Rio Grande 2","detalhe":"substation","osm_id":"way/359565897"},"geometry":{"type":"Point","coordinates":[-52.1047278,-32.0840097]}},{"type":"Feature","properties":{"nome":"Subestação Rio Grande I","detalhe":"substation","osm_id":"way/490766493"},"geometry":{"type":"Point","coordinates":[-52.1245057,-32.043622]}},{"type":"Feature","properties":{"nome":"Subestação Yara Fertilizantes","detalhe":"substation","osm_id":"way/506308466"},"geometry":{"type":"Point","coordinates":[-52.0992211,-32.0753546]}},{"type":"Feature","properties":{"nome":"Subestação Timac","detalhe":"substation","osm_id":"way/532137541"},"geometry":{"type":"Point","coordinates":[-52.1009136,-32.0740848]}},{"type":"Feature","properties":{"nome":"Subestação Shopping Rio Grande","detalhe":"substation","osm_id":"way/532137542"},"geometry":{"type":"Point","coordinates":[-52.1474306,-32.0520042]}}]}