{"type":"FeatureCollection","features":[{"type":"Feature","properties":{"nome":null,"detalhe":"water_tower","osm_id":"node/2118506224"},"geometry":{"type":"Point","coordinates":[-52.0716266,-32.0335703]}},{"type":"Feature","properties":{"nome":null,"detalhe":"water_tower","osm_id":"node/2901726777"},"geometry":{"type":"Point","coordinates":[-52.0863365,-32.0309198]}},{"type":"Feature","properties":{"nome":null,"detalhe":"water_tower","osm_id":"node/2901732407"},"geometry":{"type":"Point","coordinates":[-52.1263696,-32.0495819]}},{"type":"Feature","properties":{"nome":null,"detalhe":"water_tower","osm_id":"node/3132292939"},"geometry":{"type":"Point","coordinates":[-52.0871633,-32.0388175]}},{"type":"Feature","properties":{"nome":null,"detalhe":"water_tower","osm_id":"node/3135983994"},"geometry":{"type":"Point","coordinates":[-52.0998615,-32.0374389]}},{"type":"Feature","properties":{"nome":null,"detalhe":"water_tower","osm_id":"node/4017285027"},"geometry":{"type":"Point","coordinates":[-52.0965591,-32.0689436]}},{"type":"Feature","properties":{"nome":null,"detalhe":"water_tower","osm_id":"node/4017285616"},"geometry":{"type":"Point","coordinates":[-52.0940392,-32.0744337]}},{"type":"Feature","properties":{"nome":null,"detalhe":"storage_tank","osm_id":"node/12438777504"},"geometry":{"type":"Point","coordinates":[-52.0895445,-32.0407164]}},{"type":"Feature","properties":{"nome":null,"detalhe":"storage_tank","osm_id":"node/12438777505"},"geometry":{"type":"Point","coordinates":[-52.0895769,-32.0407057]}},{"type":"Feature","properties":{"nome":null,"detalhe":"storage_tank","osm_id":"way/359565779"},"geometry":{"type":"Point","coordinates":[-52.0943262,-32.07122]}},{"type":"Feature","properties":{"nome":null,"detalhe":"storage_tank","osm_id":"way/359565780"},"geometry":{"type":"Point","coordinates":[-52.0951302,-32.0735299]}},{"type":"Feature","properties":{"nome":null,"detalhe":"storage_tank","osm_id":"way/359565781"},"geometry":{"type":"Point","coordinates":[-52.0954541,-32.0739185]}},{"type":"Feature","properties":{"nome":null,"detalhe":"storage_tank","osm_id":"way/359565782"},"geometry":{"type":"Point","coordinates":[-52.0949211,-32.0740607]}},{"type":"Feature","properties":{"nome":null,"detalhe":"storage_tank","osm_id":"way/359565783"},"geometry":{"type":"Point","coordinates":[-52.0935611,-32.0742391]}},{"type":"Feature","properties":{"nome":null,"detalhe":"storage_tank","osm_id":"way/359565784"},"geometry":{"type":"Point","coordinates":[-52.0935644,-32.0733939]}},{"type":"Feature","properties":{"nome":null,"detalhe":"storage_tank","osm_id":"way/359565785"},"geometry":{"type":"Point","coordinates":[-52.0932426,-32.0735996]}},{"type":"Feature","properties":{"nome":null,"detalhe":"storage_tank","osm_id":"way/359565786"},"geometry":{"type":"Point","coordinates":[-52.0929528,-32.0737757]}},{"type":"Feature","properties":{"nome":null,"detalhe":"storage_tank","osm_id":"way/359565787"},"geometry":{"type":"Point","coordinates":[-52.0926873,-32.0726303]}},{"type":"Feature","properties":{"nome":null,"detalhe":"storage_tank","osm_id":"way/359565788"},"geometry":{"type":"Point","coordinates":[-52.0925928,-32.0718683]}},{"type":"Feature","properties":{"nome":null,"detalhe":"storage_tank","osm_id":"way/359565789"},"geometry":{"type":"Point","coordinates":[-52.0923401,-32.0715814]}},{"type":"Feature","properties":{"nome":null,"detalhe":"storage_tank","osm_id":"way/359565790"},"geometry":{"type":"Point","coordinates":[-52.0923742,-32.0723115]}},{"type":"Feature","properties":{"nome":null,"detalhe":"storage_tank","osm_id":"way/359565791"},"geometry":{"type":"Point","coordinates":[-52.0922012,-32.0720842]}},{"type":"Feature","properties":{"nome":null,"detalhe":"storage_tank","osm_id":"way/359565792"},"geometry":{"type":"Point","coordinates":[-52.091864,-32.0720246]}},{"type":"Feature","properties":{"nome":null,"detalhe":"storage_tank","osm_id":"way/359565793"},"geometry":{"type":"Point","coordinates":[-52.091489,-32.072137]}},{"type":"Feature","properties":{"nome":null,"detalhe":"storage_tank","osm_id":"way/359565794"},"geometry":{"type":"Point","coordinates":[-52.0913818,-32.0719808]}},{"type":"Feature","properties":{"nome":null,"detalhe":"storage_tank","osm_id":"way/359565795"},"geometry":{"type":"Point","coordinates":[-52.0905966,-32.0715189]}},{"type":"Feature","properties":{"nome":null,"detalhe":"storage_tank","osm_id":"way/359565796"},"geometry":{"type":"Point","coordinates":[-52.0904048,-32.0713018]}},{"type":"Feature","properties":{"nome":null,"detalhe":"storage_tank","osm_id":"way/359565797"},"geometry":{"type":"Point","coordinates":[-52.090626,-32.0704591]}},{"type":"Feature","properties":{"nome":null,"detalhe":"storage_tank","osm_id":"way/359565798"},"geometry":{"type":"Point","coordinates":[-52.0915581,-32.0708653]}},{"type":"Feature","properties":{"nome":null,"detalhe":"storage_tank","osm_id":"way/359565799"},"geometry":{"type":"Point","coordinates":[-52.091253,-32.0703233]}},{"type":"Feature","properties":{"nome":null,"detalhe":"storage_tank","osm_id":"way/359565800"},"geometry":{"type":"Point","coordinates":[-52.0903337,-32.0694829]}},{"type":"Feature","properties":{"nome":null,"detalhe":"storage_tank","osm_id":"way/359565801"},"geometry":{"type":"Point","coordinates":[-52.0904571,-32.0705608]}},{"type":"Feature","properties":{"nome":null,"detalhe":"storage_tank","osm_id":"way/359565802"},"geometry":{"type":"Point","coordinates":[-52.0970708,-32.0769755]}},{"type":"Feature","properties":{"nome":null,"detalhe":"storage_tank","osm_id":"way/359566984"},"geometry":{"type":"Point","coordinates":[-52.0977601,-32.0674225]}},{"type":"Feature","properties":{"nome":null,"detalhe":"storage_tank","osm_id":"way/359566985"},"geometry":{"type":"Point","coordinates":[-52.0970499,-32.0694329]}},{"type":"Feature","properties":{"nome":null,"detalhe":"storage_tank","osm_id":"way/398991455"},"geometry":{"type":"Point","coordinates":[-52.0968864,-32.0686857]}},{"type":"Feature","properties":{"nome":null,"detalhe":"storage_tank","osm_id":"way/398991456"},"geometry":{"type":"Point","coordinates":[-52.0910767,-32.0713097]}},{"type":"Feature","properties":{"nome":null,"detalhe":"storage_tank","osm_id":"way/398991457"},"geometry":{"type":"Point","coordinates":[-52.0949479,-32.0736425]}},{"type":"Feature","properties":{"nome":null,"detalhe":"storage_tank","osm_id":"way/398991459"},"geometry":{"type":"Point","coordinates":[-52.097302,-32.0692823]}},{"type":"Feature","properties":{"nome":null,"detalhe":"storage_tank","osm_id":"way/398991460"},"geometry":{"type":"Point","coordinates":[-52.0895954,-32.0699434]}},{"type":"Feature","properties":{"nome":null,"detalhe":"storage_tank","osm_id":"way/398991461"},"geometry":{"type":"Point","coordinates":[-52.0973034,-32.0686357]}},{"type":"Feature","properties":{"nome":null,"detalhe":"storage_tank","osm_id":"way/398991462"},"geometry":{"type":"Point","coordinates":[-52.0971908,-32.0685038]}},{"type":"Feature","properties":{"nome":null,"detalhe":"storage_tank","osm_id":"way/398991463"},"geometry":{"type":"Point","coordinates":[-52.0950414,-32.0741964]}},{"type":"Feature","properties":{"nome":null,"detalhe":"storage_tank","osm_id":"way/398991464"},"geometry":{"type":"Point","coordinates":[-52.0963023,-32.0682089]}},{"type":"Feature","properties":{"nome":null,"detalhe":"storage_tank","osm_id":"way/398991465"},"geometry":{"type":"Point","coordinates":[-52.0973477,-32.067381]}},{"type":"Feature","properties":{"nome":null,"detalhe":"storage_tank","osm_id":"way/398991466"},"geometry":{"type":"Point","coordinates":[-52.096995,-32.0688277]}},{"type":"Feature","properties":{"nome":null,"detalhe":"storage_tank","osm_id":"way/398991467"},"geometry":{"type":"Point","coordinates":[-52.0908728,-32.0710642]}},{"type":"Feature","properties":{"nome":null,"detalhe":"storage_tank","osm_id":"way/398991468"},"geometry":{"type":"Point","coordinates":[-52.0965975,-32.0770811]}},{"type":"Feature","properties":{"nome":null,"detalhe":"storage_tank","osm_id":"way/398991469"},"geometry":{"type":"Point","coordinates":[-52.0899066,-32.0694213]}},{"type":"Feature","properties":{"nome":null,"detalhe":"storage_tank","osm_id":"way/398991470"},"geometry":{"type":"Point","coordinates":[-52.0963419,-32.067964]}},{"type":"Feature","properties":{"nome":null,"detalhe":"storage_tank","osm_id":"way/398991471"},"geometry":{"type":"Point","coordinates":[-52.0970406,-32.0685936]}},{"type":"Feature","properties":{"nome":null,"detalhe":"storage_tank","osm_id":"way/398991472"},"geometry":{"type":"Point","coordinates":[-52.0964982,-32.0775448]}},{"type":"Feature","properties":{"nome":null,"detalhe":"storage_tank","osm_id":"way/398991473"},"geometry":{"type":"Point","coordinates":[-52.0952818,-32.0740265]}},{"type":"Feature","properties":{"nome":null,"detalhe":"storage_tank","osm_id":"way/398991474"},"geometry":{"type":"Point","coordinates":[-52.0975636,-32.0691357]}},{"type":"Feature","properties":{"nome":null,"detalhe":"storage_tank","osm_id":"way/398991475"},"geometry":{"type":"Point","coordinates":[-52.0896639,-32.0695746]}},{"type":"Feature","properties":{"nome":null,"detalhe":"storage_tank","osm_id":"way/398991476"},"geometry":{"type":"Point","coordinates":[-52.0965564,-32.0683708]}},{"type":"Feature","properties":{"nome":null,"detalhe":"storage_tank","osm_id":"way/398991477"},"geometry":{"type":"Point","coordinates":[-52.0906234,-32.0707381]}},{"type":"Feature","properties":{"nome":null,"detalhe":"storage_tank","osm_id":"way/398991478"},"geometry":{"type":"Point","coordinates":[-52.0967745,-32.0773607]}},{"type":"Feature","properties":{"nome":null,"detalhe":"storage_tank","osm_id":"way/398991479"},"geometry":{"type":"Point","coordinates":[-52.0901527,-32.0692698]}},{"type":"Feature","properties":{"nome":null,"detalhe":"storage_tank","osm_id":"way/398991480"},"geometry":{"type":"Point","coordinates":[-52.0961876,-32.0680606]}},{"type":"Feature","properties":{"nome":null,"detalhe":"storage_tank","osm_id":"way/398991481"},"geometry":{"type":"Point","coordinates":[-52.0894143,-32.0697304]}},{"type":"Feature","properties":{"nome":null,"detalhe":"storage_tank","osm_id":"way/398991482"},"geometry":{"type":"Point","coordinates":[-52.0969078,-32.0681515]}},{"type":"Feature","properties":{"nome":null,"detalhe":"storage_tank","osm_id":"way/398991483"},"geometry":{"type":"Point","coordinates":[-52.0900877,-32.0696343]}},{"type":"Feature","properties":{"nome":null,"detalhe":"storage_tank","osm_id":"way/398991484"},"geometry":{"type":"Point","coordinates":[-52.0964518,-32.0681117]}},{"type":"Feature","properties":{"nome":null,"detalhe":"storage_tank","osm_id":"way/398991489"},"geometry":{"type":"Point","coordinates":[-52.0975971,-32.0672321]}},{"type":"Feature","properties":{"nome":null,"detalhe":"storage_tank","osm_id":"way/398991490"},"geometry":{"type":"Point","coordinates":[-52.0971505,-32.0687266]}},{"type":"Feature","properties":{"nome":null,"detalhe":"storage_tank","osm_id":"way/398991491"},"geometry":{"type":"Point","coordinates":[-52.0907548,-32.0708802]}},{"type":"Feature","properties":{"nome":null,"detalhe":"storage_tank","osm_id":"way/398991492"},"geometry":{"type":"Point","coordinates":[-52.096293,-32.0772891]}},{"type":"Feature","properties":{"nome":null,"detalhe":"storage_tank","osm_id":"way/398991494"},"geometry":{"type":"Point","coordinates":[-52.0898448,-32.0697878]}},{"type":"Feature","properties":{"nome":null,"detalhe":"storage_tank","osm_id":"way/398991495"},"geometry":{"type":"Point","coordinates":[-52.0967308,-32.0682618]}},{"type":"Feature","properties":{"nome":null,"detalhe":"storage_tank","osm_id":"way/398991496"},"geometry":{"type":"Point","coordinates":[-52.0975167,-32.0675719]}},{"type":"Feature","properties":{"nome":null,"detalhe":"storage_tank","osm_id":"way/553623628"},"geometry":{"type":"Point","coordinates":[-52.1678924,-32.0754671]}},{"type":"Feature","properties":{"nome":null,"detalhe":"storage_tank","osm_id":"way/553623629"},"geometry":{"type":"Point","coordinates":[-52.1679288,-32.075455]}},{"type":"Feature","properties":{"nome":null,"detalhe":"storage_tank","osm_id":"way/736618099"},"geometry":{"type":"Point","coordinates":[-52.1636165,-32.0742872]}},{"type":"Feature","properties":{"nome":null,"detalhe":"storage_tank","osm_id":"way/736618100"},"geometry":{"type":"Point","coordinates":[-52.1658824,-32.0726965]}},{"type":"Feature","properties":{"nome":null,"detalhe":"storage_tank","osm_id":"way/736618101"},"geometry":{"type":"Point","coordinates":[-52.1706084,-32.0761993]}},{"type":"Feature","properties":{"nome":null,"detalhe":"storage_tank","osm_id":"way/736618102"},"geometry":{"type":"Point","coordinates":[-52.1706035,-32.0762431]}},{"type":"Feature","properties":{"nome":null,"detalhe":"storage_tank","osm_id":"way/736618103"},"geometry":{"type":"Point","coordinates":[-52.1703713,-32.0748758]}},{"type":"Feature","properties":{"nome":"CORSAN","detalhe":"storage_tank","osm_id":"way/1332884714"},"geometry":{"type":"Point","coordinates":[-52.0998434,-32.0374333]}},{"type":"Feature","properties":{"nome":"Corsan","detalhe":"water_works","osm_id":"way/1341405464"},"geometry":{"type":"Point","coordinates":[-52.0946653,-32.0395317]}}]}