{"type":"FeatureCollection","features":[{"type":"Feature","properties":{"nome":null,"detalhe":"tower","osm_id":"node/1989355225"},"geometry":{"type":"Point","coordinates":[-52.1435901,-32.0628511]}},{"type":"Feature","properties":{"nome":null,"detalhe":"tower","osm_id":"node/2186302391"},"geometry":{"type":"Point","coordinates":[-52.0986125,-32.0328348]}},{"type":"Feature","properties":{"nome":null,"detalhe":"tower","osm_id":"node/2901726781"},"geometry":{"type":"Point","coordinates":[-52.0828887,-32.0316158]}},{"type":"Feature","properties":{"nome":null,"detalhe":"tower","osm_id":"node/2901726785"},"geometry":{"type":"Point","coordinates":[-52.0838555,-32.0320488]}},{"type":"Feature","properties":{"nome":null,"detalhe":"tower","osm_id":"node/6853639541"},"geometry":{"type":"Point","coordinates":[-52.144619,-32.0552068]}},{"type":"Feature","properties":{"nome":null,"detalhe":"tower","osm_id":"node/6853639544"},"geometry":{"type":"Point","coordinates":[-52.0870835,-32.038995]}},{"type":"Feature","properties":{"nome":null,"detalhe":"tower","osm_id":"node/6853639545"},"geometry":{"type":"Point","coordinates":[-52.145194,-32.0593523]}},{"type":"Feature","properties":{"nome":null,"detalhe":"tower","osm_id":"node/6853639547"},"geometry":{"type":"Point","coordinates":[-52.097487,-32.0341177]}},{"type":"Feature","properties":{"nome":null,"detalhe":"tower","osm_id":"node/6853639549"},"geometry":{"type":"Point","coordinates":[-52.1511673,-32.0690737]}},{"type":"Feature","properties":{"nome":null,"detalhe":"tower","osm_id":"node/6853639550"},"geometry":{"type":"Point","coordinates":[-52.1158948,-32.0371924]}},{"type":"Feature","properties":{"nome":null,"detalhe":"tower","osm_id":"node/6853639553"},"geometry":{"type":"Point","coordinates":[-52.1258755,-32.0494172]}},{"type":"Feature","properties":{"nome":null,"detalhe":"tower","osm_id":"node/6853639558"},"geometry":{"type":"Point","coordinates":[-52.1339839,-32.0529455]}},{"type":"Feature","properties":{"nome":null,"detalhe":"tower","osm_id":"node/6853639559"},"geometry":{"type":"Point","coordinates":[-52.1102188,-32.0402773]}},{"type":"Feature","properties":{"nome":null,"detalhe":"tower","osm_id":"node/6853639561"},"geometry":{"type":"Point","coordinates":[-52.0924824,-32.0411682]}},{"type":"Feature","properties":{"nome":null,"detalhe":"tower","osm_id":"node/6853639562"},"geometry":{"type":"Point","coordinates":[-52.1221438,-32.0415704]}},{"type":"Feature","properties":{"nome":null,"detalhe":"tower","osm_id":"node/6853639563"},"geometry":{"type":"Point","coordinates":[-52.1699489,-32.0644648]}},{"type":"Feature","properties":{"nome":null,"detalhe":"tower","osm_id":"node/6853639564"},"geometry":{"type":"Point","coordinates":[-52.0886571,-32.0377636]}},{"type":"Feature","properties":{"nome":null,"detalhe":"tower","osm_id":"node/6853639568"},"geometry":{"type":"Point","coordinates":[-52.100036,-32.0372437]}}]}