{"type": "FeatureCollection", "features": [{"id": "0", "type": "Feature", "properties": {"cultura": "Arroz", "classe_id": 40, "area_ha": 0.04}, "geometry": {"type": "Polygon", "coordinates": [[[-51.127704227190996, -29.95755708398827], [-51.12797372177623, -29.95755708398827], [-51.127704227190996, -29.957287589403037], [-51.127704227190996, -29.95755708398827]]]}}, {"id": "1", "type": "Feature", "properties": {"cultura": "Outras Lavouras Temporárias", "classe_id": 41, "area_ha": 1.4}, "geometry": {"type": "Polygon", "coordinates": [[[-51.1247397867534, -29.9570180948178], [-51.12447029216817, -29.957826578573506], [-51.12797372177623, -29.9570180948178], [-51.1247397867534, -29.9570180948178]]]}}, {"id": "2", "type": "Feature", "properties": {"cultura": "Outras Lavouras Temporárias", "classe_id": 41, "area_ha": 0.16}, "geometry": {"type": "Polygon", "coordinates": [[[-51.12797372177623, -29.957826578573506], [-51.1285127109467, -29.957826578573506], [-51.12797372177623, -29.957287589403037], [-51.12797372177623, -29.957826578573506]]]}}, {"id": "3", "type": "Feature", "properties": {"cultura": "Outras Lavouras Temporárias", "classe_id": 41, "area_ha": 0.08}, "geometry": {"type": "Polygon", "coordinates": [[[-51.1285127109467, -29.958096073158742], [-51.129051700117174, -29.958096073158742], [-51.1285127109467, -29.957826578573506], [-51.1285127109467, -29.958096073158742]]]}}, {"id": "4", "type": "Feature", "properties": {"cultura": "Outras Lavouras Temporárias", "classe_id": 41, "area_ha": 0.23}, "geometry": {"type": "Polygon", "coordinates": [[[-51.14117895645279, -29.959174051499687], [-51.14063996728232, -29.958635062329215], [-51.139831483526606, -29.958635062329215], [-51.14117895645279, -29.959174051499687]]]}}, {"id": "5", "type": "Feature", "properties": {"cultura": "Outras Lavouras Temporárias", "classe_id": 41, "area_ha": 0.31}, "geometry": {"type": "Polygon", "coordinates": [[[-51.11800242212251, -29.959174051499687], [-51.12015837880439, -29.959174051499687], [-51.11800242212251, -29.95890455691445], [-51.11800242212251, -29.959174051499687]]]}}, {"id": "6", "type": "Feature", "properties": {"cultura": "Outras Lavouras Temporárias", "classe_id": 41, "area_ha": 0.04}, "geometry": {"type": "Polygon", "coordinates": [[[-51.11773292753727, -29.959443546084923], [-51.11800242212251, -29.959443546084923], [-51.11773292753727, -29.959174051499687], [-51.11773292753727, -29.959443546084923]]]}}, {"id": "7", "type": "Feature", "properties": {"cultura": "Outras Lavouras Temporárias", "classe_id": 41, "area_ha": 0.08}, "geometry": {"type": "Polygon", "coordinates": [[[-51.12015837880439, -29.95971304067016], [-51.12042787338963, -29.95971304067016], [-51.12015837880439, -29.959174051499687], [-51.12015837880439, -29.95971304067016]]]}}, {"id": "8", "type": "Feature", "properties": {"cultura": "Arroz", "classe_id": 40, "area_ha": 3.77}, "geometry": {"type": "Polygon", "coordinates": [[[-51.11449899251444, -29.959174051499687], [-51.11396000334397, -29.959982535255396], [-51.11692444378156, -29.959443546084923], [-51.11692444378156, -29.959982535255396], [-51.119349895048686, -29.960252029840632], [-51.119080400463446, -29.959174051499687], [-51.11449899251444, -29.959174051499687]]]}}, {"id": "9", "type": "Feature", "properties": {"cultura": "Arroz", "classe_id": 40, "area_ha": 0.47}, "geometry": {"type": "Polygon", "coordinates": [[[-51.13120765679906, -29.960521524425864], [-51.13228563514001, -29.960252029840632], [-51.13120765679906, -29.95971304067016], [-51.13120765679906, -29.960521524425864]]]}}, {"id": "10", "type": "Feature", "properties": {"cultura": "Outras Lavouras Temporárias", "classe_id": 41, "area_ha": 0.12}, "geometry": {"type": "Polygon", "coordinates": [[[-51.13282462431048, -29.9607910190111], [-51.13282462431048, -29.960521524425864], [-51.13201614055477, -29.960521524425864], [-51.13282462431048, -29.9607910190111]]]}}, {"id": "11", "type": "Feature", "properties": {"cultura": "Outras Lavouras Temporárias", "classe_id": 41, "area_ha": 0.04}, "geometry": {"type": "Polygon", "coordinates": [[[-51.112882025003024, -29.9607910190111], [-51.11315151958826, -29.9607910190111], [-51.112882025003024, -29.960521524425864], [-51.112882025003024, -29.9607910190111]]]}}, {"id": "12", "type": "Feature", "properties": {"cultura": "Outras Lavouras Temporárias", "classe_id": 41, "area_ha": 0.08}, "geometry": {"type": "Polygon", "coordinates": [[[-51.13282462431048, -29.961060513596337], [-51.13336361348095, -29.961060513596337], [-51.13282462431048, -29.9607910190111], [-51.13282462431048, -29.961060513596337]]]}}, {"id": "13", "type": "Feature", "properties": {"cultura": "Arroz", "classe_id": 40, "area_ha": 0.04}, "geometry": {"type": "Polygon", "coordinates": [[[-51.14037047269708, -29.963216470278226], [-51.14063996728232, -29.963216470278226], [-51.14037047269708, -29.96294697569299], [-51.14037047269708, -29.963216470278226]]]}}, {"id": "14", "type": "Feature", "properties": {"cultura": "Outras Lavouras Temporárias", "classe_id": 41, "area_ha": 0.93}, "geometry": {"type": "Polygon", "coordinates": [[[-51.14144845103802, -29.96213849193728], [-51.14037047269708, -29.963755459448695], [-51.14144845103802, -29.963755459448695], [-51.14144845103802, -29.96213849193728]]]}}, {"id": "15", "type": "Feature", "properties": {"cultura": "Soja", "classe_id": 39, "area_ha": 0.12}, "geometry": {"type": "Polygon", "coordinates": [[[-51.14144845103802, -29.964294448619167], [-51.14171794562326, -29.964294448619167], [-51.14144845103802, -29.96348596486346], [-51.14144845103802, -29.964294448619167]]]}}, {"id": "16", "type": "Feature", "properties": {"cultura": "Soja", "classe_id": 39, "area_ha": 0.43}, "geometry": {"type": "Polygon", "coordinates": [[[-51.14063996728232, -29.964563943204404], [-51.14144845103802, -29.965102932374876], [-51.14090946186755, -29.963755459448695], [-51.14063996728232, -29.964563943204404]]]}}, {"id": "17", "type": "Feature", "properties": {"cultura": "Outras Lavouras Temporárias", "classe_id": 41, "area_ha": 0.19}, "geometry": {"type": "Polygon", "coordinates": [[[-51.13444159182189, -29.965102932374876], [-51.135789064748074, -29.965102932374876], [-51.13444159182189, -29.96483343778964], [-51.13444159182189, -29.965102932374876]]]}}, {"id": "18", "type": "Feature", "properties": {"cultura": "Outras Lavouras Temporárias", "classe_id": 41, "area_ha": 0.54}, "geometry": {"type": "Polygon", "coordinates": [[[-51.129590689287646, -29.965102932374876], [-51.131477151384296, -29.965102932374876], [-51.129590689287646, -29.964563943204404], [-51.129590689287646, -29.965102932374876]]]}}, {"id": "19", "type": "Feature", "properties": {"cultura": "Outras Lavouras Temporárias", "classe_id": 41, "area_ha": 0.39}, "geometry": {"type": "Polygon", "coordinates": [[[-51.14090946186755, -29.965372426960112], [-51.14117895645279, -29.964563943204404], [-51.140100978111846, -29.965102932374876], [-51.14090946186755, -29.965372426960112]]]}}, {"id": "20", "type": "Feature", "properties": {"cultura": "Soja", "classe_id": 39, "area_ha": 0.04}, "geometry": {"type": "Polygon", "coordinates": [[[-51.14090946186755, -29.965372426960112], [-51.14117895645279, -29.965372426960112], [-51.14090946186755, -29.965102932374876], [-51.14090946186755, -29.965372426960112]]]}}, {"id": "21", "type": "Feature", "properties": {"cultura": "Outras Lavouras Temporárias", "classe_id": 41, "area_ha": 0.04}, "geometry": {"type": "Polygon", "coordinates": [[[-51.1495332885951, -29.96564192154535], [-51.149802783180334, -29.96564192154535], [-51.1495332885951, -29.965372426960112], [-51.1495332885951, -29.96564192154535]]]}}, {"id": "22", "type": "Feature", "properties": {"cultura": "Soja", "classe_id": 39, "area_ha": 0.08}, "geometry": {"type": "Polygon", "coordinates": [[[-51.14117895645279, -29.965911416130584], [-51.14144845103802, -29.965911416130584], [-51.14117895645279, -29.965372426960112], [-51.14117895645279, -29.965911416130584]]]}}, {"id": "23", "type": "Feature", "properties": {"cultura": "Soja", "classe_id": 39, "area_ha": 0.31}, "geometry": {"type": "Polygon", "coordinates": [[[-51.108839606224485, -29.965911416130584], [-51.10991758456543, -29.96564192154535], [-51.108839606224485, -29.965372426960112], [-51.108839606224485, -29.965911416130584]]]}}, {"id": "24", "type": "Feature", "properties": {"cultura": "Arroz", "classe_id": 40, "area_ha": 0.04}, "geometry": {"type": "Polygon", "coordinates": [[[-51.09374790945128, -29.965911416130584], [-51.094017404036514, -29.965911416130584], [-51.09374790945128, -29.96564192154535], [-51.09374790945128, -29.965911416130584]]]}}, {"id": "25", "type": "Feature", "properties": {"cultura": "Arroz", "classe_id": 40, "area_ha": 1.01}, "geometry": {"type": "Polygon", "coordinates": [[[-51.10964808998019, -29.965911416130584], [-51.11018707915066, -29.96725888905676], [-51.1104565737359, -29.96725888905676], [-51.1104565737359, -29.965372426960112], [-51.10964808998019, -29.965911416130584]]]}}, {"id": "26", "type": "Feature", "properties": {"cultura": "Outras Lavouras Temporárias", "classe_id": 41, "area_ha": 2.14}, "geometry": {"type": "Polygon", "coordinates": [[[-51.14899429942463, -29.966989394471526], [-51.152228234447456, -29.96671989988629], [-51.15034177235081, -29.96564192154535], [-51.14899429942463, -29.966989394471526]]]}}, {"id": "27", "type": "Feature", "properties": {"cultura": "Soja", "classe_id": 39, "area_ha": 0.23}, "geometry": {"type": "Polygon", "coordinates": [[[-51.11207354124732, -29.966450405301053], [-51.11126505749161, -29.96725888905676], [-51.11207354124732, -29.966989394471526], [-51.11207354124732, -29.966450405301053]]]}}, {"id": "28", "type": "Feature", "properties": {"cultura": "Arroz", "classe_id": 40, "area_ha": 156.38}, "geometry": {"type": "Polygon", "coordinates": [[[-51.12689574343529, -29.95971304067016], [-51.127434732605764, -29.958096073158742], [-51.12581776509435, -29.957287589403037], [-51.12420079758293, -29.958096073158742], [-51.125278775923874, -29.95890455691445], [-51.1247397867534, -29.961060513596337], [-51.12258383007151, -29.9607910190111], [-51.12177534631581, -29.961868997352045], [-51.11827191670774, -29.961868997352045], [-51.11692444378156, -29.9607910190111], [-51.11611596002585, -29.96159950276681], [-51.11638545461109, -29.960521524425864], [-51.11396000334397, -29.961060513596337], [-51.11611596002585, -29.96483343778964], [-51.11692444378156, -29.964563943204404], [-51.11611596002585, -29.962677481107754], [-51.116654949196324, -29.96348596486346], [-51.11988888421916, -29.963216470278226], [-51.12042787338963, -29.963755459448695], [-51.12231433548628, -29.96402495403393], [-51.12150585173057, -29.964563943204404], [-51.11881090587821, -29.963755459448695], [-51.11800242212251, -29.964563943204404], [-51.117463432952036, -29.963755459448695], [-51.11800242212251, -29.965102932374876], [-51.117193938366796, -29.965372426960112], [-51.11881090587821, -29.967528383641998], [-51.13228563514001, -29.96671989988629], [-51.13713653767425, -29.96725888905676], [-51.13713653767425, -29.96671989988629], [-51.1390229997709, -29.96671989988629], [-51.13929249435614, -29.965911416130584], [-51.139561988941374, -29.966989394471526], [-51.14144845103802, -29.966450405301053], [-51.14117895645279, -29.965372426960112], [-51.140100978111846, -29.965102932374876], [-51.14063996728232, -29.961060513596337], [-51.139831483526606, -29.961330008181573], [-51.13848401060043, -29.95971304067016], [-51.13686704308901, -29.961060513596337], [-51.135519570162835, -29.960521524425864], [-51.133633108066185, -29.961868997352045], [-51.13120765679906, -29.96159950276681], [-51.13120765679906, -29.964563943204404], [-51.13794502142996, -29.965102932374876], [-51.12797372177623, -29.965102932374876], [-51.12797372177623, -29.964563943204404], [-51.13093816221382, -29.964563943204404], [-51.13120765679906, -29.959443546084923], [-51.129051700117174, -29.958096073158742], [-51.129590689287646, -29.959443546084923], [-51.12689574343529, -29.95971304067016]], [[-51.125278775923874, -29.958635062329215], [-51.12662624885005, -29.959174051499687], [-51.125278775923874, -29.95890455691445], [-51.125278775923874, -29.958635062329215]], [[-51.129860183872886, -29.95971304067016], [-51.129590689287646, -29.95971304067016], [-51.129590689287646, -29.959443546084923], [-51.129860183872886, -29.95971304067016]], [[-51.12662624885005, -29.96159950276681], [-51.125009281338635, -29.961330008181573], [-51.125009281338635, -29.961060513596337], [-51.12635675426482, -29.9607910190111], [-51.12662624885005, -29.96159950276681]], [[-51.123392313827225, -29.962677481107754], [-51.123392313827225, -29.961330008181573], [-51.12366180841246, -29.962677481107754], [-51.123392313827225, -29.962677481107754]], [[-51.12689574343529, -29.961868997352045], [-51.12689574343529, -29.96159950276681], [-51.12878220553194, -29.96213849193728], [-51.12689574343529, -29.961868997352045]], [[-51.11584646544062, -29.961868997352045], [-51.11584646544062, -29.96159950276681], [-51.11611596002585, -29.961868997352045], [-51.11584646544062, -29.961868997352045]], [[-51.127165238020524, -29.962407986522518], [-51.12635675426482, -29.96348596486346], [-51.12662624885005, -29.962407986522518], [-51.127165238020524, -29.962407986522518]], [[-51.12042787338963, -29.96348596486346], [-51.12042787338963, -29.963216470278226], [-51.12069736797486, -29.96348596486346], [-51.12042787338963, -29.96348596486346]], [[-51.12366180841246, -29.96483343778964], [-51.12689574343529, -29.964563943204404], [-51.127165238020524, -29.965102932374876], [-51.11854141129297, -29.965102932374876], [-51.123122819241985, -29.96483343778964], [-51.12366180841246, -29.96348596486346], [-51.12366180841246, -29.96483343778964]], [[-51.139561988941374, -29.965911416130584], [-51.139561988941374, -29.965372426960112], [-51.139831483526606, -29.965911416130584], [-51.139561988941374, -29.965911416130584]]]}}, {"id": "29", "type": "Feature", "properties": {"cultura": "Soja", "classe_id": 39, "area_ha": 0.04}, "geometry": {"type": "Polygon", "coordinates": [[[-51.110995562906375, -29.967528383641998], [-51.11126505749161, -29.967528383641998], [-51.110995562906375, -29.96725888905676], [-51.110995562906375, -29.967528383641998]]]}}, {"id": "30", "type": "Feature", "properties": {"cultura": "Soja", "classe_id": 39, "area_ha": 3.03}, "geometry": {"type": "Polygon", "coordinates": [[[-51.09320892028081, -29.966450405301053], [-51.094556393206986, -29.966450405301053], [-51.09482588779222, -29.967528383641998], [-51.09590386613316, -29.967797878227234], [-51.0961733607184, -29.966450405301053], [-51.09320892028081, -29.96564192154535], [-51.09320892028081, -29.966450405301053]]]}}, {"id": "31", "type": "Feature", "properties": {"cultura": "Arroz", "classe_id": 40, "area_ha": 0.12}, "geometry": {"type": "Polygon", "coordinates": [[[-51.13228563514001, -29.96806737281247], [-51.13309411889571, -29.96806737281247], [-51.13228563514001, -29.967797878227234], [-51.13228563514001, -29.96806737281247]]]}}, {"id": "32", "type": "Feature", "properties": {"cultura": "Arroz", "classe_id": 40, "area_ha": 0.08}, "geometry": {"type": "Polygon", "coordinates": [[[-51.10803112246878, -29.96806737281247], [-51.10857011163925, -29.96806737281247], [-51.10803112246878, -29.967797878227234], [-51.10803112246878, -29.96806737281247]]]}}, {"id": "33", "type": "Feature", "properties": {"cultura": "Outras Lavouras Temporárias", "classe_id": 41, "area_ha": 0.08}, "geometry": {"type": "Polygon", "coordinates": [[[-51.13093816221382, -29.96941484573865], [-51.13120765679906, -29.96941484573865], [-51.13093816221382, -29.96887585656818], [-51.13093816221382, -29.96941484573865]]]}}, {"id": "34", "type": "Feature", "properties": {"cultura": "Outras Lavouras Temporárias", "classe_id": 41, "area_ha": 0.23}, "geometry": {"type": "Polygon", "coordinates": [[[-51.13012967845812, -29.96941484573865], [-51.13066866762859, -29.96941484573865], [-51.13012967845812, -29.968606361982943], [-51.13012967845812, -29.96941484573865]]]}}, {"id": "35", "type": "Feature", "properties": {"cultura": "Arroz", "classe_id": 40, "area_ha": 0.58}, "geometry": {"type": "Polygon", "coordinates": [[[-51.11234303583255, -29.96887585656818], [-51.112612530417785, -29.969684340323884], [-51.11315151958826, -29.969684340323884], [-51.11315151958826, -29.96887585656818], [-51.11234303583255, -29.96887585656818]]]}}, {"id": "36", "type": "Feature", "properties": {"cultura": "Outras Lavouras Temporárias", "classe_id": 41, "area_ha": 0.04}, "geometry": {"type": "Polygon", "coordinates": [[[-51.13066866762859, -29.969684340323884], [-51.13093816221382, -29.969684340323884], [-51.13066866762859, -29.96941484573865], [-51.13066866762859, -29.969684340323884]]]}}, {"id": "37", "type": "Feature", "properties": {"cultura": "Outras Lavouras Temporárias", "classe_id": 41, "area_ha": 0.08}, "geometry": {"type": "Polygon", "coordinates": [[[-51.129590689287646, -29.969684340323884], [-51.13012967845812, -29.969684340323884], [-51.129590689287646, -29.96941484573865], [-51.129590689287646, -29.969684340323884]]]}}, {"id": "38", "type": "Feature", "properties": {"cultura": "Outras Lavouras Temporárias", "classe_id": 41, "area_ha": 0.08}, "geometry": {"type": "Polygon", "coordinates": [[[-51.11126505749161, -29.96995383490912], [-51.11180404666208, -29.96995383490912], [-51.11126505749161, -29.969684340323884], [-51.11126505749161, -29.96995383490912]]]}}, {"id": "39", "type": "Feature", "properties": {"cultura": "Outras Lavouras Temporárias", "classe_id": 41, "area_ha": 0.08}, "geometry": {"type": "Polygon", "coordinates": [[[-51.11018707915066, -29.96995383490912], [-51.110726068321135, -29.96995383490912], [-51.11018707915066, -29.969684340323884], [-51.11018707915066, -29.96995383490912]]]}}, {"id": "40", "type": "Feature", "properties": {"cultura": "Outras Lavouras Temporárias", "classe_id": 41, "area_ha": 0.08}, "geometry": {"type": "Polygon", "coordinates": [[[-51.110726068321135, -29.970223329494356], [-51.11126505749161, -29.970223329494356], [-51.110726068321135, -29.96995383490912], [-51.110726068321135, -29.970223329494356]]]}}, {"id": "41", "type": "Feature", "properties": {"cultura": "Outras Lavouras Temporárias", "classe_id": 41, "area_ha": 0.16}, "geometry": {"type": "Polygon", "coordinates": [[[-51.11126505749161, -29.97076231866483], [-51.11180404666208, -29.97076231866483], [-51.11126505749161, -29.970223329494356], [-51.11126505749161, -29.97076231866483]]]}}, {"id": "42", "type": "Feature", "properties": {"cultura": "Soja", "classe_id": 39, "area_ha": 0.04}, "geometry": {"type": "Polygon", "coordinates": [[[-51.08835801774656, -29.971031813250065], [-51.0886275123318, -29.971031813250065], [-51.08835801774656, -29.97076231866483], [-51.08835801774656, -29.971031813250065]]]}}, {"id": "43", "type": "Feature", "properties": {"cultura": "Outras Lavouras Temporárias", "classe_id": 41, "area_ha": 14.67}, "geometry": {"type": "Polygon", "coordinates": [[[-51.127165238020524, -29.971570802420537], [-51.12689574343529, -29.972648780761478], [-51.129051700117174, -29.972379286176245], [-51.129590689287646, -29.971570802420537], [-51.13471108640713, -29.97210979159101], [-51.13417209723666, -29.96941484573865], [-51.13471108640713, -29.968336867397706], [-51.13282462431048, -29.968606361982943], [-51.13336361348095, -29.969684340323884], [-51.13066866762859, -29.970223329494356], [-51.13066866762859, -29.9713013078353], [-51.129051700117174, -29.9713013078353], [-51.12932119470241, -29.970492824079592], [-51.1285127109467, -29.969684340323884], [-51.129590689287646, -29.969145351153415], [-51.1285127109467, -29.968606361982943], [-51.12824321636147, -29.971031813250065], [-51.127165238020524, -29.971570802420537]], [[-51.12797372177623, -29.971840297005773], [-51.127434732605764, -29.971840297005773], [-51.127434732605764, -29.971570802420537], [-51.12797372177623, -29.971840297005773]], [[-51.13201614055477, -29.970492824079592], [-51.13228563514001, -29.971570802420537], [-51.131477151384296, -29.971031813250065], [-51.13201614055477, -29.970492824079592]]]}}, {"id": "44", "type": "Feature", "properties": {"cultura": "Outras Lavouras Temporárias", "classe_id": 41, "area_ha": 9.39}, "geometry": {"type": "Polygon", "coordinates": [[[-51.12447029216817, -29.96887585656818], [-51.1239313029977, -29.971031813250065], [-51.123392313827225, -29.971031813250065], [-51.123392313827225, -29.96887585656818], [-51.12231433548628, -29.969145351153415], [-51.12231433548628, -29.971570802420537], [-51.12447029216817, -29.972379286176245], [-51.12420079758293, -29.972918275346714], [-51.12662624885005, -29.972648780761478], [-51.125009281338635, -29.971840297005773], [-51.12554827050911, -29.969145351153415], [-51.12635675426482, -29.96887585656818], [-51.12447029216817, -29.96887585656818]]]}}, {"id": "45", "type": "Feature", "properties": {"cultura": "Soja", "classe_id": 39, "area_ha": 0.78}, "geometry": {"type": "Polygon", "coordinates": [[[-51.092130941939864, -29.97318776993195], [-51.09374790945128, -29.972648780761478], [-51.092669931110336, -29.97210979159101], [-51.092130941939864, -29.97318776993195]]]}}, {"id": "46", "type": "Feature", "properties": {"cultura": "Soja", "classe_id": 39, "area_ha": 2.82}, "geometry": {"type": "Polygon", "coordinates": [[[-51.08754953399085, -29.97318776993195], [-51.0886275123318, -29.972918275346714], [-51.08781902857609, -29.974265748272895], [-51.08889700691703, -29.973457264517187], [-51.08835801774656, -29.971031813250065], [-51.087022784320474, -29.97209999999093], [-51.08754953399085, -29.97318776993195]]]}}, {"id": "47", "type": "Feature", "properties": {"cultura": "Soja", "classe_id": 39, "area_ha": 0.78}, "geometry": {"type": "Polygon", "coordinates": [[[-51.09078346901369, -29.973726759102423], [-51.08970549067274, -29.974804737443367], [-51.092130941939864, -29.973726759102423], [-51.09078346901369, -29.973726759102423]]]}}, {"id": "48", "type": "Feature", "properties": {"cultura": "Arroz", "classe_id": 40, "area_ha": 0.08}, "geometry": {"type": "Polygon", "coordinates": [[[-51.1142294979292, -29.974804737443367], [-51.11449899251444, -29.974804737443367], [-51.1142294979292, -29.974265748272895], [-51.1142294979292, -29.974804737443367]]]}}, {"id": "49", "type": "Feature", "properties": {"cultura": "Outras Lavouras Temporárias", "classe_id": 41, "area_ha": 0.12}, "geometry": {"type": "Polygon", "coordinates": [[[-51.08835801774656, -29.975074232028604], [-51.0886275123318, -29.975074232028604], [-51.088088523161325, -29.974265748272895], [-51.08835801774656, -29.975074232028604]]]}}, {"id": "50", "type": "Feature", "properties": {"cultura": "Outras Lavouras Temporárias", "classe_id": 41, "area_ha": 1.24}, "geometry": {"type": "Polygon", "coordinates": [[[-51.16166054493071, -29.97453524285813], [-51.16166054493071, -29.975613221199072], [-51.162469028686424, -29.975613221199072], [-51.163008017856896, -29.97453524285813], [-51.16166054493071, -29.97453524285813]]]}}, {"id": "51", "type": "Feature", "properties": {"cultura": "Arroz", "classe_id": 40, "area_ha": 0.04}, "geometry": {"type": "Polygon", "coordinates": [[[-51.11396000334397, -29.97723018871049], [-51.1142294979292, -29.97723018871049], [-51.11396000334397, -29.976960694125253], [-51.11396000334397, -29.97723018871049]]]}}, {"id": "52", "type": "Feature", "properties": {"cultura": "Arroz", "classe_id": 40, "area_ha": 0.12}, "geometry": {"type": "Polygon", "coordinates": [[[-51.11315151958826, -29.977499683295726], [-51.11396000334397, -29.977499683295726], [-51.11315151958826, -29.97723018871049], [-51.11315151958826, -29.977499683295726]]]}}, {"id": "53", "type": "Feature", "properties": {"cultura": "Arroz", "classe_id": 40, "area_ha": 0.08}, "geometry": {"type": "Polygon", "coordinates": [[[-51.11180404666208, -29.977769177880962], [-51.11234303583255, -29.977769177880962], [-51.11180404666208, -29.977499683295726], [-51.11180404666208, -29.977769177880962]]]}}, {"id": "54", "type": "Feature", "properties": {"cultura": "Outras Lavouras Temporárias", "classe_id": 41, "area_ha": 0.23}, "geometry": {"type": "Polygon", "coordinates": [[[-51.0924004365251, -29.977769177880962], [-51.09320892028081, -29.977769177880962], [-51.0924004365251, -29.97723018871049], [-51.0924004365251, -29.977769177880962]]]}}, {"id": "55", "type": "Feature", "properties": {"cultura": "Soja", "classe_id": 39, "area_ha": 1.24}, "geometry": {"type": "Polygon", "coordinates": [[[-51.0886275123318, -29.978308167051434], [-51.08970549067274, -29.978577661636667], [-51.0886275123318, -29.976152210369545], [-51.0886275123318, -29.978308167051434]]]}}, {"id": "56", "type": "Feature", "properties": {"cultura": "Outras Lavouras Temporárias", "classe_id": 41, "area_ha": 0.31}, "geometry": {"type": "Polygon", "coordinates": [[[-51.09428689862175, -29.978847156221903], [-51.09482588779222, -29.978847156221903], [-51.094556393206986, -29.977769177880962], [-51.09428689862175, -29.978847156221903]]]}}, {"id": "57", "type": "Feature", "properties": {"cultura": "Arroz", "classe_id": 40, "area_ha": 0.04}, "geometry": {"type": "Polygon", "coordinates": [[[-51.096712349888875, -29.97911665080714], [-51.09698184447411, -29.97911665080714], [-51.096712349888875, -29.978847156221903], [-51.096712349888875, -29.97911665080714]]]}}, {"id": "58", "type": "Feature", "properties": {"cultura": "Arroz", "classe_id": 40, "area_ha": 0.04}, "geometry": {"type": "Polygon", "coordinates": [[[-51.0961733607184, -29.97911665080714], [-51.096442855303636, -29.97911665080714], [-51.0961733607184, -29.978847156221903], [-51.0961733607184, -29.97911665080714]]]}}, {"id": "59", "type": "Feature", "properties": {"cultura": "Soja", "classe_id": 39, "area_ha": 0.97}, "geometry": {"type": "Polygon", "coordinates": [[[-51.08916650150227, -29.97965563997761], [-51.092669931110336, -29.979386145392375], [-51.0894359960875, -29.97911665080714], [-51.08916650150227, -29.97965563997761]]]}}, {"id": "60", "type": "Feature", "properties": {"cultura": "Outras Lavouras Temporárias", "classe_id": 41, "area_ha": 0.08}, "geometry": {"type": "Polygon", "coordinates": [[[-51.117193938366796, -29.979925134562848], [-51.117463432952036, -29.979925134562848], [-51.117193938366796, -29.979386145392375], [-51.117193938366796, -29.979925134562848]]]}}, {"id": "61", "type": "Feature", "properties": {"cultura": "Outras Lavouras Temporárias", "classe_id": 41, "area_ha": 0.16}, "geometry": {"type": "Polygon", "coordinates": [[[-51.090244479843214, -29.980733618318556], [-51.09078346901369, -29.980733618318556], [-51.090244479843214, -29.980194629148084], [-51.090244479843214, -29.980733618318556]]]}}, {"id": "62", "type": "Feature", "properties": {"cultura": "Outras Lavouras Temporárias", "classe_id": 41, "area_ha": 0.04}, "geometry": {"type": "Polygon", "coordinates": [[[-51.09078346901369, -29.981003112903792], [-51.09105296359892, -29.981003112903792], [-51.09078346901369, -29.980733618318556], [-51.09078346901369, -29.981003112903792]]]}}, {"id": "63", "type": "Feature", "properties": {"cultura": "Outras Lavouras Temporárias", "classe_id": 41, "area_ha": 0.08}, "geometry": {"type": "Polygon", "coordinates": [[[-51.089974985257975, -29.98127260748903], [-51.090244479843214, -29.98127260748903], [-51.089974985257975, -29.980733618318556], [-51.089974985257975, -29.98127260748903]]]}}, {"id": "64", "type": "Feature", "properties": {"cultura": "Outras Lavouras Temporárias", "classe_id": 41, "area_ha": 0.47}, "geometry": {"type": "Polygon", "coordinates": [[[-51.0894359960875, -29.98235058582997], [-51.09105296359892, -29.98235058582997], [-51.089974985257975, -29.981811596659497], [-51.0894359960875, -29.98235058582997]]]}}, {"id": "65", "type": "Feature", "properties": {"cultura": "Outras Lavouras Temporárias", "classe_id": 41, "area_ha": 0.04}, "geometry": {"type": "Polygon", "coordinates": [[[-51.092130941939864, -29.98369805875615], [-51.0924004365251, -29.98369805875615], [-51.092130941939864, -29.983428564170914], [-51.092130941939864, -29.98369805875615]]]}}, {"id": "66", "type": "Feature", "properties": {"cultura": "Arroz", "classe_id": 40, "area_ha": 0.13}, "geometry": {"type": "Polygon", "coordinates": [[[-51.098598811985525, -29.985433333324252], [-51.097915542080955, -29.985045531682328], [-51.097915542080955, -29.985398502168326], [-51.098598811985525, -29.985433333324252]]]}}, {"id": "67", "type": "Feature", "properties": {"cultura": "Arroz", "classe_id": 40, "area_ha": 0.08}, "geometry": {"type": "Polygon", "coordinates": [[[-51.11234303583255, -30.085567011975304], [-51.112612530417785, -30.085567011975304], [-51.11234303583255, -30.08502802280483], [-51.11234303583255, -30.085567011975304]]]}}, {"id": "68", "type": "Feature", "properties": {"cultura": "Arroz", "classe_id": 40, "area_ha": 0.0}, "geometry": {"type": "Polygon", "coordinates": [[[-51.112082208786745, -30.086384163270438], [-51.11207354124732, -30.08664499031625], [-51.112082208786745, -30.08664499031625], [-51.112082208786745, -30.086384163270438]]]}}, {"id": "69", "type": "Feature", "properties": {"cultura": "Arroz", "classe_id": 40, "area_ha": 0.04}, "geometry": {"type": "Polygon", "coordinates": [[[-51.11180404666208, -30.086914484901484], [-51.11207354124732, -30.086914484901484], [-51.11180404666208, -30.08664499031625], [-51.11180404666208, -30.086914484901484]]]}}, {"id": "70", "type": "Feature", "properties": {"cultura": "Outras Lavouras Temporárias", "classe_id": 41, "area_ha": 0.19}, "geometry": {"type": "Polygon", "coordinates": [[[-51.222835815779256, -30.166684882131296], [-51.22418328870543, -30.166684882131296], [-51.222835815779256, -30.16641538754606], [-51.222835815779256, -30.166684882131296]]]}}, {"id": "71", "type": "Feature", "properties": {"cultura": "Outras Lavouras Temporárias", "classe_id": 41, "area_ha": 0.04}, "geometry": {"type": "Polygon", "coordinates": [[[-51.224452783290666, -30.16722387130177], [-51.224722277875905, -30.16722387130177], [-51.224452783290666, -30.166954376716532], [-51.224452783290666, -30.16722387130177]]]}}, {"id": "72", "type": "Feature", "properties": {"cultura": "Outras Lavouras Temporárias", "classe_id": 41, "area_ha": 0.08}, "geometry": {"type": "Polygon", "coordinates": [[[-51.21744592407454, -30.174500225103134], [-51.217984913245004, -30.174500225103134], [-51.21744592407454, -30.174230730517902], [-51.21744592407454, -30.174500225103134]]]}}, {"id": "73", "type": "Feature", "properties": {"cultura": "Outras Lavouras Temporárias", "classe_id": 41, "area_ha": 0.19}, "geometry": {"type": "Polygon", "coordinates": [[[-51.20046776520468, -30.17692567637026], [-51.20100675437515, -30.176656181785024], [-51.20073725978991, -30.17611719261455], [-51.20046776520468, -30.17692567637026]]]}}, {"id": "74", "type": "Feature", "properties": {"cultura": "Outras Lavouras Temporárias", "classe_id": 41, "area_ha": 0.23}, "geometry": {"type": "Polygon", "coordinates": [[[-51.21879339700072, -30.177195170955496], [-51.21960188075642, -30.177195170955496], [-51.21879339700072, -30.176656181785024], [-51.21879339700072, -30.177195170955496]]]}}, {"id": "75", "type": "Feature", "properties": {"cultura": "Outras Lavouras Temporárias", "classe_id": 41, "area_ha": 0.58}, "geometry": {"type": "Polygon", "coordinates": [[[-51.20046776520468, -30.17692567637026], [-51.1991202922785, -30.1780036547112], [-51.20046776520468, -30.177734160125965], [-51.20046776520468, -30.17692567637026]]]}}, {"id": "76", "type": "Feature", "properties": {"cultura": "Arroz", "classe_id": 40, "area_ha": 0.03}, "geometry": {"type": "Polygon", "coordinates": [[[-51.24439538259812, -30.183124051830685], [-51.24466487718336, -30.183124051830685], [-51.244474158676745, -30.182933333324073], [-51.24439538259812, -30.183124051830685]]]}}, {"id": "77", "type": "Feature", "properties": {"cultura": "Arroz", "classe_id": 40, "area_ha": 0.04}, "geometry": {"type": "Polygon", "coordinates": [[[-51.24466487718336, -30.18339354641592], [-51.24493437176859, -30.18339354641592], [-51.24466487718336, -30.183124051830685], [-51.24466487718336, -30.18339354641592]]]}}, {"id": "78", "type": "Feature", "properties": {"cultura": "Arroz", "classe_id": 40, "area_ha": 0.05}, "geometry": {"type": "Polygon", "coordinates": [[[-51.24510024069758, -30.183766666657405], [-51.2454155424883, -30.183766666657405], [-51.2454155424883, -30.183451364866684], [-51.24510024069758, -30.183766666657405]]]}}, {"id": "79", "type": "Feature", "properties": {"cultura": "Arroz", "classe_id": 40, "area_ha": 0.66}, "geometry": {"type": "Polygon", "coordinates": [[[-51.24709032845048, -30.186896976023984], [-51.247359823035715, -30.185549503097807], [-51.24708220915957, -30.186266666657403], [-51.2454155424883, -30.186266666657403], [-51.24709032845048, -30.186896976023984]]]}}, {"id": "80", "type": "Feature", "properties": {"cultura": "Arroz", "classe_id": 40, "area_ha": 1.36}, "geometry": {"type": "Polygon", "coordinates": [[[-51.243317404257176, -30.188244448950165], [-51.243520428223924, -30.187099999990735], [-51.242082209145764, -30.187278748423985], [-51.242082209145764, -30.188038583098262], [-51.243317404257176, -30.188244448950165]]]}}, {"id": "80", "type": "Feature", "properties": {"cultura": "Arroz", "classe_id": 40, "area_ha": 0.27}, "geometry": {"type": "Polygon", "coordinates": [[[-51.24124887581013, -30.189599999990733], [-51.24185877920426, -30.1887666666574], [-51.24124887581013, -30.1887666666574], [-51.24124887581013, -30.189599999990733]]]}}, {"id": "80", "type": "Feature", "properties": {"cultura": "Arroz", "classe_id": 40, "area_ha": 0.01}, "geometry": {"type": "Polygon", "coordinates": [[[-51.240415542474494, -30.189670852255354], [-51.240415542474494, -30.189599999990733], [-51.24023841181294, -30.189599999990733], [-51.240415542474494, -30.189670852255354]]]}}, {"id": "81", "type": "Feature", "properties": {"cultura": "Outras Lavouras Temporárias", "classe_id": 41, "area_ha": 0.04}, "geometry": {"type": "Polygon", "coordinates": [[[-51.1886100034543, -30.19309535148441], [-51.18887949803953, -30.19309535148441], [-51.1886100034543, -30.192825856899173], [-51.1886100034543, -30.19309535148441]]]}}, {"id": "82", "type": "Feature", "properties": {"cultura": "Outras Lavouras Temporárias", "classe_id": 41, "area_ha": 0.04}, "geometry": {"type": "Polygon", "coordinates": [[[-51.18726253052812, -30.19309535148441], [-51.187532025113356, -30.19309535148441], [-51.18726253052812, -30.192825856899173], [-51.18726253052812, -30.19309535148441]]]}}, {"id": "83", "type": "Feature", "properties": {"cultura": "Outras Lavouras Temporárias", "classe_id": 41, "area_ha": 0.04}, "geometry": {"type": "Polygon", "coordinates": [[[-51.19453888432949, -30.19552080275153], [-51.19480837891472, -30.19552080275153], [-51.19453888432949, -30.1952513081663], [-51.19453888432949, -30.19552080275153]]]}}, {"id": "84", "type": "Feature", "properties": {"cultura": "Outras Lavouras Temporárias", "classe_id": 41, "area_ha": 0.04}, "geometry": {"type": "Polygon", "coordinates": [[[-51.19480837891472, -30.196059791922004], [-51.19507787349996, -30.196059791922004], [-51.19480837891472, -30.195790297336767], [-51.19480837891472, -30.196059791922004]]]}}, {"id": "85", "type": "Feature", "properties": {"cultura": "Outras Lavouras Temporárias", "classe_id": 41, "area_ha": 0.04}, "geometry": {"type": "Polygon", "coordinates": [[[-51.19453888432949, -30.196598781092476], [-51.19480837891472, -30.196598781092476], [-51.19453888432949, -30.19632928650724], [-51.19453888432949, -30.196598781092476]]]}}, {"id": "86", "type": "Feature", "properties": {"cultura": "Outras Lavouras Temporárias", "classe_id": 41, "area_ha": 0.0}, "geometry": {"type": "Polygon", "coordinates": [[[-51.150421540241005, -30.213766666657378], [-51.15041554222594, -30.213766666657378], [-51.15041554222594, -30.21377266467244], [-51.150421540241005, -30.213766666657378]]]}}, {"id": "87", "type": "Feature", "properties": {"cultura": "Outras Lavouras Temporárias", "classe_id": 41, "area_ha": 0.63}, "geometry": {"type": "Polygon", "coordinates": [[[-51.149802783180334, -30.215463402058987], [-51.14997546359399, -30.21459999999071], [-51.14958220889031, -30.214442641716314], [-51.149004322336275, -30.215433333324043], [-51.149802783180334, -30.215463402058987]]]}}, {"id": "88", "type": "Feature", "properties": {"cultura": "Outras Lavouras Temporárias", "classe_id": 41, "area_ha": 0.93}, "geometry": {"type": "Polygon", "coordinates": [[[-51.15303671820317, -30.21519390747375], [-51.15465368571458, -30.216271885814695], [-51.15384520195887, -30.214654918303278], [-51.15303671820317, -30.21519390747375]]]}}, {"id": "89", "type": "Feature", "properties": {"cultura": "Outras Lavouras Temporárias", "classe_id": 41, "area_ha": 0.08}, "geometry": {"type": "Polygon", "coordinates": [[[-51.149802783180334, -30.216271885814695], [-51.150072277765574, -30.216271885814695], [-51.149802783180334, -30.215732896644223], [-51.149802783180334, -30.216271885814695]]]}}, {"id": "90", "type": "Feature", "properties": {"cultura": "Outras Lavouras Temporárias", "classe_id": 41, "area_ha": 0.0}, "geometry": {"type": "Polygon", "coordinates": [[[-51.143748875540865, -30.216271885814695], [-51.14441289147562, -30.216266666657376], [-51.143748875540865, -30.216266666657376], [-51.143748875540865, -30.216271885814695]]]}}, {"id": "91", "type": "Feature", "properties": {"cultura": "Outras Lavouras Temporárias", "classe_id": 41, "area_ha": 0.04}, "geometry": {"type": "Polygon", "coordinates": [[[-51.15411469654411, -30.21654138039993], [-51.154384191129346, -30.21654138039993], [-51.15411469654411, -30.216271885814695], [-51.15411469654411, -30.21654138039993]]]}}, {"id": "92", "type": "Feature", "properties": {"cultura": "Outras Lavouras Temporárias", "classe_id": 41, "area_ha": 0.08}, "geometry": {"type": "Polygon", "coordinates": [[[-51.14441289147562, -30.216810874985164], [-51.14468238606086, -30.216810874985164], [-51.14441289147562, -30.216271885814695], [-51.14441289147562, -30.216810874985164]]]}}, {"id": "93", "type": "Feature", "properties": {"cultura": "Outras Lavouras Temporárias", "classe_id": 41, "area_ha": 0.04}, "geometry": {"type": "Polygon", "coordinates": [[[-51.15411469654411, -30.2170803695704], [-51.154384191129346, -30.2170803695704], [-51.15411469654411, -30.216810874985164], [-51.15411469654411, -30.2170803695704]]]}}, {"id": "94", "type": "Feature", "properties": {"cultura": "Outras Lavouras Temporárias", "classe_id": 41, "area_ha": 0.46}, "geometry": {"type": "Polygon", "coordinates": [[[-51.14629935357227, -30.217619358740873], [-51.14629935357227, -30.2170803695704], [-51.14468238606086, -30.2170803695704], [-51.14629935357227, -30.217619358740873]]]}}, {"id": "95", "type": "Feature", "properties": {"cultura": "Outras Lavouras Temporárias", "classe_id": 41, "area_ha": 0.03}, "geometry": {"type": "Polygon", "coordinates": [[[-51.147082208883404, -30.21739863738377], [-51.14683834274274, -30.217619358740873], [-51.147082208883404, -30.217619358740873], [-51.147082208883404, -30.21739863738377]]]}}, {"id": "95", "type": "Feature", "properties": {"cultura": "Outras Lavouras Temporárias", "classe_id": 41, "area_ha": 0.01}, "geometry": {"type": "Polygon", "coordinates": [[[-51.148185815668924, -30.217619358740873], [-51.14791554221904, -30.217565304050897], [-51.14791554221904, -30.217619358740873], [-51.148185815668924, -30.217619358740873]]]}}, {"id": "96", "type": "Feature", "properties": {"cultura": "Outras Lavouras Temporárias", "classe_id": 41, "area_ha": 0.23}, "geometry": {"type": "Polygon", "coordinates": [[[-51.152228234447456, -30.217349864155636], [-51.15195873986222, -30.21788885332611], [-51.15303671820317, -30.217349864155636], [-51.152228234447456, -30.217349864155636]]]}}, {"id": "97", "type": "Feature", "properties": {"cultura": "Outras Lavouras Temporárias", "classe_id": 41, "area_ha": 0.04}, "geometry": {"type": "Polygon", "coordinates": [[[-51.150611266936046, -30.21788885332611], [-51.15088076152128, -30.21788885332611], [-51.150611266936046, -30.217619358740873], [-51.150611266936046, -30.21788885332611]]]}}, {"id": "98", "type": "Feature", "properties": {"cultura": "Outras Lavouras Temporárias", "classe_id": 41, "area_ha": 0.27}, "geometry": {"type": "Polygon", "coordinates": [[[-51.14306541854944, -30.218158347911345], [-51.144143396890385, -30.218158347911345], [-51.144143396890385, -30.217349864155636], [-51.143873902305145, -30.21788885332611], [-51.14306541854944, -30.218158347911345]]]}}, {"id": "99", "type": "Feature", "properties": {"cultura": "Outras Lavouras Temporárias", "classe_id": 41, "area_ha": 0.08}, "geometry": {"type": "Polygon", "coordinates": [[[-51.15088076152128, -30.21842784249658], [-51.15115025610652, -30.21842784249658], [-51.15088076152128, -30.21788885332611], [-51.15088076152128, -30.21842784249658]]]}}, {"id": "100", "type": "Feature", "properties": {"cultura": "Soja", "classe_id": 39, "area_ha": 0.04}, "geometry": {"type": "Polygon", "coordinates": [[[-51.15465368571458, -30.21842784249658], [-51.15492318029982, -30.21842784249658], [-51.15465368571458, -30.218158347911345], [-51.15465368571458, -30.21842784249658]]]}}, {"id": "101", "type": "Feature", "properties": {"cultura": "Soja", "classe_id": 39, "area_ha": 14.58}, "geometry": {"type": "Polygon", "coordinates": [[[-51.15465368571458, -30.218158347911345], [-51.153155433958524, -30.21459999999071], [-51.15046435245527, -30.213766666657378], [-51.149802783180334, -30.214924412888514], [-51.150072277765574, -30.216810874985164], [-51.15141975069175, -30.21788885332611], [-51.15115025610652, -30.218697337081817], [-51.15276722361793, -30.21788885332611], [-51.15465368571458, -30.218158347911345]], [[-51.15195873986222, -30.21788885332611], [-51.152228234447456, -30.217349864155636], [-51.15303671820317, -30.217349864155636], [-51.15276722361793, -30.21788885332611], [-51.15195873986222, -30.21788885332611]]]}}, {"id": "102", "type": "Feature", "properties": {"cultura": "Outras Lavouras Temporárias", "classe_id": 41, "area_ha": 0.04}, "geometry": {"type": "Polygon", "coordinates": [[[-51.160313072004534, -30.218697337081817], [-51.160582566589774, -30.218697337081817], [-51.160313072004534, -30.21842784249658], [-51.160313072004534, -30.218697337081817]]]}}, {"id": "103", "type": "Feature", "properties": {"cultura": "Soja", "classe_id": 39, "area_ha": 0.04}, "geometry": {"type": "Polygon", "coordinates": [[[-51.15195873986222, -30.218697337081817], [-51.152228234447456, -30.218697337081817], [-51.15195873986222, -30.21842784249658], [-51.15195873986222, -30.218697337081817]]]}}, {"id": "104", "type": "Feature", "properties": {"cultura": "Outras Lavouras Temporárias", "classe_id": 41, "area_ha": 0.93}, "geometry": {"type": "Polygon", "coordinates": [[[-51.15465368571458, -30.218158347911345], [-51.156270653225995, -30.218966831667053], [-51.15465368571458, -30.2170803695704], [-51.15465368571458, -30.218158347911345]]]}}, {"id": "105", "type": "Feature", "properties": {"cultura": "Soja", "classe_id": 39, "area_ha": 0.15}, "geometry": {"type": "Polygon", "coordinates": [[[-51.1533062127884, -30.218966831667053], [-51.15384520195887, -30.218966831667053], [-51.1533062127884, -30.21842784249658], [-51.1533062127884, -30.218966831667053]]]}}, {"id": "106", "type": "Feature", "properties": {"cultura": "Outras Lavouras Temporárias", "classe_id": 41, "area_ha": 0.08}, "geometry": {"type": "Polygon", "coordinates": [[[-51.150611266936046, -30.218966831667053], [-51.15088076152128, -30.218966831667053], [-51.150611266936046, -30.21842784249658], [-51.150611266936046, -30.218966831667053]]]}}, {"id": "107", "type": "Feature", "properties": {"cultura": "Outras Lavouras Temporárias", "classe_id": 41, "area_ha": 0.08}, "geometry": {"type": "Polygon", "coordinates": [[[-51.15977408283406, -30.218966831667053], [-51.160313072004534, -30.218966831667053], [-51.15977408283406, -30.218697337081817], [-51.15977408283406, -30.218966831667053]]]}}, {"id": "108", "type": "Feature", "properties": {"cultura": "Outras Lavouras Temporárias", "classe_id": 41, "area_ha": 0.08}, "geometry": {"type": "Polygon", "coordinates": [[[-51.15923509366359, -30.21923632625229], [-51.15977408283406, -30.21923632625229], [-51.15923509366359, -30.218966831667053], [-51.15923509366359, -30.21923632625229]]]}}, {"id": "109", "type": "Feature", "properties": {"cultura": "Outras Lavouras Temporárias", "classe_id": 41, "area_ha": 0.62}, "geometry": {"type": "Polygon", "coordinates": [[[-51.14306541854944, -30.218158347911345], [-51.14117895645279, -30.219505820837526], [-51.1427959239642, -30.218966831667053], [-51.14306541854944, -30.218158347911345]]]}}, {"id": "110", "type": "Feature", "properties": {"cultura": "Outras Lavouras Temporárias", "classe_id": 41, "area_ha": 0.15}, "geometry": {"type": "Polygon", "coordinates": [[[-51.156270653225995, -30.219505820837526], [-51.15680964239647, -30.219505820837526], [-51.156270653225995, -30.218966831667053], [-51.156270653225995, -30.219505820837526]]]}}, {"id": "111", "type": "Feature", "properties": {"cultura": "Outras Lavouras Temporárias", "classe_id": 41, "area_ha": 0.04}, "geometry": {"type": "Polygon", "coordinates": [[[-51.142256934793735, -30.219505820837526], [-51.14252642937897, -30.219505820837526], [-51.142256934793735, -30.21923632625229], [-51.142256934793735, -30.219505820837526]]]}}, {"id": "112", "type": "Feature", "properties": {"cultura": "Soja", "classe_id": 39, "area_ha": 0.04}, "geometry": {"type": "Polygon", "coordinates": [[[-51.15276722361793, -30.21977531542276], [-51.15303671820317, -30.21977531542276], [-51.15276722361793, -30.219505820837526], [-51.15276722361793, -30.21977531542276]]]}}, {"id": "113", "type": "Feature", "properties": {"cultura": "Soja", "classe_id": 39, "area_ha": 1.24}, "geometry": {"type": "Polygon", "coordinates": [[[-51.15492318029982, -30.218966831667053], [-51.156540147811235, -30.220044810007995], [-51.15680964239647, -30.219505820837526], [-51.15519267488505, -30.21842784249658], [-51.15492318029982, -30.218966831667053]]]}}, {"id": "114", "type": "Feature", "properties": {"cultura": "Outras Lavouras Temporárias", "classe_id": 41, "area_ha": 0.15}, "geometry": {"type": "Polygon", "coordinates": [[[-51.15115025610652, -30.220044810007995], [-51.151689245276984, -30.220044810007995], [-51.15115025610652, -30.219505820837526], [-51.15115025610652, -30.220044810007995]]]}}, {"id": "115", "type": "Feature", "properties": {"cultura": "Outras Lavouras Temporárias", "classe_id": 41, "area_ha": 0.04}, "geometry": {"type": "Polygon", "coordinates": [[[-51.151689245276984, -30.220583799178467], [-51.15195873986222, -30.220583799178467], [-51.151689245276984, -30.22031430459323], [-51.151689245276984, -30.220583799178467]]]}}, {"id": "116", "type": "Feature", "properties": {"cultura": "Outras Lavouras Temporárias", "classe_id": 41, "area_ha": 2.36}, "geometry": {"type": "Polygon", "coordinates": [[[-51.14845531025416, -30.21977531542276], [-51.15034177235081, -30.220853293763703], [-51.15115025610652, -30.218966831667053], [-51.14845531025416, -30.21977531542276]]]}}, {"id": "117", "type": "Feature", "properties": {"cultura": "Outras Lavouras Temporárias", "classe_id": 41, "area_ha": 0.54}, "geometry": {"type": "Polygon", "coordinates": [[[-51.15680964239647, -30.220853293763703], [-51.15761812615217, -30.22031430459323], [-51.156540147811235, -30.21977531542276], [-51.15680964239647, -30.220853293763703]]]}}, {"id": "118", "type": "Feature", "properties": {"cultura": "Outras Lavouras Temporárias", "classe_id": 41, "area_ha": 0.04}, "geometry": {"type": "Polygon", "coordinates": [[[-51.15195873986222, -30.22112278834894], [-51.152228234447456, -30.22112278834894], [-51.15195873986222, -30.220853293763703], [-51.15195873986222, -30.22112278834894]]]}}, {"id": "119", "type": "Feature", "properties": {"cultura": "Outras Lavouras Temporárias", "classe_id": 41, "area_ha": 0.04}, "geometry": {"type": "Polygon", "coordinates": [[[-51.146029858987035, -30.22112278834894], [-51.14629935357227, -30.22112278834894], [-51.146029858987035, -30.220853293763703], [-51.146029858987035, -30.22112278834894]]]}}, {"id": "120", "type": "Feature", "properties": {"cultura": "Outras Lavouras Temporárias", "classe_id": 41, "area_ha": 1.7}, "geometry": {"type": "Polygon", "coordinates": [[[-51.14144845103802, -30.21977531542276], [-51.14090946186755, -30.221392282934175], [-51.14252642937897, -30.220853293763703], [-51.142256934793735, -30.21977531542276], [-51.14144845103802, -30.21977531542276]]]}}, {"id": "121", "type": "Feature", "properties": {"cultura": "Outras Lavouras Temporárias", "classe_id": 41, "area_ha": 10.38}, "geometry": {"type": "Polygon", "coordinates": [[[-51.15519267488505, -30.22112278834894], [-51.15600115864076, -30.22112278834894], [-51.15573166405552, -30.22031430459323], [-51.156540147811235, -30.220583799178467], [-51.154384191129346, -30.21788885332611], [-51.15276722361793, -30.21788885332611], [-51.15115025610652, -30.218697337081817], [-51.152497729032696, -30.221392282934175], [-51.15411469654411, -30.220853293763703], [-51.15303671820317, -30.220044810007995], [-51.15384520195887, -30.218966831667053], [-51.15519267488505, -30.22112278834894]], [[-51.152228234447456, -30.218697337081817], [-51.15195873986222, -30.218697337081817], [-51.15195873986222, -30.21842784249658], [-51.152228234447456, -30.218697337081817]], [[-51.1533062127884, -30.218966831667053], [-51.1533062127884, -30.21842784249658], [-51.15384520195887, -30.218966831667053], [-51.1533062127884, -30.218966831667053]], [[-51.15276722361793, -30.21977531542276], [-51.15276722361793, -30.219505820837526], [-51.15303671820317, -30.21977531542276], [-51.15276722361793, -30.21977531542276]]]}}, {"id": "122", "type": "Feature", "properties": {"cultura": "Outras Lavouras Temporárias", "classe_id": 41, "area_ha": 0.08}, "geometry": {"type": "Polygon", "coordinates": [[[-51.142256934793735, -30.221392282934175], [-51.1427959239642, -30.221392282934175], [-51.142256934793735, -30.22112278834894], [-51.142256934793735, -30.221392282934175]]]}}, {"id": "123", "type": "Feature", "properties": {"cultura": "Outras Lavouras Temporárias", "classe_id": 41, "area_ha": 0.04}, "geometry": {"type": "Polygon", "coordinates": [[[-51.15303671820317, -30.22166177751941], [-51.1533062127884, -30.22166177751941], [-51.15303671820317, -30.221392282934175], [-51.15303671820317, -30.22166177751941]]]}}, {"id": "124", "type": "Feature", "properties": {"cultura": "Outras Lavouras Temporárias", "classe_id": 41, "area_ha": 0.31}, "geometry": {"type": "Polygon", "coordinates": [[[-51.15115025610652, -30.221931272104648], [-51.151689245276984, -30.221931272104648], [-51.15115025610652, -30.220853293763703], [-51.15115025610652, -30.221931272104648]]]}}, {"id": "125", "type": "Feature", "properties": {"cultura": "Outras Lavouras Temporárias", "classe_id": 41, "area_ha": 0.35}, "geometry": {"type": "Polygon", "coordinates": [[[-51.156270653225995, -30.22112278834894], [-51.15573166405552, -30.221931272104648], [-51.156540147811235, -30.221931272104648], [-51.156270653225995, -30.22112278834894]]]}}, {"id": "126", "type": "Feature", "properties": {"cultura": "Outras Lavouras Temporárias", "classe_id": 41, "area_ha": 0.08}, "geometry": {"type": "Polygon", "coordinates": [[[-51.1427959239642, -30.22166177751941], [-51.14333491313467, -30.221931272104648], [-51.1427959239642, -30.221392282934175], [-51.1427959239642, -30.22166177751941]]]}}, {"id": "127", "type": "Feature", "properties": {"cultura": "Outras Lavouras Temporárias", "classe_id": 41, "area_ha": 0.04}, "geometry": {"type": "Polygon", "coordinates": [[[-51.139831483526606, -30.222200766689884], [-51.140100978111846, -30.222200766689884], [-51.139831483526606, -30.221931272104648], [-51.139831483526606, -30.222200766689884]]]}}, {"id": "128", "type": "Feature", "properties": {"cultura": "Outras Lavouras Temporárias", "classe_id": 41, "area_ha": 1.05}, "geometry": {"type": "Polygon", "coordinates": [[[-51.15734863156694, -30.220853293763703], [-51.15788762073741, -30.22166177751941], [-51.156540147811235, -30.222739755860353], [-51.158426609907885, -30.22166177751941], [-51.158157115322645, -30.220583799178467], [-51.15734863156694, -30.220853293763703]]]}}, {"id": "129", "type": "Feature", "properties": {"cultura": "Outras Lavouras Temporárias", "classe_id": 41, "area_ha": 0.08}, "geometry": {"type": "Polygon", "coordinates": [[[-51.140100978111846, -30.222739755860353], [-51.14037047269708, -30.222739755860353], [-51.140100978111846, -30.222200766689884], [-51.140100978111846, -30.222739755860353]]]}}, {"id": "130", "type": "Feature", "properties": {"cultura": "Outras Lavouras Temporárias", "classe_id": 41, "area_ha": 0.03}, "geometry": {"type": "Polygon", "coordinates": [[[-51.13624887552015, -30.222949866646793], [-51.13632805391855, -30.222200766689884], [-51.13624887552015, -30.222200766689884], [-51.13624887552015, -30.222949866646793]]]}}, {"id": "131", "type": "Feature", "properties": {"cultura": "Outras Lavouras Temporárias", "classe_id": 41, "area_ha": 0.04}, "geometry": {"type": "Polygon", "coordinates": [[[-51.15573166405552, -30.22300925044559], [-51.15600115864076, -30.22300925044559], [-51.15573166405552, -30.222739755860353], [-51.15573166405552, -30.22300925044559]]]}}, {"id": "132", "type": "Feature", "properties": {"cultura": "Soja", "classe_id": 39, "area_ha": 0.08}, "geometry": {"type": "Polygon", "coordinates": [[[-51.1533062127884, -30.22300925044559], [-51.15384520195887, -30.22300925044559], [-51.1533062127884, -30.222739755860353], [-51.1533062127884, -30.22300925044559]]]}}, {"id": "133", "type": "Feature", "properties": {"cultura": "Outras Lavouras Temporárias", "classe_id": 41, "area_ha": 0.04}, "geometry": {"type": "Polygon", "coordinates": [[[-51.14037047269708, -30.22300925044559], [-51.14063996728232, -30.22300925044559], [-51.14037047269708, -30.222739755860353], [-51.14037047269708, -30.22300925044559]]]}}, {"id": "134", "type": "Feature", "properties": {"cultura": "Soja", "classe_id": 39, "area_ha": 11.15}, "geometry": {"type": "Polygon", "coordinates": [[[-51.15303671820317, -30.21977531542276], [-51.15411469654411, -30.220853293763703], [-51.15276722361793, -30.22112278834894], [-51.15303671820317, -30.22247026127512], [-51.156540147811235, -30.223278745030825], [-51.156540147811235, -30.22247026127512], [-51.15788762073741, -30.22166177751941], [-51.15734863156694, -30.220853293763703], [-51.15788762073741, -30.22031430459323], [-51.15680964239647, -30.220853293763703], [-51.156540147811235, -30.220044810007995], [-51.156540147811235, -30.220583799178467], [-51.15573166405552, -30.22031430459323], [-51.15600115864076, -30.22112278834894], [-51.15519267488505, -30.22112278834894], [-51.154384191129346, -30.218966831667053], [-51.15303671820317, -30.21977531542276]], [[-51.156540147811235, -30.221931272104648], [-51.15573166405552, -30.221931272104648], [-51.15573166405552, -30.221392282934175], [-51.156270653225995, -30.22112278834894], [-51.156540147811235, -30.221931272104648]], [[-51.15303671820317, -30.22166177751941], [-51.15303671820317, -30.221392282934175], [-51.1533062127884, -30.22166177751941], [-51.15303671820317, -30.22166177751941]]]}}, {"id": "135", "type": "Feature", "properties": {"cultura": "Outras Lavouras Temporárias", "classe_id": 41, "area_ha": 0.03}, "geometry": {"type": "Polygon", "coordinates": [[[-51.10021577949694, -30.222739755860353], [-51.10021577949694, -30.222933333324036], [-51.100506145692464, -30.222933333324036], [-51.10021577949694, -30.222739755860353]]]}}, {"id": "136", "type": "Feature", "properties": {"cultura": "Soja", "classe_id": 39, "area_ha": 0.04}, "geometry": {"type": "Polygon", "coordinates": [[[-51.15680964239647, -30.223278745030825], [-51.15707913698171, -30.223278745030825], [-51.15680964239647, -30.22300925044559], [-51.15680964239647, -30.223278745030825]]]}}, {"id": "137", "type": "Feature", "properties": {"cultura": "Soja", "classe_id": 39, "area_ha": 0.04}, "geometry": {"type": "Polygon", "coordinates": [[[-51.15573166405552, -30.223278745030825], [-51.15600115864076, -30.223278745030825], [-51.15573166405552, -30.22300925044559], [-51.15573166405552, -30.223278745030825]]]}}, {"id": "138", "type": "Feature", "properties": {"cultura": "Outras Lavouras Temporárias", "classe_id": 41, "area_ha": 0.04}, "geometry": {"type": "Polygon", "coordinates": [[[-51.14063996728232, -30.223278745030825], [-51.14090946186755, -30.223278745030825], [-51.14063996728232, -30.22300925044559], [-51.14063996728232, -30.223278745030825]]]}}, {"id": "139", "type": "Feature", "properties": {"cultura": "Outras Lavouras Temporárias", "classe_id": 41, "area_ha": 0.04}, "geometry": {"type": "Polygon", "coordinates": [[[-51.14090946186755, -30.223817734201297], [-51.14117895645279, -30.223817734201297], [-51.14090946186755, -30.22354823961606], [-51.14090946186755, -30.223817734201297]]]}}, {"id": "140", "type": "Feature", "properties": {"cultura": "Outras Lavouras Temporárias", "classe_id": 41, "area_ha": 0.08}, "geometry": {"type": "Polygon", "coordinates": [[[-51.14117895645279, -30.224087228786534], [-51.14171794562326, -30.224087228786534], [-51.14117895645279, -30.223817734201297], [-51.14117895645279, -30.224087228786534]]]}}, {"id": "141", "type": "Feature", "properties": {"cultura": "Outras Lavouras Temporárias", "classe_id": 41, "area_ha": 4.88}, "geometry": {"type": "Polygon", "coordinates": [[[-51.15384520195887, -30.222739755860353], [-51.154384191129346, -30.224626217957006], [-51.15707913698171, -30.22435672337177], [-51.15680964239647, -30.22300925044559], [-51.15384520195887, -30.222739755860353]]]}}, {"id": "142", "type": "Feature", "properties": {"cultura": "Soja", "classe_id": 39, "area_ha": 0.04}, "geometry": {"type": "Polygon", "coordinates": [[[-51.14629935357227, -30.224895712542242], [-51.14656884815751, -30.224895712542242], [-51.14629935357227, -30.224626217957006], [-51.14629935357227, -30.224895712542242]]]}}, {"id": "143", "type": "Feature", "properties": {"cultura": "Outras Lavouras Temporárias", "classe_id": 41, "area_ha": 1.16}, "geometry": {"type": "Polygon", "coordinates": [[[-51.14171794562326, -30.22516520712748], [-51.142256934793735, -30.225704196297947], [-51.143873902305145, -30.22516520712748], [-51.142256934793735, -30.224895712542242], [-51.142256934793735, -30.224087228786534], [-51.14171794562326, -30.22516520712748]]]}}, {"id": "144", "type": "Feature", "properties": {"cultura": "Outras Lavouras Temporárias", "classe_id": 41, "area_ha": 0.04}, "geometry": {"type": "Polygon", "coordinates": [[[-51.164894479953546, -30.225973690883183], [-51.16516397453878, -30.225973690883183], [-51.164894479953546, -30.225704196297947], [-51.164894479953546, -30.225973690883183]]]}}, {"id": "145", "type": "Feature", "properties": {"cultura": "Outras Lavouras Temporárias", "classe_id": 41, "area_ha": 0.04}, "geometry": {"type": "Polygon", "coordinates": [[[-51.14306541854944, -30.225973690883183], [-51.14333491313467, -30.225973690883183], [-51.14306541854944, -30.225704196297947], [-51.14306541854944, -30.225973690883183]]]}}, {"id": "146", "type": "Feature", "properties": {"cultura": "Outras Lavouras Temporárias", "classe_id": 41, "area_ha": 18.86}, "geometry": {"type": "Polygon", "coordinates": [[[-51.152228234447456, -30.222200766689884], [-51.14845531025416, -30.221931272104648], [-51.14683834274274, -30.224087228786534], [-51.14926379400986, -30.224626217957006], [-51.15034177235081, -30.224087228786534], [-51.15195873986222, -30.225704196297947], [-51.15115025610652, -30.226512680053656], [-51.15195873986222, -30.226512680053656], [-51.15411469654411, -30.22516520712748], [-51.15303671820317, -30.223278745030825], [-51.15384520195887, -30.22247026127512], [-51.15303671820317, -30.22247026127512], [-51.152497729032696, -30.221392282934175], [-51.152228234447456, -30.222200766689884]]]}}, {"id": "147", "type": "Feature", "properties": {"cultura": "Outras Lavouras Temporárias", "classe_id": 41, "area_ha": 0.15}, "geometry": {"type": "Polygon", "coordinates": [[[-51.14306541854944, -30.226512680053656], [-51.14306541854944, -30.225973690883183], [-51.14252642937897, -30.22624318546842], [-51.14306541854944, -30.226512680053656]]]}}, {"id": "148", "type": "Feature", "properties": {"cultura": "Outras Lavouras Temporárias", "classe_id": 41, "area_ha": 0.85}, "geometry": {"type": "Polygon", "coordinates": [[[-51.150072277765574, -30.22624318546842], [-51.15115025610652, -30.226782174638892], [-51.15088076152128, -30.22516520712748], [-51.150072277765574, -30.22624318546842]]]}}, {"id": "149", "type": "Feature", "properties": {"cultura": "Soja", "classe_id": 39, "area_ha": 19.52}, "geometry": {"type": "Polygon", "coordinates": [[[-51.15034177235081, -30.220853293763703], [-51.14845531025416, -30.22031430459323], [-51.148185815668924, -30.221392282934175], [-51.14710783732798, -30.221392282934175], [-51.14629935357227, -30.22247026127512], [-51.14710783732798, -30.225704196297947], [-51.14926379400986, -30.22624318546842], [-51.14872480483939, -30.226782174638892], [-51.14926379400986, -30.227321163809364], [-51.150611266936046, -30.226782174638892], [-51.15034177235081, -30.22516520712748], [-51.15115025610652, -30.226512680053656], [-51.15195873986222, -30.225973690883183], [-51.151689245276984, -30.22516520712748], [-51.15034177235081, -30.224087228786534], [-51.14710783732798, -30.22435672337177], [-51.14683834274274, -30.22354823961606], [-51.147916321083684, -30.223278745030825], [-51.14737733191321, -30.222739755860353], [-51.14845531025416, -30.221931272104648], [-51.152228234447456, -30.222200766689884], [-51.15115025610652, -30.219505820837526], [-51.15034177235081, -30.220853293763703]], [[-51.15115025610652, -30.221931272104648], [-51.15115025610652, -30.220853293763703], [-51.151689245276984, -30.221931272104648], [-51.15115025610652, -30.221931272104648]]]}}, {"id": "150", "type": "Feature", "properties": {"cultura": "Outras Lavouras Temporárias", "classe_id": 41, "area_ha": 0.15}, "geometry": {"type": "Polygon", "coordinates": [[[-51.149802783180334, -30.227321163809364], [-51.15034177235081, -30.227321163809364], [-51.150072277765574, -30.226782174638892], [-51.149802783180334, -30.227321163809364]]]}}, {"id": "151", "type": "Feature", "properties": {"cultura": "Outras Lavouras Temporárias", "classe_id": 41, "area_ha": 0.04}, "geometry": {"type": "Polygon", "coordinates": [[[-51.143873902305145, -30.227860152979837], [-51.144143396890385, -30.227860152979837], [-51.143873902305145, -30.2275906583946], [-51.143873902305145, -30.227860152979837]]]}}, {"id": "152", "type": "Feature", "properties": {"cultura": "Outras Lavouras Temporárias", "classe_id": 41, "area_ha": 0.04}, "geometry": {"type": "Polygon", "coordinates": [[[-51.144143396890385, -30.228129647565073], [-51.14441289147562, -30.228129647565073], [-51.144143396890385, -30.227860152979837], [-51.144143396890385, -30.228129647565073]]]}}, {"id": "153", "type": "Feature", "properties": {"cultura": "Outras Lavouras Temporárias", "classe_id": 41, "area_ha": 0.08}, "geometry": {"type": "Polygon", "coordinates": [[[-51.14441289147562, -30.22866863673554], [-51.14468238606086, -30.22866863673554], [-51.14441289147562, -30.228129647565073], [-51.14441289147562, -30.22866863673554]]]}}, {"id": "154", "type": "Feature", "properties": {"cultura": "Outras Lavouras Temporárias", "classe_id": 41, "area_ha": 0.04}, "geometry": {"type": "Polygon", "coordinates": [[[-51.17675224170392, -30.22947712049125], [-51.177021736289156, -30.22947712049125], [-51.17675224170392, -30.229207625906014], [-51.17675224170392, -30.22947712049125]]]}}, {"id": "155", "type": "Feature", "properties": {"cultura": "Outras Lavouras Temporárias", "classe_id": 41, "area_ha": 0.04}, "geometry": {"type": "Polygon", "coordinates": [[[-51.147916321083684, -30.22947712049125], [-51.148185815668924, -30.22947712049125], [-51.147916321083684, -30.229207625906014], [-51.147916321083684, -30.22947712049125]]]}}, {"id": "156", "type": "Feature", "properties": {"cultura": "Outras Lavouras Temporárias", "classe_id": 41, "area_ha": 0.43}, "geometry": {"type": "Polygon", "coordinates": [[[-51.14495188064609, -30.22947712049125], [-51.146029858987035, -30.229746615076486], [-51.14468238606086, -30.22866863673554], [-51.14495188064609, -30.22947712049125]]]}}, {"id": "157", "type": "Feature", "properties": {"cultura": "Outras Lavouras Temporárias", "classe_id": 41, "area_ha": 0.08}, "geometry": {"type": "Polygon", "coordinates": [[[-51.14764682649845, -30.230016109661722], [-51.147916321083684, -30.230016109661722], [-51.14764682649845, -30.22947712049125], [-51.14764682649845, -30.230016109661722]]]}}, {"id": "158", "type": "Feature", "properties": {"cultura": "Outras Lavouras Temporárias", "classe_id": 41, "area_ha": 18.51}, "geometry": {"type": "Polygon", "coordinates": [[[-51.14683834274274, -30.22031430459323], [-51.14629935357227, -30.221931272104648], [-51.14495188064609, -30.22166177751941], [-51.14333491313467, -30.222739755860353], [-51.14468238606086, -30.223817734201297], [-51.14522137523133, -30.225704196297947], [-51.146029858987035, -30.225704196297947], [-51.14710783732798, -30.227860152979837], [-51.14845531025416, -30.22866863673554], [-51.14845531025416, -30.23028560424696], [-51.14926379400986, -30.23028560424696], [-51.14872480483939, -30.230016109661722], [-51.14899429942463, -30.227860152979837], [-51.149802783180334, -30.227321163809364], [-51.14872480483939, -30.226782174638892], [-51.14926379400986, -30.22624318546842], [-51.14710783732798, -30.225704196297947], [-51.14629935357227, -30.223817734201297], [-51.14710783732798, -30.221392282934175], [-51.148185815668924, -30.221392282934175], [-51.148185815668924, -30.220044810007995], [-51.14683834274274, -30.22031430459323]], [[-51.14629935357227, -30.224895712542242], [-51.14629935357227, -30.224626217957006], [-51.14656884815751, -30.224895712542242], [-51.14629935357227, -30.224895712542242]]]}}, {"id": "159", "type": "Feature", "properties": {"cultura": "Soja", "classe_id": 39, "area_ha": 0.23}, "geometry": {"type": "Polygon", "coordinates": [[[-51.15519267488505, -30.230016109661722], [-51.15519267488505, -30.230555098832195], [-51.15600115864076, -30.230016109661722], [-51.15519267488505, -30.230016109661722]]]}}, {"id": "160", "type": "Feature", "properties": {"cultura": "Soja", "classe_id": 39, "area_ha": 0.77}, "geometry": {"type": "Polygon", "coordinates": [[[-51.15707913698171, -30.229746615076486], [-51.15761812615217, -30.23082459341743], [-51.158157115322645, -30.23082459341743], [-51.15788762073741, -30.229746615076486], [-51.15707913698171, -30.229746615076486]]]}}, {"id": "161", "type": "Feature", "properties": {"cultura": "Outras Lavouras Temporárias", "classe_id": 41, "area_ha": 0.12}, "geometry": {"type": "Polygon", "coordinates": [[[-51.178908198385805, -30.23082459341743], [-51.17971668214152, -30.23082459341743], [-51.178908198385805, -30.230555098832195], [-51.178908198385805, -30.23082459341743]]]}}, {"id": "162", "type": "Feature", "properties": {"cultura": "Outras Lavouras Temporárias", "classe_id": 41, "area_ha": 0.08}, "geometry": {"type": "Polygon", "coordinates": [[[-51.15519267488505, -30.23082459341743], [-51.15573166405552, -30.23082459341743], [-51.15519267488505, -30.230555098832195], [-51.15519267488505, -30.23082459341743]]]}}, {"id": "163", "type": "Feature", "properties": {"cultura": "Outras Lavouras Temporárias", "classe_id": 41, "area_ha": 0.04}, "geometry": {"type": "Polygon", "coordinates": [[[-51.14629935357227, -30.23082459341743], [-51.14656884815751, -30.23082459341743], [-51.14629935357227, -30.230555098832195], [-51.14629935357227, -30.23082459341743]]]}}, {"id": "164", "type": "Feature", "properties": {"cultura": "Soja", "classe_id": 39, "area_ha": 0.08}, "geometry": {"type": "Polygon", "coordinates": [[[-51.15492318029982, -30.231094088002667], [-51.15519267488505, -30.231094088002667], [-51.15492318029982, -30.230555098832195], [-51.15492318029982, -30.231094088002667]]]}}, {"id": "165", "type": "Feature", "properties": {"cultura": "Outras Lavouras Temporárias", "classe_id": 41, "area_ha": 0.08}, "geometry": {"type": "Polygon", "coordinates": [[[-51.15600115864076, -30.231094088002667], [-51.156540147811235, -30.231094088002667], [-51.15600115864076, -30.23082459341743], [-51.15600115864076, -30.231094088002667]]]}}, {"id": "166", "type": "Feature", "properties": {"cultura": "Outras Lavouras Temporárias", "classe_id": 41, "area_ha": 0.02}, "geometry": {"type": "Polygon", "coordinates": [[[-51.17028437165826, -30.23082459341743], [-51.17041554228118, -30.231218105286178], [-51.17041554228118, -30.230912040499373], [-51.17028437165826, -30.23082459341743]]]}}, {"id": "166", "type": "Feature", "properties": {"cultura": "Outras Lavouras Temporárias", "classe_id": 41, "area_ha": 0.12}, "geometry": {"type": "Polygon", "coordinates": [[[-51.170553866243495, -30.23163307717314], [-51.17109285541397, -30.231363582587903], [-51.1704317294049, -30.231266666657362], [-51.170553866243495, -30.23163307717314]]]}}, {"id": "167", "type": "Feature", "properties": {"cultura": "Soja", "classe_id": 39, "area_ha": 2.91}, "geometry": {"type": "Polygon", "coordinates": [[[-51.149802783180334, -30.214654918303278], [-51.14958220889031, -30.212933333324045], [-51.14791554221904, -30.213766666657378], [-51.14874887555467, -30.215433333324043], [-51.149802783180334, -30.214654918303278]]]}}, {"id": "167", "type": "Feature", "properties": {"cultura": "Soja", "classe_id": 39, "area_ha": 70.03}, "geometry": {"type": "Polygon", "coordinates": [[[-51.14683834274274, -30.217619358740873], [-51.147082208883404, -30.216266666657376], [-51.144407672318295, -30.216266666657376], [-51.14629935357227, -30.217619358740873], [-51.14060386036444, -30.21793333332404], [-51.14090946186755, -30.218697337081817], [-51.140415542198326, -30.21795645757798], [-51.13860713982562, -30.22043333332404], [-51.14090946186755, -30.22354823961606], [-51.142256934793735, -30.224087228786534], [-51.142256934793735, -30.224895712542242], [-51.143873902305145, -30.224895712542242], [-51.14252642937897, -30.22516520712748], [-51.14306541854944, -30.227051669224128], [-51.145760364401795, -30.228938131320778], [-51.146029858987035, -30.230555098832195], [-51.148185815668924, -30.230555098832195], [-51.14845531025416, -30.231902571758372], [-51.14926379400986, -30.23028560424696], [-51.14845531025416, -30.23028560424696], [-51.147916321083684, -30.228129647565073], [-51.146029858987035, -30.225704196297947], [-51.14522137523133, -30.225704196297947], [-51.14333491313467, -30.222200766689884], [-51.14629935357227, -30.221931272104648], [-51.14683834274274, -30.22031430459323], [-51.15088076152128, -30.21923632625229], [-51.150072277765574, -30.216810874985164], [-51.14791554221904, -30.217350058871798], [-51.14791554221904, -30.21793333332404], [-51.14683834274274, -30.217619358740873]], [[-51.1427959239642, -30.218966831667053], [-51.14144845103802, -30.21923632625229], [-51.14117895645279, -30.219505820837526], [-51.14117895645279, -30.218966831667053], [-51.14306541854944, -30.218158347911345], [-51.1427959239642, -30.218966831667053]], [[-51.14252642937897, -30.219505820837526], [-51.142256934793735, -30.219505820837526], [-51.142256934793735, -30.21923632625229], [-51.14252642937897, -30.219505820837526]], [[-51.14656884815751, -30.21788885332611], [-51.14656884815751, -30.217619358740873], [-51.14683834274274, -30.21788885332611], [-51.14656884815751, -30.21788885332611]], [[-51.14090946186755, -30.221392282934175], [-51.14144845103802, -30.21977531542276], [-51.142256934793735, -30.21977531542276], [-51.14252642937897, -30.220853293763703], [-51.14090946186755, -30.221392282934175]], [[-51.1427959239642, -30.221392282934175], [-51.142256934793735, -30.221392282934175], [-51.14252642937897, -30.220853293763703], [-51.1427959239642, -30.221392282934175]], [[-51.14333491313467, -30.221931272104648], [-51.1427959239642, -30.22166177751941], [-51.1427959239642, -30.221392282934175], [-51.14333491313467, -30.221931272104648]], [[-51.146029858987035, -30.22112278834894], [-51.146029858987035, -30.220853293763703], [-51.14629935357227, -30.22112278834894], [-51.146029858987035, -30.22112278834894]], [[-51.14306541854944, -30.225973690883183], [-51.14306541854944, -30.225704196297947], [-51.14333491313467, -30.225973690883183], [-51.14306541854944, -30.225973690883183]], [[-51.147916321083684, -30.22947712049125], [-51.147916321083684, -30.229207625906014], [-51.148185815668924, -30.22947712049125], [-51.147916321083684, -30.22947712049125]], [[-51.14764682649845, -30.230016109661722], [-51.14764682649845, -30.22947712049125], [-51.147916321083684, -30.230016109661722], [-51.14764682649845, -30.230016109661722]]]}}, {"id": "167", "type": "Feature", "properties": {"cultura": "Soja", "classe_id": 39, "area_ha": 0.66}, "geometry": {"type": "Polygon", "coordinates": [[[-51.143748875540865, -30.216271885814695], [-51.143748875540865, -30.21758880041849], [-51.14468238606086, -30.216810874985164], [-51.143748875540865, -30.216271885814695]]]}}, {"id": "168", "type": "Feature", "properties": {"cultura": "Outras Lavouras Temporárias", "classe_id": 41, "area_ha": 0.08}, "geometry": {"type": "Polygon", "coordinates": [[[-51.17486577960727, -30.231902571758372], [-51.175404768777746, -30.231902571758372], [-51.17486577960727, -30.23163307717314], [-51.17486577960727, -30.231902571758372]]]}}, {"id": "169", "type": "Feature", "properties": {"cultura": "Soja", "classe_id": 39, "area_ha": 1.39}, "geometry": {"type": "Polygon", "coordinates": [[[-51.15707913698171, -30.23082459341743], [-51.15492318029982, -30.232441560928844], [-51.15761812615217, -30.23163307717314], [-51.15707913698171, -30.23082459341743]]]}}, {"id": "170", "type": "Feature", "properties": {"cultura": "Outras Lavouras Temporárias", "classe_id": 41, "area_ha": 0.04}, "geometry": {"type": "Polygon", "coordinates": [[[-51.152497729032696, -30.232980550099317], [-51.15276722361793, -30.232980550099317], [-51.152497729032696, -30.23271105551408], [-51.152497729032696, -30.232980550099317]]]}}, {"id": "171", "type": "Feature", "properties": {"cultura": "Outras Lavouras Temporárias", "classe_id": 41, "area_ha": 0.04}, "geometry": {"type": "Polygon", "coordinates": [[[-51.14252642937897, -30.232980550099317], [-51.1427959239642, -30.232980550099317], [-51.14252642937897, -30.23271105551408], [-51.14252642937897, -30.232980550099317]]]}}, {"id": "172", "type": "Feature", "properties": {"cultura": "Outras Lavouras Temporárias", "classe_id": 41, "area_ha": 0.08}, "geometry": {"type": "Polygon", "coordinates": [[[-51.15303671820317, -30.233250044684553], [-51.15357570737364, -30.233250044684553], [-51.15303671820317, -30.232980550099317], [-51.15303671820317, -30.233250044684553]]]}}, {"id": "173", "type": "Feature", "properties": {"cultura": "Soja", "classe_id": 39, "area_ha": 0.23}, "geometry": {"type": "Polygon", "coordinates": [[[-51.15357570737364, -30.23351953926979], [-51.152497729032696, -30.232980550099317], [-51.152228234447456, -30.233250044684553], [-51.15357570737364, -30.23351953926979]]]}}, {"id": "174", "type": "Feature", "properties": {"cultura": "Outras Lavouras Temporárias", "classe_id": 41, "area_ha": 0.04}, "geometry": {"type": "Polygon", "coordinates": [[[-51.158157115322645, -30.233789033855025], [-51.158426609907885, -30.233789033855025], [-51.158157115322645, -30.23351953926979], [-51.158157115322645, -30.233789033855025]]]}}, {"id": "175", "type": "Feature", "properties": {"cultura": "Outras Lavouras Temporárias", "classe_id": 41, "area_ha": 0.04}, "geometry": {"type": "Polygon", "coordinates": [[[-51.14306541854944, -30.233789033855025], [-51.14333491313467, -30.233789033855025], [-51.14306541854944, -30.23351953926979], [-51.14306541854944, -30.233789033855025]]]}}, {"id": "176", "type": "Feature", "properties": {"cultura": "Soja", "classe_id": 39, "area_ha": 0.23}, "geometry": {"type": "Polygon", "coordinates": [[[-51.151689245276984, -30.234328023025498], [-51.152228234447456, -30.234328023025498], [-51.151689245276984, -30.23351953926979], [-51.151689245276984, -30.234328023025498]]]}}, {"id": "177", "type": "Feature", "properties": {"cultura": "Outras Lavouras Temporárias", "classe_id": 41, "area_ha": 0.08}, "geometry": {"type": "Polygon", "coordinates": [[[-51.15788762073741, -30.234328023025498], [-51.158157115322645, -30.234328023025498], [-51.15788762073741, -30.233789033855025], [-51.15788762073741, -30.234328023025498]]]}}, {"id": "178", "type": "Feature", "properties": {"cultura": "Outras Lavouras Temporárias", "classe_id": 41, "area_ha": 0.04}, "geometry": {"type": "Polygon", "coordinates": [[[-51.147916321083684, -30.234328023025498], [-51.148185815668924, -30.234328023025498], [-51.147916321083684, -30.23405852844026], [-51.147916321083684, -30.234328023025498]]]}}, {"id": "179", "type": "Feature", "properties": {"cultura": "Outras Lavouras Temporárias", "classe_id": 41, "area_ha": 0.08}, "geometry": {"type": "Polygon", "coordinates": [[[-51.16112155576024, -30.235136506781203], [-51.16166054493071, -30.235136506781203], [-51.16112155576024, -30.234867012195966], [-51.16112155576024, -30.235136506781203]]]}}, {"id": "180", "type": "Feature", "properties": {"cultura": "Outras Lavouras Temporárias", "classe_id": 41, "area_ha": 0.04}, "geometry": {"type": "Polygon", "coordinates": [[[-51.16085206117501, -30.23540600136644], [-51.16112155576024, -30.23540600136644], [-51.16085206117501, -30.235136506781203], [-51.16085206117501, -30.23540600136644]]]}}, {"id": "181", "type": "Feature", "properties": {"cultura": "Outras Lavouras Temporárias", "classe_id": 41, "area_ha": 0.08}, "geometry": {"type": "Polygon", "coordinates": [[[-51.16112155576024, -30.235675495951675], [-51.16166054493071, -30.235675495951675], [-51.16112155576024, -30.23540600136644], [-51.16112155576024, -30.235675495951675]]]}}, {"id": "182", "type": "Feature", "properties": {"cultura": "Outras Lavouras Temporárias", "classe_id": 41, "area_ha": 0.04}, "geometry": {"type": "Polygon", "coordinates": [[[-51.160582566589774, -30.235675495951675], [-51.16085206117501, -30.235675495951675], [-51.160582566589774, -30.23540600136644], [-51.160582566589774, -30.235675495951675]]]}}, {"id": "183", "type": "Feature", "properties": {"cultura": "Outras Lavouras Temporárias", "classe_id": 41, "area_ha": 0.08}, "geometry": {"type": "Polygon", "coordinates": [[[-51.15896559907836, -30.236214485122147], [-51.15950458824883, -30.236214485122147], [-51.15896559907836, -30.23594499053691], [-51.15896559907836, -30.236214485122147]]]}}, {"id": "184", "type": "Feature", "properties": {"cultura": "Arroz", "classe_id": 40, "area_ha": 0.08}, "geometry": {"type": "Polygon", "coordinates": [[[-51.15573166405552, -30.236483979707383], [-51.156270653225995, -30.236483979707383], [-51.15573166405552, -30.236214485122147], [-51.15573166405552, -30.236483979707383]]]}}, {"id": "185", "type": "Feature", "properties": {"cultura": "Outras Lavouras Temporárias", "classe_id": 41, "area_ha": 2.67}, "geometry": {"type": "Polygon", "coordinates": [[[-51.15707913698171, -30.234328023025498], [-51.156540147811235, -30.23540600136644], [-51.15869610449312, -30.23675347429262], [-51.15788762073741, -30.234328023025498], [-51.15707913698171, -30.234328023025498]]]}}, {"id": "186", "type": "Feature", "properties": {"cultura": "Outras Lavouras Temporárias", "classe_id": 41, "area_ha": 0.12}, "geometry": {"type": "Polygon", "coordinates": [[[-51.15896559907836, -30.23675347429262], [-51.15977408283406, -30.237022968877856], [-51.15896559907836, -30.236483979707383], [-51.15896559907836, -30.23675347429262]]]}}, {"id": "187", "type": "Feature", "properties": {"cultura": "Soja", "classe_id": 39, "area_ha": 0.15}, "geometry": {"type": "Polygon", "coordinates": [[[-51.106683649542596, -30.237292463463092], [-51.10722263871307, -30.237292463463092], [-51.106683649542596, -30.23675347429262], [-51.106683649542596, -30.237292463463092]]]}}, {"id": "188", "type": "Feature", "properties": {"cultura": "Outras Lavouras Temporárias", "classe_id": 41, "area_ha": 0.04}, "geometry": {"type": "Polygon", "coordinates": [[[-51.10587516578689, -30.237292463463092], [-51.10614466037213, -30.237292463463092], [-51.10587516578689, -30.237022968877856], [-51.10587516578689, -30.237292463463092]]]}}, {"id": "189", "type": "Feature", "properties": {"cultura": "Outras Lavouras Temporárias", "classe_id": 41, "area_ha": 96.72}, "geometry": {"type": "Polygon", "coordinates": [[[-51.16112155576024, -30.229746615076486], [-51.1600435774193, -30.227051669224128], [-51.158157115322645, -30.226782174638892], [-51.158157115322645, -30.225973690883183], [-51.15411469654411, -30.227051669224128], [-51.152497729032696, -30.226512680053656], [-51.15276722361793, -30.2275906583946], [-51.14926379400986, -30.22947712049125], [-51.149802783180334, -30.23028560424696], [-51.14845531025416, -30.231902571758372], [-51.148185815668924, -30.230555098832195], [-51.14656884815751, -30.23082459341743], [-51.15115025610652, -30.237561958048328], [-51.15276722361793, -30.237292463463092], [-51.152497729032696, -30.23594499053691], [-51.15465368571458, -30.23675347429262], [-51.156270653225995, -30.236214485122147], [-51.156540147811235, -30.23540600136644], [-51.15573166405552, -30.234867012195966], [-51.15788762073741, -30.23351953926979], [-51.158157115322645, -30.232441560928844], [-51.16085206117501, -30.23351953926979], [-51.16085206117501, -30.231902571758372], [-51.162199534101184, -30.232980550099317], [-51.16193003951595, -30.23163307717314], [-51.160313072004534, -30.231363582587903], [-51.1600435774193, -30.23028560424696], [-51.15761812615217, -30.23082459341743], [-51.15707913698171, -30.230016109661722], [-51.16112155576024, -30.229746615076486]], [[-51.15492318029982, -30.234597517610734], [-51.15492318029982, -30.234328023025498], [-51.15573166405552, -30.234867012195966], [-51.15492318029982, -30.234597517610734]], [[-51.15465368571458, -30.234328023025498], [-51.15465368571458, -30.23405852844026], [-51.15492318029982, -30.234328023025498], [-51.15465368571458, -30.234328023025498]], [[-51.154384191129346, -30.23405852844026], [-51.154384191129346, -30.233789033855025], [-51.15465368571458, -30.23405852844026], [-51.154384191129346, -30.23405852844026]], [[-51.15411469654411, -30.233789033855025], [-51.15411469654411, -30.23351953926979], [-51.154384191129346, -30.233789033855025], [-51.15411469654411, -30.233789033855025]], [[-51.15384520195887, -30.23351953926979], [-51.15384520195887, -30.233250044684553], [-51.15411469654411, -30.23351953926979], [-51.15384520195887, -30.23351953926979]], [[-51.15276722361793, -30.232441560928844], [-51.15357570737364, -30.23351953926979], [-51.152228234447456, -30.233250044684553], [-51.15276722361793, -30.232441560928844]], [[-51.156540147811235, -30.23082459341743], [-51.15761812615217, -30.23163307717314], [-51.15492318029982, -30.232441560928844], [-51.15600115864076, -30.23163307717314], [-51.15492318029982, -30.231094088002667], [-51.15519267488505, -30.230016109661722], [-51.156270653225995, -30.230555098832195], [-51.15707913698171, -30.230016109661722], [-51.156540147811235, -30.23082459341743]], [[-51.15088076152128, -30.23163307717314], [-51.15034177235081, -30.231094088002667], [-51.151689245276984, -30.23163307717314], [-51.15088076152128, -30.23163307717314]], [[-51.15195873986222, -30.231902571758372], [-51.151689245276984, -30.231902571758372], [-51.151689245276984, -30.23163307717314], [-51.15195873986222, -30.231902571758372]], [[-51.152228234447456, -30.232172066343608], [-51.15195873986222, -30.232172066343608], [-51.15195873986222, -30.231902571758372], [-51.152228234447456, -30.232172066343608]], [[-51.151689245276984, -30.234328023025498], [-51.151689245276984, -30.23351953926979], [-51.152228234447456, -30.234328023025498], [-51.151689245276984, -30.234328023025498]]]}}, {"id": "190", "type": "Feature", "properties": {"cultura": "Outras Lavouras Temporárias", "classe_id": 41, "area_ha": 0.15}, "geometry": {"type": "Polygon", "coordinates": [[[-51.06868491302434, -30.238370441804033], [-51.069762891365286, -30.23863993638927], [-51.06868491302434, -30.238100947218797], [-51.06868491302434, -30.238370441804033]]]}}, {"id": "191", "type": "Feature", "properties": {"cultura": "Outras Lavouras Temporárias", "classe_id": 41, "area_ha": 0.04}, "geometry": {"type": "Polygon", "coordinates": [[[-51.15088076152128, -30.24376033350875], [-51.15115025610652, -30.24376033350875], [-51.15088076152128, -30.243490838923517], [-51.15088076152128, -30.24376033350875]]]}}, {"id": "192", "type": "Feature", "properties": {"cultura": "Outras Lavouras Temporárias", "classe_id": 41, "area_ha": 0.04}, "geometry": {"type": "Polygon", "coordinates": [[[-51.143873902305145, -30.244299322679222], [-51.144143396890385, -30.244299322679222], [-51.143873902305145, -30.244029828093986], [-51.143873902305145, -30.244299322679222]]]}}, {"id": "193", "type": "Feature", "properties": {"cultura": "Outras Lavouras Temporárias", "classe_id": 41, "area_ha": 0.04}, "geometry": {"type": "Polygon", "coordinates": [[[-51.144143396890385, -30.24510780643493], [-51.14441289147562, -30.24510780643493], [-51.144143396890385, -30.244838311849694], [-51.144143396890385, -30.24510780643493]]]}}, {"id": "194", "type": "Feature", "properties": {"cultura": "Outras Lavouras Temporárias", "classe_id": 41, "area_ha": 0.08}, "geometry": {"type": "Polygon", "coordinates": [[[-51.1352500755776, -30.246185784775875], [-51.135789064748074, -30.246185784775875], [-51.1352500755776, -30.24591629019064], [-51.1352500755776, -30.246185784775875]]]}}, {"id": "195", "type": "Feature", "properties": {"cultura": "Outras Lavouras Temporárias", "classe_id": 41, "area_ha": 0.04}, "geometry": {"type": "Polygon", "coordinates": [[[-51.137675526844724, -30.247533257702052], [-51.13794502142996, -30.247533257702052], [-51.137675526844724, -30.247263763116816], [-51.137675526844724, -30.247533257702052]]]}}, {"id": "196", "type": "Feature", "properties": {"cultura": "Outras Lavouras Temporárias", "classe_id": 41, "area_ha": 1.86}, "geometry": {"type": "Polygon", "coordinates": [[[-51.13605855933331, -30.246724773946347], [-51.135789064748074, -30.247533257702052], [-51.137675526844724, -30.24780275228729], [-51.137406032259484, -30.24645527936111], [-51.13605855933331, -30.246724773946347]]]}}, {"id": "197", "type": "Feature", "properties": {"cultura": "Outras Lavouras Temporárias", "classe_id": 41, "area_ha": 0.04}, "geometry": {"type": "Polygon", "coordinates": [[[-51.14037047269708, -30.248072246872525], [-51.14063996728232, -30.248072246872525], [-51.14037047269708, -30.24780275228729], [-51.14037047269708, -30.248072246872525]]]}}, {"id": "198", "type": "Feature", "properties": {"cultura": "Outras Lavouras Temporárias", "classe_id": 41, "area_ha": 0.04}, "geometry": {"type": "Polygon", "coordinates": [[[-51.13632805391855, -30.24834174145776], [-51.13659754850378, -30.24834174145776], [-51.13632805391855, -30.248072246872525], [-51.13632805391855, -30.24834174145776]]]}}, {"id": "199", "type": "Feature", "properties": {"cultura": "Outras Lavouras Temporárias", "classe_id": 41, "area_ha": 0.08}, "geometry": {"type": "Polygon", "coordinates": [[[-51.139831483526606, -30.248611236042997], [-51.140100978111846, -30.248611236042997], [-51.139831483526606, -30.248072246872525], [-51.139831483526606, -30.248611236042997]]]}}, {"id": "200", "type": "Feature", "properties": {"cultura": "Outras Lavouras Temporárias", "classe_id": 41, "area_ha": 0.04}, "geometry": {"type": "Polygon", "coordinates": [[[-51.13848401060043, -30.248880730628233], [-51.13875350518567, -30.248880730628233], [-51.13848401060043, -30.248611236042997], [-51.13848401060043, -30.248880730628233]]]}}, {"id": "201", "type": "Feature", "properties": {"cultura": "Outras Lavouras Temporárias", "classe_id": 41, "area_ha": 1.28}, "geometry": {"type": "Polygon", "coordinates": [[[-51.138214516015196, -30.24780275228729], [-51.135789064748074, -30.249419719798706], [-51.13848401060043, -30.248611236042997], [-51.138214516015196, -30.24780275228729]]]}}, {"id": "202", "type": "Feature", "properties": {"cultura": "Outras Lavouras Temporárias", "classe_id": 41, "area_ha": 0.43}, "geometry": {"type": "Polygon", "coordinates": [[[-51.138214516015196, -30.249419719798706], [-51.13848401060043, -30.249958708969174], [-51.1390229997709, -30.24968921438394], [-51.1390229997709, -30.24915022521347], [-51.138214516015196, -30.249419719798706]]]}}, {"id": "203", "type": "Feature", "properties": {"cultura": "Outras Lavouras Temporárias", "classe_id": 41, "area_ha": 0.04}, "geometry": {"type": "Polygon", "coordinates": [[[-51.13794502142996, -30.249958708969174], [-51.138214516015196, -30.249958708969174], [-51.13794502142996, -30.24968921438394], [-51.13794502142996, -30.249958708969174]]]}}, {"id": "204", "type": "Feature", "properties": {"cultura": "Outras Lavouras Temporárias", "classe_id": 41, "area_ha": 0.08}, "geometry": {"type": "Polygon", "coordinates": [[[-51.13632805391855, -30.25022820355441], [-51.13659754850378, -30.25022820355441], [-51.13632805391855, -30.24968921438394], [-51.13632805391855, -30.25022820355441]]]}}, {"id": "205", "type": "Feature", "properties": {"cultura": "Outras Lavouras Temporárias", "classe_id": 41, "area_ha": 0.01}, "geometry": {"type": "Polygon", "coordinates": [[[-51.14291554220523, -30.250078327210204], [-51.1427959239642, -30.25022820355441], [-51.14291554220523, -30.25022820355441], [-51.14291554220523, -30.250078327210204]]]}}, {"id": "206", "type": "Feature", "properties": {"cultura": "Outras Lavouras Temporárias", "classe_id": 41, "area_ha": 0.04}, "geometry": {"type": "Polygon", "coordinates": [[[-51.138214516015196, -30.25022820355441], [-51.13848401060043, -30.25022820355441], [-51.138214516015196, -30.249958708969174], [-51.138214516015196, -30.25022820355441]]]}}, {"id": "207", "type": "Feature", "properties": {"cultura": "Outras Lavouras Temporárias", "classe_id": 41, "area_ha": 4.41}, "geometry": {"type": "Polygon", "coordinates": [[[-51.1427959239642, -30.250497698139647], [-51.142256934793735, -30.24699426853158], [-51.14063996728232, -30.24780275228729], [-51.141987440208496, -30.250497698139647], [-51.1427959239642, -30.250497698139647]]]}}, {"id": "208", "type": "Feature", "properties": {"cultura": "Outras Lavouras Temporárias", "classe_id": 41, "area_ha": 0.31}, "geometry": {"type": "Polygon", "coordinates": [[[-51.137675526844724, -30.249958708969174], [-51.13659754850378, -30.250497698139647], [-51.137675526844724, -30.250497698139647], [-51.137675526844724, -30.249958708969174]]]}}, {"id": "209", "type": "Feature", "properties": {"cultura": "Outras Lavouras Temporárias", "classe_id": 41, "area_ha": 0.04}, "geometry": {"type": "Polygon", "coordinates": [[[-51.13848401060043, -30.25103668731012], [-51.13875350518567, -30.25103668731012], [-51.13848401060043, -30.250767192724883], [-51.13848401060043, -30.25103668731012]]]}}, {"id": "210", "type": "Feature", "properties": {"cultura": "Outras Lavouras Temporárias", "classe_id": 41, "area_ha": 1.47}, "geometry": {"type": "Polygon", "coordinates": [[[-51.13875350518567, -30.25022820355441], [-51.13875350518567, -30.251306181895355], [-51.14037047269708, -30.250767192724883], [-51.139831483526606, -30.249958708969174], [-51.13875350518567, -30.25022820355441]]]}}]}