{"type": "FeatureCollection", "features": [{"id": "0", "type": "Feature", "properties": {"cultura": "Arroz", "classe_id": 40, "area_ha": 0.04}, "geometry": {"type": "Polygon", "coordinates": [[[-51.127704227190996, -29.95755708398827], [-51.12797372177623, -29.95755708398827], [-51.127704227190996, -29.957287589403037], [-51.127704227190996, -29.95755708398827]]]}}, {"id": "1", "type": "Feature", "properties": {"cultura": "Outras Lavouras Temporárias", "classe_id": 41, "area_ha": 1.4}, "geometry": {"type": "Polygon", "coordinates": [[[-51.1247397867534, -29.9570180948178], [-51.12447029216817, -29.957826578573506], [-51.12797372177623, -29.9570180948178], [-51.1247397867534, -29.9570180948178]]]}}, {"id": "2", "type": "Feature", "properties": {"cultura": "Outras Lavouras Temporárias", "classe_id": 41, "area_ha": 0.16}, "geometry": {"type": "Polygon", "coordinates": [[[-51.12797372177623, -29.957826578573506], [-51.1285127109467, -29.957826578573506], [-51.12797372177623, -29.957287589403037], [-51.12797372177623, -29.957826578573506]]]}}, {"id": "3", "type": "Feature", "properties": {"cultura": "Outras Lavouras Temporárias", "classe_id": 41, "area_ha": 0.08}, "geometry": {"type": "Polygon", "coordinates": [[[-51.1285127109467, -29.958096073158742], [-51.129051700117174, -29.958096073158742], [-51.1285127109467, -29.957826578573506], [-51.1285127109467, -29.958096073158742]]]}}, {"id": "4", "type": "Feature", "properties": {"cultura": "Outras Lavouras Temporárias", "classe_id": 41, "area_ha": 0.23}, "geometry": {"type": "Polygon", "coordinates": [[[-51.14117895645279, -29.959174051499687], [-51.14063996728232, -29.958635062329215], [-51.139831483526606, -29.958635062329215], [-51.14117895645279, -29.959174051499687]]]}}, {"id": "5", "type": "Feature", "properties": {"cultura": "Outras Lavouras Temporárias", "classe_id": 41, "area_ha": 0.31}, "geometry": {"type": "Polygon", "coordinates": [[[-51.11800242212251, -29.959174051499687], [-51.12015837880439, -29.959174051499687], [-51.11800242212251, -29.95890455691445], [-51.11800242212251, -29.959174051499687]]]}}, {"id": "6", "type": "Feature", "properties": {"cultura": "Outras Lavouras Temporárias", "classe_id": 41, "area_ha": 0.04}, "geometry": {"type": "Polygon", "coordinates": [[[-51.11773292753727, -29.959443546084923], [-51.11800242212251, -29.959443546084923], [-51.11773292753727, -29.959174051499687], [-51.11773292753727, -29.959443546084923]]]}}, {"id": "7", "type": "Feature", "properties": {"cultura": "Outras Lavouras Temporárias", "classe_id": 41, "area_ha": 0.08}, "geometry": {"type": "Polygon", "coordinates": [[[-51.12015837880439, -29.95971304067016], [-51.12042787338963, -29.95971304067016], [-51.12015837880439, -29.959174051499687], [-51.12015837880439, -29.95971304067016]]]}}, {"id": "8", "type": "Feature", "properties": {"cultura": "Arroz", "classe_id": 40, "area_ha": 3.73}, "geometry": {"type": "Polygon", "coordinates": [[[-51.11396000334397, -29.959982535255396], [-51.11692444378156, -29.959443546084923], [-51.11692444378156, -29.959982535255396], [-51.119349895048686, -29.960252029840632], [-51.119080400463446, -29.959174051499687], [-51.11458220879365, -29.959174051499687], [-51.11396000334397, -29.959982535255396]]]}}, {"id": "9", "type": "Feature", "properties": {"cultura": "Arroz", "classe_id": 40, "area_ha": 0.47}, "geometry": {"type": "Polygon", "coordinates": [[[-51.13120765679906, -29.960521524425864], [-51.13228563514001, -29.960252029840632], [-51.13120765679906, -29.95971304067016], [-51.13120765679906, -29.960521524425864]]]}}, {"id": "10", "type": "Feature", "properties": {"cultura": "Outras Lavouras Temporárias", "classe_id": 41, "area_ha": 0.12}, "geometry": {"type": "Polygon", "coordinates": [[[-51.13282462431048, -29.9607910190111], [-51.13282462431048, -29.960521524425864], [-51.13201614055477, -29.960521524425864], [-51.13282462431048, -29.9607910190111]]]}}, {"id": "11", "type": "Feature", "properties": {"cultura": "Outras Lavouras Temporárias", "classe_id": 41, "area_ha": 0.04}, "geometry": {"type": "Polygon", "coordinates": [[[-51.112882025003024, -29.9607910190111], [-51.11315151958826, -29.9607910190111], [-51.112882025003024, -29.960521524425864], [-51.112882025003024, -29.9607910190111]]]}}, {"id": "12", "type": "Feature", "properties": {"cultura": "Outras Lavouras Temporárias", "classe_id": 41, "area_ha": 0.08}, "geometry": {"type": "Polygon", "coordinates": [[[-51.13282462431048, -29.961060513596337], [-51.13336361348095, -29.961060513596337], [-51.13282462431048, -29.9607910190111], [-51.13282462431048, -29.961060513596337]]]}}, {"id": "13", "type": "Feature", "properties": {"cultura": "Arroz", "classe_id": 40, "area_ha": 0.04}, "geometry": {"type": "Polygon", "coordinates": [[[-51.14037047269708, -29.963216470278226], [-51.14063996728232, -29.963216470278226], [-51.14037047269708, -29.96294697569299], [-51.14037047269708, -29.963216470278226]]]}}, {"id": "14", "type": "Feature", "properties": {"cultura": "Outras Lavouras Temporárias", "classe_id": 41, "area_ha": 0.93}, "geometry": {"type": "Polygon", "coordinates": [[[-51.14144845103802, -29.96213849193728], [-51.14037047269708, -29.963755459448695], [-51.14144845103802, -29.963755459448695], [-51.14144845103802, -29.96213849193728]]]}}, {"id": "15", "type": "Feature", "properties": {"cultura": "Soja", "classe_id": 39, "area_ha": 0.12}, "geometry": {"type": "Polygon", "coordinates": [[[-51.14144845103802, -29.964294448619167], [-51.14171794562326, -29.964294448619167], [-51.14144845103802, -29.96348596486346], [-51.14144845103802, -29.964294448619167]]]}}, {"id": "16", "type": "Feature", "properties": {"cultura": "Soja", "classe_id": 39, "area_ha": 0.43}, "geometry": {"type": "Polygon", "coordinates": [[[-51.14063996728232, -29.964563943204404], [-51.14144845103802, -29.965102932374876], [-51.14090946186755, -29.963755459448695], [-51.14063996728232, -29.964563943204404]]]}}, {"id": "17", "type": "Feature", "properties": {"cultura": "Outras Lavouras Temporárias", "classe_id": 41, "area_ha": 0.19}, "geometry": {"type": "Polygon", "coordinates": [[[-51.13444159182189, -29.965102932374876], [-51.135789064748074, -29.965102932374876], [-51.13444159182189, -29.96483343778964], [-51.13444159182189, -29.965102932374876]]]}}, {"id": "18", "type": "Feature", "properties": {"cultura": "Outras Lavouras Temporárias", "classe_id": 41, "area_ha": 0.54}, "geometry": {"type": "Polygon", "coordinates": [[[-51.129590689287646, -29.965102932374876], [-51.131477151384296, -29.965102932374876], [-51.129590689287646, -29.964563943204404], [-51.129590689287646, -29.965102932374876]]]}}, {"id": "19", "type": "Feature", "properties": {"cultura": "Outras Lavouras Temporárias", "classe_id": 41, "area_ha": 0.39}, "geometry": {"type": "Polygon", "coordinates": [[[-51.14090946186755, -29.965372426960112], [-51.14117895645279, -29.964563943204404], [-51.140100978111846, -29.965102932374876], [-51.14090946186755, -29.965372426960112]]]}}, {"id": "20", "type": "Feature", "properties": {"cultura": "Soja", "classe_id": 39, "area_ha": 0.04}, "geometry": {"type": "Polygon", "coordinates": [[[-51.14090946186755, -29.965372426960112], [-51.14117895645279, -29.965372426960112], [-51.14090946186755, -29.965102932374876], [-51.14090946186755, -29.965372426960112]]]}}, {"id": "21", "type": "Feature", "properties": {"cultura": "Outras Lavouras Temporárias", "classe_id": 41, "area_ha": 0.04}, "geometry": {"type": "Polygon", "coordinates": [[[-51.1495332885951, -29.96564192154535], [-51.149802783180334, -29.96564192154535], [-51.1495332885951, -29.965372426960112], [-51.1495332885951, -29.96564192154535]]]}}, {"id": "22", "type": "Feature", "properties": {"cultura": "Soja", "classe_id": 39, "area_ha": 0.08}, "geometry": {"type": "Polygon", "coordinates": [[[-51.14117895645279, -29.965911416130584], [-51.14144845103802, -29.965911416130584], [-51.14117895645279, -29.965372426960112], [-51.14117895645279, -29.965911416130584]]]}}, {"id": "23", "type": "Feature", "properties": {"cultura": "Soja", "classe_id": 39, "area_ha": 0.31}, "geometry": {"type": "Polygon", "coordinates": [[[-51.108839606224485, -29.965911416130584], [-51.10991758456543, -29.96564192154535], [-51.108839606224485, -29.965372426960112], [-51.108839606224485, -29.965911416130584]]]}}, {"id": "24", "type": "Feature", "properties": {"cultura": "Arroz", "classe_id": 40, "area_ha": 0.04}, "geometry": {"type": "Polygon", "coordinates": [[[-51.09374790945128, -29.965911416130584], [-51.094017404036514, -29.965911416130584], [-51.09374790945128, -29.96564192154535], [-51.09374790945128, -29.965911416130584]]]}}, {"id": "25", "type": "Feature", "properties": {"cultura": "Arroz", "classe_id": 40, "area_ha": 1.01}, "geometry": {"type": "Polygon", "coordinates": [[[-51.10964808998019, -29.965911416130584], [-51.11018707915066, -29.96725888905676], [-51.1104565737359, -29.96725888905676], [-51.1104565737359, -29.965372426960112], [-51.10964808998019, -29.965911416130584]]]}}, {"id": "26", "type": "Feature", "properties": {"cultura": "Outras Lavouras Temporárias", "classe_id": 41, "area_ha": 2.14}, "geometry": {"type": "Polygon", "coordinates": [[[-51.14899429942463, -29.966989394471526], [-51.152228234447456, -29.96671989988629], [-51.15034177235081, -29.96564192154535], [-51.14899429942463, -29.966989394471526]]]}}, {"id": "27", "type": "Feature", "properties": {"cultura": "Soja", "classe_id": 39, "area_ha": 0.23}, "geometry": {"type": "Polygon", "coordinates": [[[-51.11207354124732, -29.966450405301053], [-51.11126505749161, -29.96725888905676], [-51.11207354124732, -29.966989394471526], [-51.11207354124732, -29.966450405301053]]]}}, {"id": "28", "type": "Feature", "properties": {"cultura": "Arroz", "classe_id": 40, "area_ha": 156.38}, "geometry": {"type": "Polygon", "coordinates": [[[-51.12689574343529, -29.95971304067016], [-51.127434732605764, -29.958096073158742], [-51.12581776509435, -29.957287589403037], [-51.12420079758293, -29.958096073158742], [-51.125278775923874, -29.95890455691445], [-51.1247397867534, -29.961060513596337], [-51.12258383007151, -29.9607910190111], [-51.12177534631581, -29.961868997352045], [-51.11827191670774, -29.961868997352045], [-51.11692444378156, -29.9607910190111], [-51.11611596002585, -29.96159950276681], [-51.11638545461109, -29.960521524425864], [-51.11396000334397, -29.961060513596337], [-51.11611596002585, -29.96483343778964], [-51.11692444378156, -29.964563943204404], [-51.11611596002585, -29.962677481107754], [-51.116654949196324, -29.96348596486346], [-51.11988888421916, -29.963216470278226], [-51.12042787338963, -29.963755459448695], [-51.12231433548628, -29.96402495403393], [-51.12150585173057, -29.964563943204404], [-51.11881090587821, -29.963755459448695], [-51.11800242212251, -29.964563943204404], [-51.117463432952036, -29.963755459448695], [-51.11800242212251, -29.965102932374876], [-51.117193938366796, -29.965372426960112], [-51.11881090587821, -29.967528383641998], [-51.13228563514001, -29.96671989988629], [-51.13713653767425, -29.96725888905676], [-51.13713653767425, -29.96671989988629], [-51.1390229997709, -29.96671989988629], [-51.13929249435614, -29.965911416130584], [-51.139561988941374, -29.966989394471526], [-51.14144845103802, -29.966450405301053], [-51.14117895645279, -29.965372426960112], [-51.140100978111846, -29.965102932374876], [-51.14063996728232, -29.961060513596337], [-51.139831483526606, -29.961330008181573], [-51.13848401060043, -29.95971304067016], [-51.13686704308901, -29.961060513596337], [-51.135519570162835, -29.960521524425864], [-51.133633108066185, -29.961868997352045], [-51.13120765679906, -29.96159950276681], [-51.13120765679906, -29.964563943204404], [-51.13794502142996, -29.965102932374876], [-51.12797372177623, -29.965102932374876], [-51.12797372177623, -29.964563943204404], [-51.13093816221382, -29.964563943204404], [-51.13120765679906, -29.959443546084923], [-51.129051700117174, -29.958096073158742], [-51.129590689287646, -29.959443546084923], [-51.12689574343529, -29.95971304067016]], [[-51.125278775923874, -29.958635062329215], [-51.12662624885005, -29.959174051499687], [-51.125278775923874, -29.95890455691445], [-51.125278775923874, -29.958635062329215]], [[-51.129860183872886, -29.95971304067016], [-51.129590689287646, -29.95971304067016], [-51.129590689287646, -29.959443546084923], [-51.129860183872886, -29.95971304067016]], [[-51.12662624885005, -29.96159950276681], [-51.125009281338635, -29.961330008181573], [-51.125009281338635, -29.961060513596337], [-51.12635675426482, -29.9607910190111], [-51.12662624885005, -29.96159950276681]], [[-51.123392313827225, -29.962677481107754], [-51.123392313827225, -29.961330008181573], [-51.12366180841246, -29.962677481107754], [-51.123392313827225, -29.962677481107754]], [[-51.12689574343529, -29.961868997352045], [-51.12689574343529, -29.96159950276681], [-51.12878220553194, -29.96213849193728], [-51.12689574343529, -29.961868997352045]], [[-51.11584646544062, -29.961868997352045], [-51.11584646544062, -29.96159950276681], [-51.11611596002585, -29.961868997352045], [-51.11584646544062, -29.961868997352045]], [[-51.127165238020524, -29.962407986522518], [-51.12635675426482, -29.96348596486346], [-51.12662624885005, -29.962407986522518], [-51.127165238020524, -29.962407986522518]], [[-51.12042787338963, -29.96348596486346], [-51.12042787338963, -29.963216470278226], [-51.12069736797486, -29.96348596486346], [-51.12042787338963, -29.96348596486346]], [[-51.12366180841246, -29.96483343778964], [-51.12689574343529, -29.964563943204404], [-51.127165238020524, -29.965102932374876], [-51.11854141129297, -29.965102932374876], [-51.123122819241985, -29.96483343778964], [-51.12366180841246, -29.96348596486346], [-51.12366180841246, -29.96483343778964]], [[-51.139561988941374, -29.965911416130584], [-51.139561988941374, -29.965372426960112], [-51.139831483526606, -29.965911416130584], [-51.139561988941374, -29.965911416130584]]]}}, {"id": "29", "type": "Feature", "properties": {"cultura": "Soja", "classe_id": 39, "area_ha": 0.04}, "geometry": {"type": "Polygon", "coordinates": [[[-51.110995562906375, -29.967528383641998], [-51.11126505749161, -29.967528383641998], [-51.110995562906375, -29.96725888905676], [-51.110995562906375, -29.967528383641998]]]}}, {"id": "30", "type": "Feature", "properties": {"cultura": "Soja", "classe_id": 39, "area_ha": 3.03}, "geometry": {"type": "Polygon", "coordinates": [[[-51.09320892028081, -29.966450405301053], [-51.094556393206986, -29.966450405301053], [-51.09482588779222, -29.967528383641998], [-51.09590386613316, -29.967797878227234], [-51.0961733607184, -29.966450405301053], [-51.09320892028081, -29.96564192154535], [-51.09320892028081, -29.966450405301053]]]}}, {"id": "31", "type": "Feature", "properties": {"cultura": "Arroz", "classe_id": 40, "area_ha": 0.12}, "geometry": {"type": "Polygon", "coordinates": [[[-51.13228563514001, -29.96806737281247], [-51.13309411889571, -29.96806737281247], [-51.13228563514001, -29.967797878227234], [-51.13228563514001, -29.96806737281247]]]}}, {"id": "32", "type": "Feature", "properties": {"cultura": "Arroz", "classe_id": 40, "area_ha": 0.08}, "geometry": {"type": "Polygon", "coordinates": [[[-51.10803112246878, -29.96806737281247], [-51.10857011163925, -29.96806737281247], [-51.10803112246878, -29.967797878227234], [-51.10803112246878, -29.96806737281247]]]}}, {"id": "33", "type": "Feature", "properties": {"cultura": "Outras Lavouras Temporárias", "classe_id": 41, "area_ha": 0.08}, "geometry": {"type": "Polygon", "coordinates": [[[-51.13093816221382, -29.96941484573865], [-51.13120765679906, -29.96941484573865], [-51.13093816221382, -29.96887585656818], [-51.13093816221382, -29.96941484573865]]]}}, {"id": "34", "type": "Feature", "properties": {"cultura": "Outras Lavouras Temporárias", "classe_id": 41, "area_ha": 0.23}, "geometry": {"type": "Polygon", "coordinates": [[[-51.13012967845812, -29.96941484573865], [-51.13066866762859, -29.96941484573865], [-51.13012967845812, -29.968606361982943], [-51.13012967845812, -29.96941484573865]]]}}, {"id": "35", "type": "Feature", "properties": {"cultura": "Arroz", "classe_id": 40, "area_ha": 0.58}, "geometry": {"type": "Polygon", "coordinates": [[[-51.11234303583255, -29.96887585656818], [-51.112612530417785, -29.969684340323884], [-51.11315151958826, -29.969684340323884], [-51.11315151958826, -29.96887585656818], [-51.11234303583255, -29.96887585656818]]]}}, {"id": "36", "type": "Feature", "properties": {"cultura": "Outras Lavouras Temporárias", "classe_id": 41, "area_ha": 0.04}, "geometry": {"type": "Polygon", "coordinates": [[[-51.13066866762859, -29.969684340323884], [-51.13093816221382, -29.969684340323884], [-51.13066866762859, -29.96941484573865], [-51.13066866762859, -29.969684340323884]]]}}, {"id": "37", "type": "Feature", "properties": {"cultura": "Outras Lavouras Temporárias", "classe_id": 41, "area_ha": 0.08}, "geometry": {"type": "Polygon", "coordinates": [[[-51.129590689287646, -29.969684340323884], [-51.13012967845812, -29.969684340323884], [-51.129590689287646, -29.96941484573865], [-51.129590689287646, -29.969684340323884]]]}}, {"id": "38", "type": "Feature", "properties": {"cultura": "Outras Lavouras Temporárias", "classe_id": 41, "area_ha": 0.08}, "geometry": {"type": "Polygon", "coordinates": [[[-51.11126505749161, -29.96995383490912], [-51.11180404666208, -29.96995383490912], [-51.11126505749161, -29.969684340323884], [-51.11126505749161, -29.96995383490912]]]}}, {"id": "39", "type": "Feature", "properties": {"cultura": "Outras Lavouras Temporárias", "classe_id": 41, "area_ha": 0.08}, "geometry": {"type": "Polygon", "coordinates": [[[-51.11018707915066, -29.96995383490912], [-51.110726068321135, -29.96995383490912], [-51.11018707915066, -29.969684340323884], [-51.11018707915066, -29.96995383490912]]]}}, {"id": "40", "type": "Feature", "properties": {"cultura": "Outras Lavouras Temporárias", "classe_id": 41, "area_ha": 0.08}, "geometry": {"type": "Polygon", "coordinates": [[[-51.110726068321135, -29.970223329494356], [-51.11126505749161, -29.970223329494356], [-51.110726068321135, -29.96995383490912], [-51.110726068321135, -29.970223329494356]]]}}, {"id": "41", "type": "Feature", "properties": {"cultura": "Outras Lavouras Temporárias", "classe_id": 41, "area_ha": 0.16}, "geometry": {"type": "Polygon", "coordinates": [[[-51.11126505749161, -29.97076231866483], [-51.11180404666208, -29.97076231866483], [-51.11126505749161, -29.970223329494356], [-51.11126505749161, -29.97076231866483]]]}}, {"id": "42", "type": "Feature", "properties": {"cultura": "Soja", "classe_id": 39, "area_ha": 0.04}, "geometry": {"type": "Polygon", "coordinates": [[[-51.08835801774656, -29.971031813250065], [-51.0886275123318, -29.971031813250065], [-51.08835801774656, -29.97076231866483], [-51.08835801774656, -29.971031813250065]]]}}, {"id": "43", "type": "Feature", "properties": {"cultura": "Outras Lavouras Temporárias", "classe_id": 41, "area_ha": 14.67}, "geometry": {"type": "Polygon", "coordinates": [[[-51.127165238020524, -29.971570802420537], [-51.12689574343529, -29.972648780761478], [-51.129051700117174, -29.972379286176245], [-51.129590689287646, -29.971570802420537], [-51.13471108640713, -29.97210979159101], [-51.13417209723666, -29.96941484573865], [-51.13471108640713, -29.968336867397706], [-51.13282462431048, -29.968606361982943], [-51.13336361348095, -29.969684340323884], [-51.13066866762859, -29.970223329494356], [-51.13066866762859, -29.9713013078353], [-51.129051700117174, -29.9713013078353], [-51.12932119470241, -29.970492824079592], [-51.1285127109467, -29.969684340323884], [-51.129590689287646, -29.969145351153415], [-51.1285127109467, -29.968606361982943], [-51.12824321636147, -29.971031813250065], [-51.127165238020524, -29.971570802420537]], [[-51.12797372177623, -29.971840297005773], [-51.127434732605764, -29.971840297005773], [-51.127434732605764, -29.971570802420537], [-51.12797372177623, -29.971840297005773]], [[-51.13201614055477, -29.970492824079592], [-51.13228563514001, -29.971570802420537], [-51.131477151384296, -29.971031813250065], [-51.13201614055477, -29.970492824079592]]]}}, {"id": "44", "type": "Feature", "properties": {"cultura": "Outras Lavouras Temporárias", "classe_id": 41, "area_ha": 9.39}, "geometry": {"type": "Polygon", "coordinates": [[[-51.12447029216817, -29.96887585656818], [-51.1239313029977, -29.971031813250065], [-51.123392313827225, -29.971031813250065], [-51.123392313827225, -29.96887585656818], [-51.12231433548628, -29.969145351153415], [-51.12231433548628, -29.971570802420537], [-51.12447029216817, -29.972379286176245], [-51.12420079758293, -29.972918275346714], [-51.12662624885005, -29.972648780761478], [-51.125009281338635, -29.971840297005773], [-51.12554827050911, -29.969145351153415], [-51.12635675426482, -29.96887585656818], [-51.12447029216817, -29.96887585656818]]]}}, {"id": "45", "type": "Feature", "properties": {"cultura": "Soja", "classe_id": 39, "area_ha": 0.78}, "geometry": {"type": "Polygon", "coordinates": [[[-51.092130941939864, -29.97318776993195], [-51.09374790945128, -29.972648780761478], [-51.092669931110336, -29.97210979159101], [-51.092130941939864, -29.97318776993195]]]}}, {"id": "46", "type": "Feature", "properties": {"cultura": "Soja", "classe_id": 39, "area_ha": 2.82}, "geometry": {"type": "Polygon", "coordinates": [[[-51.08754953399085, -29.97318776993195], [-51.0886275123318, -29.972918275346714], [-51.08781902857609, -29.974265748272895], [-51.08889700691703, -29.973457264517187], [-51.08835801774656, -29.971031813250065], [-51.087022784320474, -29.97209999999093], [-51.08754953399085, -29.97318776993195]]]}}, {"id": "47", "type": "Feature", "properties": {"cultura": "Soja", "classe_id": 39, "area_ha": 0.78}, "geometry": {"type": "Polygon", "coordinates": [[[-51.09078346901369, -29.973726759102423], [-51.08970549067274, -29.974804737443367], [-51.092130941939864, -29.973726759102423], [-51.09078346901369, -29.973726759102423]]]}}, {"id": "48", "type": "Feature", "properties": {"cultura": "Arroz", "classe_id": 40, "area_ha": 0.08}, "geometry": {"type": "Polygon", "coordinates": [[[-51.1142294979292, -29.974804737443367], [-51.11449899251444, -29.974804737443367], [-51.1142294979292, -29.974265748272895], [-51.1142294979292, -29.974804737443367]]]}}, {"id": "49", "type": "Feature", "properties": {"cultura": "Outras Lavouras Temporárias", "classe_id": 41, "area_ha": 0.12}, "geometry": {"type": "Polygon", "coordinates": [[[-51.08835801774656, -29.975074232028604], [-51.0886275123318, -29.975074232028604], [-51.088088523161325, -29.974265748272895], [-51.08835801774656, -29.975074232028604]]]}}, {"id": "50", "type": "Feature", "properties": {"cultura": "Outras Lavouras Temporárias", "classe_id": 41, "area_ha": 1.24}, "geometry": {"type": "Polygon", "coordinates": [[[-51.16166054493071, -29.97453524285813], [-51.16166054493071, -29.975613221199072], [-51.162469028686424, -29.975613221199072], [-51.163008017856896, -29.97453524285813], [-51.16166054493071, -29.97453524285813]]]}}, {"id": "51", "type": "Feature", "properties": {"cultura": "Arroz", "classe_id": 40, "area_ha": 0.04}, "geometry": {"type": "Polygon", "coordinates": [[[-51.11396000334397, -29.97723018871049], [-51.1142294979292, -29.97723018871049], [-51.11396000334397, -29.976960694125253], [-51.11396000334397, -29.97723018871049]]]}}, {"id": "52", "type": "Feature", "properties": {"cultura": "Arroz", "classe_id": 40, "area_ha": 0.12}, "geometry": {"type": "Polygon", "coordinates": [[[-51.11315151958826, -29.977499683295726], [-51.11396000334397, -29.977499683295726], [-51.11315151958826, -29.97723018871049], [-51.11315151958826, -29.977499683295726]]]}}, {"id": "53", "type": "Feature", "properties": {"cultura": "Arroz", "classe_id": 40, "area_ha": 0.08}, "geometry": {"type": "Polygon", "coordinates": [[[-51.11180404666208, -29.977769177880962], [-51.11234303583255, -29.977769177880962], [-51.11180404666208, -29.977499683295726], [-51.11180404666208, -29.977769177880962]]]}}, {"id": "54", "type": "Feature", "properties": {"cultura": "Outras Lavouras Temporárias", "classe_id": 41, "area_ha": 0.23}, "geometry": {"type": "Polygon", "coordinates": [[[-51.0924004365251, -29.977769177880962], [-51.09320892028081, -29.977769177880962], [-51.0924004365251, -29.97723018871049], [-51.0924004365251, -29.977769177880962]]]}}, {"id": "55", "type": "Feature", "properties": {"cultura": "Soja", "classe_id": 39, "area_ha": 1.24}, "geometry": {"type": "Polygon", "coordinates": [[[-51.0886275123318, -29.978308167051434], [-51.08970549067274, -29.978577661636667], [-51.0886275123318, -29.976152210369545], [-51.0886275123318, -29.978308167051434]]]}}, {"id": "56", "type": "Feature", "properties": {"cultura": "Outras Lavouras Temporárias", "classe_id": 41, "area_ha": 0.31}, "geometry": {"type": "Polygon", "coordinates": [[[-51.09428689862175, -29.978847156221903], [-51.09482588779222, -29.978847156221903], [-51.094556393206986, -29.977769177880962], [-51.09428689862175, -29.978847156221903]]]}}, {"id": "57", "type": "Feature", "properties": {"cultura": "Arroz", "classe_id": 40, "area_ha": 0.04}, "geometry": {"type": "Polygon", "coordinates": [[[-51.096712349888875, -29.97911665080714], [-51.09698184447411, -29.97911665080714], [-51.096712349888875, -29.978847156221903], [-51.096712349888875, -29.97911665080714]]]}}, {"id": "58", "type": "Feature", "properties": {"cultura": "Arroz", "classe_id": 40, "area_ha": 0.04}, "geometry": {"type": "Polygon", "coordinates": [[[-51.0961733607184, -29.97911665080714], [-51.096442855303636, -29.97911665080714], [-51.0961733607184, -29.978847156221903], [-51.0961733607184, -29.97911665080714]]]}}, {"id": "59", "type": "Feature", "properties": {"cultura": "Soja", "classe_id": 39, "area_ha": 0.97}, "geometry": {"type": "Polygon", "coordinates": [[[-51.08916650150227, -29.97965563997761], [-51.092669931110336, -29.979386145392375], [-51.0894359960875, -29.97911665080714], [-51.08916650150227, -29.97965563997761]]]}}, {"id": "60", "type": "Feature", "properties": {"cultura": "Outras Lavouras Temporárias", "classe_id": 41, "area_ha": 0.08}, "geometry": {"type": "Polygon", "coordinates": [[[-51.117193938366796, -29.979925134562848], [-51.117463432952036, -29.979925134562848], [-51.117193938366796, -29.979386145392375], [-51.117193938366796, -29.979925134562848]]]}}, {"id": "61", "type": "Feature", "properties": {"cultura": "Outras Lavouras Temporárias", "classe_id": 41, "area_ha": 0.16}, "geometry": {"type": "Polygon", "coordinates": [[[-51.090244479843214, -29.980733618318556], [-51.09078346901369, -29.980733618318556], [-51.090244479843214, -29.980194629148084], [-51.090244479843214, -29.980733618318556]]]}}, {"id": "62", "type": "Feature", "properties": {"cultura": "Outras Lavouras Temporárias", "classe_id": 41, "area_ha": 0.04}, "geometry": {"type": "Polygon", "coordinates": [[[-51.09078346901369, -29.981003112903792], [-51.09105296359892, -29.981003112903792], [-51.09078346901369, -29.980733618318556], [-51.09078346901369, -29.981003112903792]]]}}, {"id": "63", "type": "Feature", "properties": {"cultura": "Outras Lavouras Temporárias", "classe_id": 41, "area_ha": 0.08}, "geometry": {"type": "Polygon", "coordinates": [[[-51.089974985257975, -29.98127260748903], [-51.090244479843214, -29.98127260748903], [-51.089974985257975, -29.980733618318556], [-51.089974985257975, -29.98127260748903]]]}}, {"id": "64", "type": "Feature", "properties": {"cultura": "Outras Lavouras Temporárias", "classe_id": 41, "area_ha": 0.47}, "geometry": {"type": "Polygon", "coordinates": [[[-51.0894359960875, -29.98235058582997], [-51.09105296359892, -29.98235058582997], [-51.089974985257975, -29.981811596659497], [-51.0894359960875, -29.98235058582997]]]}}, {"id": "65", "type": "Feature", "properties": {"cultura": "Outras Lavouras Temporárias", "classe_id": 41, "area_ha": 0.04}, "geometry": {"type": "Polygon", "coordinates": [[[-51.092130941939864, -29.98369805875615], [-51.0924004365251, -29.98369805875615], [-51.092130941939864, -29.983428564170914], [-51.092130941939864, -29.98369805875615]]]}}, {"id": "66", "type": "Feature", "properties": {"cultura": "Arroz", "classe_id": 40, "area_ha": 0.13}, "geometry": {"type": "Polygon", "coordinates": [[[-51.098598811985525, -29.985433333324252], [-51.097915542080955, -29.985045531682328], [-51.097915542080955, -29.985398502168326], [-51.098598811985525, -29.985433333324252]]]}}, {"id": "67", "type": "Feature", "properties": {"cultura": "Arroz", "classe_id": 40, "area_ha": 0.08}, "geometry": {"type": "Polygon", "coordinates": [[[-51.11234303583255, -30.085567011975304], [-51.112612530417785, -30.085567011975304], [-51.11234303583255, -30.08502802280483], [-51.11234303583255, -30.085567011975304]]]}}, {"id": "68", "type": "Feature", "properties": {"cultura": "Arroz", "classe_id": 40, "area_ha": 0.0}, "geometry": {"type": "Polygon", "coordinates": [[[-51.112082208786745, -30.086384163270438], [-51.11207354124732, -30.08664499031625], [-51.112082208786745, -30.08664499031625], [-51.112082208786745, -30.086384163270438]]]}}, {"id": "69", "type": "Feature", "properties": {"cultura": "Arroz", "classe_id": 40, "area_ha": 0.04}, "geometry": {"type": "Polygon", "coordinates": [[[-51.11180404666208, -30.086914484901484], [-51.11207354124732, -30.086914484901484], [-51.11180404666208, -30.08664499031625], [-51.11180404666208, -30.086914484901484]]]}}, {"id": "70", "type": "Feature", "properties": {"cultura": "Outras Lavouras Temporárias", "classe_id": 41, "area_ha": 0.19}, "geometry": {"type": "Polygon", "coordinates": [[[-51.222835815779256, -30.166684882131296], [-51.22418328870543, -30.166684882131296], [-51.222835815779256, -30.16641538754606], [-51.222835815779256, -30.166684882131296]]]}}, {"id": "71", "type": "Feature", "properties": {"cultura": "Outras Lavouras Temporárias", "classe_id": 41, "area_ha": 0.04}, "geometry": {"type": "Polygon", "coordinates": [[[-51.224452783290666, -30.16722387130177], [-51.224722277875905, -30.16722387130177], [-51.224452783290666, -30.166954376716532], [-51.224452783290666, -30.16722387130177]]]}}, {"id": "72", "type": "Feature", "properties": {"cultura": "Outras Lavouras Temporárias", "classe_id": 41, "area_ha": 0.08}, "geometry": {"type": "Polygon", "coordinates": [[[-51.21744592407454, -30.174500225103134], [-51.217984913245004, -30.174500225103134], [-51.21744592407454, -30.174230730517902], [-51.21744592407454, -30.174500225103134]]]}}, {"id": "73", "type": "Feature", "properties": {"cultura": "Outras Lavouras Temporárias", "classe_id": 41, "area_ha": 0.23}, "geometry": {"type": "Polygon", "coordinates": [[[-51.21879339700072, -30.177195170955496], [-51.21960188075642, -30.177195170955496], [-51.21879339700072, -30.176656181785024], [-51.21879339700072, -30.177195170955496]]]}}, {"id": "74", "type": "Feature", "properties": {"cultura": "Arroz", "classe_id": 40, "area_ha": 0.03}, "geometry": {"type": "Polygon", "coordinates": [[[-51.24439538259812, -30.183124051830685], [-51.24466487718336, -30.183124051830685], [-51.244474158676745, -30.182933333324073], [-51.24439538259812, -30.183124051830685]]]}}, {"id": "75", "type": "Feature", "properties": {"cultura": "Arroz", "classe_id": 40, "area_ha": 0.04}, "geometry": {"type": "Polygon", "coordinates": [[[-51.24466487718336, -30.18339354641592], [-51.24493437176859, -30.18339354641592], [-51.24466487718336, -30.183124051830685], [-51.24466487718336, -30.18339354641592]]]}}, {"id": "76", "type": "Feature", "properties": {"cultura": "Arroz", "classe_id": 40, "area_ha": 0.05}, "geometry": {"type": "Polygon", "coordinates": [[[-51.24510024069758, -30.183766666657405], [-51.2454155424883, -30.183766666657405], [-51.2454155424883, -30.183451364866684], [-51.24510024069758, -30.183766666657405]]]}}, {"id": "77", "type": "Feature", "properties": {"cultura": "Arroz", "classe_id": 40, "area_ha": 0.66}, "geometry": {"type": "Polygon", "coordinates": [[[-51.24709032845048, -30.186896976023984], [-51.247359823035715, -30.185549503097807], [-51.24708220915957, -30.186266666657403], [-51.2454155424883, -30.186266666657403], [-51.24709032845048, -30.186896976023984]]]}}, {"id": "78", "type": "Feature", "properties": {"cultura": "Arroz", "classe_id": 40, "area_ha": 1.36}, "geometry": {"type": "Polygon", "coordinates": [[[-51.243317404257176, -30.188244448950165], [-51.243520428223924, -30.187099999990735], [-51.242082209145764, -30.187278748423985], [-51.242082209145764, -30.188038583098262], [-51.243317404257176, -30.188244448950165]]]}}, {"id": "78", "type": "Feature", "properties": {"cultura": "Arroz", "classe_id": 40, "area_ha": 0.27}, "geometry": {"type": "Polygon", "coordinates": [[[-51.24124887581013, -30.189599999990733], [-51.24185877920426, -30.1887666666574], [-51.24124887581013, -30.1887666666574], [-51.24124887581013, -30.189599999990733]]]}}, {"id": "78", "type": "Feature", "properties": {"cultura": "Arroz", "classe_id": 40, "area_ha": 0.01}, "geometry": {"type": "Polygon", "coordinates": [[[-51.240415542474494, -30.189670852255354], [-51.240415542474494, -30.189599999990733], [-51.24023841181294, -30.189599999990733], [-51.240415542474494, -30.189670852255354]]]}}, {"id": "79", "type": "Feature", "properties": {"cultura": "Outras Lavouras Temporárias", "classe_id": 41, "area_ha": 0.01}, "geometry": {"type": "Polygon", "coordinates": [[[-51.194582209014584, -30.19552080275153], [-51.19472090948725, -30.19543333332406], [-51.194582209014584, -30.19543333332406], [-51.194582209014584, -30.19552080275153]]]}}, {"id": "80", "type": "Feature", "properties": {"cultura": "Outras Lavouras Temporárias", "classe_id": 41, "area_ha": 0.04}, "geometry": {"type": "Polygon", "coordinates": [[[-51.19480837891472, -30.196059791922004], [-51.19507787349996, -30.196059791922004], [-51.19480837891472, -30.195790297336767], [-51.19480837891472, -30.196059791922004]]]}}, {"id": "81", "type": "Feature", "properties": {"cultura": "Outras Lavouras Temporárias", "classe_id": 41, "area_ha": 0.03}, "geometry": {"type": "Polygon", "coordinates": [[[-51.19480837891472, -30.196598781092476], [-51.194582209014584, -30.196372611192334], [-51.194582209014584, -30.196598781092476], [-51.19480837891472, -30.196598781092476]]]}}, {"id": "82", "type": "Feature", "properties": {"cultura": "Outras Lavouras Temporárias", "classe_id": 41, "area_ha": 0.0}, "geometry": {"type": "Polygon", "coordinates": [[[-51.14877681854827, -30.229599999990697], [-51.14874887555467, -30.229599999990697], [-51.14874887555467, -30.229823543939453], [-51.14877681854827, -30.229599999990697]]]}}, {"id": "82", "type": "Feature", "properties": {"cultura": "Outras Lavouras Temporárias", "classe_id": 41, "area_ha": 0.07}, "geometry": {"type": "Polygon", "coordinates": [[[-51.14926379400986, -30.23028560424696], [-51.14874887555467, -30.230028145019364], [-51.14874887555467, -30.23028560424696], [-51.14926379400986, -30.23028560424696]]]}}, {"id": "83", "type": "Feature", "properties": {"cultura": "Soja", "classe_id": 39, "area_ha": 0.13}, "geometry": {"type": "Polygon", "coordinates": [[[-51.15579254680961, -30.23043333332403], [-51.15519267488505, -30.230016109661722], [-51.15519267488505, -30.23043333332403], [-51.15579254680961, -30.23043333332403]]]}}, {"id": "84", "type": "Feature", "properties": {"cultura": "Soja", "classe_id": 39, "area_ha": 0.37}, "geometry": {"type": "Polygon", "coordinates": [[[-51.15805930029929, -30.23043333332403], [-51.15708220891102, -30.229746615076486], [-51.15761812615217, -30.23082459341743], [-51.15805930029929, -30.23043333332403]]]}}, {"id": "85", "type": "Feature", "properties": {"cultura": "Outras Lavouras Temporárias", "classe_id": 41, "area_ha": 0.0}, "geometry": {"type": "Polygon", "coordinates": [[[-51.17971668214152, -30.23082459341743], [-51.17958220897316, -30.23077976902798], [-51.17958220897316, -30.23082459341743], [-51.17971668214152, -30.23082459341743]]]}}, {"id": "86", "type": "Feature", "properties": {"cultura": "Soja", "classe_id": 39, "area_ha": 0.81}, "geometry": {"type": "Polygon", "coordinates": [[[-51.148185815668924, -30.230555098832195], [-51.14845531025416, -30.231902571758372], [-51.14926379400986, -30.23028560424696], [-51.148185815668924, -30.230555098832195]]]}}, {"id": "87", "type": "Feature", "properties": {"cultura": "Soja", "classe_id": 39, "area_ha": 1.39}, "geometry": {"type": "Polygon", "coordinates": [[[-51.15492318029982, -30.232441560928844], [-51.15761812615217, -30.23163307717314], [-51.15708220891102, -30.2308292013114], [-51.15492318029982, -30.232441560928844]]]}}, {"id": "88", "type": "Feature", "properties": {"cultura": "Outras Lavouras Temporárias", "classe_id": 41, "area_ha": 0.04}, "geometry": {"type": "Polygon", "coordinates": [[[-51.152497729032696, -30.232980550099317], [-51.15276722361793, -30.232980550099317], [-51.152497729032696, -30.23271105551408], [-51.152497729032696, -30.232980550099317]]]}}, {"id": "89", "type": "Feature", "properties": {"cultura": "Outras Lavouras Temporárias", "classe_id": 41, "area_ha": 0.08}, "geometry": {"type": "Polygon", "coordinates": [[[-51.15303671820317, -30.233250044684553], [-51.15357570737364, -30.233250044684553], [-51.15303671820317, -30.232980550099317], [-51.15303671820317, -30.233250044684553]]]}}, {"id": "90", "type": "Feature", "properties": {"cultura": "Soja", "classe_id": 39, "area_ha": 0.23}, "geometry": {"type": "Polygon", "coordinates": [[[-51.15357570737364, -30.23351953926979], [-51.152497729032696, -30.232980550099317], [-51.152228234447456, -30.233250044684553], [-51.15357570737364, -30.23351953926979]]]}}, {"id": "91", "type": "Feature", "properties": {"cultura": "Outras Lavouras Temporárias", "classe_id": 41, "area_ha": 0.04}, "geometry": {"type": "Polygon", "coordinates": [[[-51.158157115322645, -30.233789033855025], [-51.158426609907885, -30.233789033855025], [-51.158157115322645, -30.23351953926979], [-51.158157115322645, -30.233789033855025]]]}}, {"id": "92", "type": "Feature", "properties": {"cultura": "Soja", "classe_id": 39, "area_ha": 0.02}, "geometry": {"type": "Polygon", "coordinates": [[[-51.151689245276984, -30.23351953926979], [-51.151689245276984, -30.23376666665736], [-51.151853996868695, -30.23376666665736], [-51.151689245276984, -30.23351953926979]]]}}, {"id": "92", "type": "Feature", "properties": {"cultura": "Soja", "classe_id": 39, "area_ha": 0.02}, "geometry": {"type": "Polygon", "coordinates": [[[-51.152228234447456, -30.234328023025498], [-51.15208220889721, -30.234108984700132], [-51.15208220889721, -30.234328023025498], [-51.152228234447456, -30.234328023025498]]]}}, {"id": "93", "type": "Feature", "properties": {"cultura": "Outras Lavouras Temporárias", "classe_id": 41, "area_ha": 0.08}, "geometry": {"type": "Polygon", "coordinates": [[[-51.15788762073741, -30.234328023025498], [-51.158157115322645, -30.234328023025498], [-51.15788762073741, -30.233789033855025], [-51.15788762073741, -30.234328023025498]]]}}, {"id": "94", "type": "Feature", "properties": {"cultura": "Outras Lavouras Temporárias", "classe_id": 41, "area_ha": 0.04}, "geometry": {"type": "Polygon", "coordinates": [[[-51.147916321083684, -30.234328023025498], [-51.148185815668924, -30.234328023025498], [-51.147916321083684, -30.23405852844026], [-51.147916321083684, -30.234328023025498]]]}}, {"id": "95", "type": "Feature", "properties": {"cultura": "Outras Lavouras Temporárias", "classe_id": 41, "area_ha": 0.08}, "geometry": {"type": "Polygon", "coordinates": [[[-51.16112155576024, -30.235136506781203], [-51.16166054493071, -30.235136506781203], [-51.16112155576024, -30.234867012195966], [-51.16112155576024, -30.235136506781203]]]}}, {"id": "96", "type": "Feature", "properties": {"cultura": "Outras Lavouras Temporárias", "classe_id": 41, "area_ha": 0.04}, "geometry": {"type": "Polygon", "coordinates": [[[-51.16085206117501, -30.23540600136644], [-51.16112155576024, -30.23540600136644], [-51.16085206117501, -30.235136506781203], [-51.16085206117501, -30.23540600136644]]]}}, {"id": "97", "type": "Feature", "properties": {"cultura": "Outras Lavouras Temporárias", "classe_id": 41, "area_ha": 0.08}, "geometry": {"type": "Polygon", "coordinates": [[[-51.16112155576024, -30.235675495951675], [-51.16166054493071, -30.235675495951675], [-51.16112155576024, -30.23540600136644], [-51.16112155576024, -30.235675495951675]]]}}, {"id": "98", "type": "Feature", "properties": {"cultura": "Outras Lavouras Temporárias", "classe_id": 41, "area_ha": 0.04}, "geometry": {"type": "Polygon", "coordinates": [[[-51.160582566589774, -30.235675495951675], [-51.16085206117501, -30.235675495951675], [-51.160582566589774, -30.23540600136644], [-51.160582566589774, -30.235675495951675]]]}}, {"id": "99", "type": "Feature", "properties": {"cultura": "Outras Lavouras Temporárias", "classe_id": 41, "area_ha": 0.08}, "geometry": {"type": "Polygon", "coordinates": [[[-51.15896559907836, -30.236214485122147], [-51.15950458824883, -30.236214485122147], [-51.15896559907836, -30.23594499053691], [-51.15896559907836, -30.236214485122147]]]}}, {"id": "100", "type": "Feature", "properties": {"cultura": "Arroz", "classe_id": 40, "area_ha": 0.08}, "geometry": {"type": "Polygon", "coordinates": [[[-51.15573166405552, -30.236483979707383], [-51.156270653225995, -30.236483979707383], [-51.15573166405552, -30.236214485122147], [-51.15573166405552, -30.236483979707383]]]}}, {"id": "101", "type": "Feature", "properties": {"cultura": "Outras Lavouras Temporárias", "classe_id": 41, "area_ha": 2.67}, "geometry": {"type": "Polygon", "coordinates": [[[-51.15707913698171, -30.234328023025498], [-51.156540147811235, -30.23540600136644], [-51.15869610449312, -30.23675347429262], [-51.15788762073741, -30.234328023025498], [-51.15707913698171, -30.234328023025498]]]}}, {"id": "102", "type": "Feature", "properties": {"cultura": "Outras Lavouras Temporárias", "classe_id": 41, "area_ha": 0.12}, "geometry": {"type": "Polygon", "coordinates": [[[-51.15896559907836, -30.23675347429262], [-51.15977408283406, -30.237022968877856], [-51.15896559907836, -30.236483979707383], [-51.15896559907836, -30.23675347429262]]]}}, {"id": "103", "type": "Feature", "properties": {"cultura": "Soja", "classe_id": 39, "area_ha": 0.04}, "geometry": {"type": "Polygon", "coordinates": [[[-51.10708220877294, -30.237292463463092], [-51.106683649542596, -30.23709999999069], [-51.106683649542596, -30.237292463463092], [-51.10708220877294, -30.237292463463092]]]}}, {"id": "104", "type": "Feature", "properties": {"cultura": "Outras Lavouras Temporárias", "classe_id": 41, "area_ha": 0.04}, "geometry": {"type": "Polygon", "coordinates": [[[-51.10587516578689, -30.237292463463092], [-51.10614466037213, -30.237292463463092], [-51.10587516578689, -30.237022968877856], [-51.10587516578689, -30.237292463463092]]]}}, {"id": "105", "type": "Feature", "properties": {"cultura": "Outras Lavouras Temporárias", "classe_id": 41, "area_ha": 83.22}, "geometry": {"type": "Polygon", "coordinates": [[[-51.159582208917925, -30.226985759438218], [-51.158157115322645, -30.226266666657366], [-51.157915542246656, -30.2270999999907], [-51.156248875575386, -30.22648255481579], [-51.156248875575386, -30.2270999999907], [-51.15458220890412, -30.2270999999907], [-51.15458220890412, -30.22793333332403], [-51.15291554223285, -30.2270999999907], [-51.15291554223285, -30.228766666657364], [-51.15208220889721, -30.228766666657364], [-51.15208220889721, -30.227959512474985], [-51.15124887556158, -30.228408230424943], [-51.15124887556158, -30.229599999990697], [-51.14934571367616, -30.229599999990697], [-51.149802783180334, -30.23028560424696], [-51.14845531025416, -30.231902571758372], [-51.14791554221904, -30.230600144407177], [-51.147436124627326, -30.232099999990695], [-51.15115025610652, -30.237561958048328], [-51.15276722361793, -30.237292463463092], [-51.152497729032696, -30.23594499053691], [-51.15465368571458, -30.23675347429262], [-51.156270653225995, -30.236214485122147], [-51.156540147811235, -30.23540600136644], [-51.15573166405552, -30.234867012195966], [-51.15788762073741, -30.23351953926979], [-51.158157115322645, -30.232441560928844], [-51.16085206117501, -30.23351953926979], [-51.16085206117501, -30.231902571758372], [-51.162199534101184, -30.232980550099317], [-51.16193003951595, -30.23163307717314], [-51.157915542246656, -30.231266666657362], [-51.15708220891102, -30.230020717555693], [-51.15761812615217, -30.23163307717314], [-51.15374887556848, -30.232099999990695], [-51.15374887556848, -30.231266666657362], [-51.15458220890412, -30.231266666657362], [-51.15519267488505, -30.230016109661722], [-51.156248875575386, -30.23043333332403], [-51.156248875575386, -30.229599999990697], [-51.16106290972592, -30.229599999990697], [-51.159582208917925, -30.226985759438218]], [[-51.15492318029982, -30.234597517610734], [-51.15492318029982, -30.234328023025498], [-51.15573166405552, -30.234867012195966], [-51.15492318029982, -30.234597517610734]], [[-51.15465368571458, -30.234328023025498], [-51.15465368571458, -30.23405852844026], [-51.15492318029982, -30.234328023025498], [-51.15465368571458, -30.234328023025498]], [[-51.154384191129346, -30.23405852844026], [-51.154384191129346, -30.233789033855025], [-51.15465368571458, -30.23405852844026], [-51.154384191129346, -30.23405852844026]], [[-51.15411469654411, -30.233789033855025], [-51.15411469654411, -30.23351953926979], [-51.154384191129346, -30.233789033855025], [-51.15411469654411, -30.233789033855025]], [[-51.15384520195887, -30.23351953926979], [-51.15384520195887, -30.233250044684553], [-51.15411469654411, -30.23351953926979], [-51.15384520195887, -30.23351953926979]], [[-51.15276722361793, -30.232441560928844], [-51.15357570737364, -30.23351953926979], [-51.152228234447456, -30.233250044684553], [-51.15276722361793, -30.232441560928844]], [[-51.15088076152128, -30.23163307717314], [-51.15034177235081, -30.231094088002667], [-51.151689245276984, -30.23163307717314], [-51.15088076152128, -30.23163307717314]], [[-51.15195873986222, -30.231902571758372], [-51.151689245276984, -30.231902571758372], [-51.151689245276984, -30.23163307717314], [-51.15195873986222, -30.231902571758372]], [[-51.152228234447456, -30.232172066343608], [-51.15195873986222, -30.232172066343608], [-51.15195873986222, -30.231902571758372], [-51.152228234447456, -30.232172066343608]], [[-51.152228234447456, -30.234328023025498], [-51.15124887556158, -30.234599999990692], [-51.15124887556158, -30.23376666665736], [-51.151689245276984, -30.23351953926979], [-51.152228234447456, -30.234328023025498]]]}}, {"id": "105", "type": "Feature", "properties": {"cultura": "Outras Lavouras Temporárias", "classe_id": 41, "area_ha": 0.23}, "geometry": {"type": "Polygon", "coordinates": [[[-51.15600115864076, -30.23163307717314], [-51.15541554223975, -30.231340268972634], [-51.15541554223975, -30.232072289473894], [-51.15600115864076, -30.23163307717314]]]}}, {"id": "106", "type": "Feature", "properties": {"cultura": "Outras Lavouras Temporárias", "classe_id": 41, "area_ha": 0.02}, "geometry": {"type": "Polygon", "coordinates": [[[-51.13541554218452, -30.245999023494097], [-51.1352500755776, -30.246185784775875], [-51.13541554218452, -30.246185784775875], [-51.13541554218452, -30.245999023494097]]]}}]}