{"type": "FeatureCollection", "features": [{"id": "0", "type": "Feature", "properties": {"cultura": "Outras Lavouras Temporárias", "area_ha": 0.23}, "geometry": {"type": "Polygon", "coordinates": [[[-51.15896559907836, -30.23675347429262, 0.0], [-51.15977408283406, -30.237022968877856, 0.0], [-51.15977408283406, -30.236483979707383, 0.0], [-51.15896559907836, -30.23675347429262, 0.0]]]}}, {"id": "1", "type": "Feature", "properties": {"cultura": "Outras Lavouras Temporárias", "area_ha": 0.08}, "geometry": {"type": "Polygon", "coordinates": [[[-51.15950458824883, -30.23594499053691, 0.0], [-51.15896559907836, -30.23594499053691, 0.0], [-51.15896559907836, -30.236214485122147, 0.0], [-51.15950458824883, -30.23594499053691, 0.0]]]}}, {"id": "2", "type": "Feature", "properties": {"cultura": "Outras Lavouras Temporárias", "area_ha": 2.25}, "geometry": {"type": "Polygon", "coordinates": [[[-51.158426609907885, -30.23675347429262, 0.0], [-51.15896559907836, -30.236483979707383, 0.0], [-51.15788762073741, -30.234328023025498, 0.0], [-51.15680964239647, -30.234597517610734, 0.0], [-51.158426609907885, -30.23675347429262, 0.0]]]}}, {"id": "3", "type": "Feature", "properties": {"cultura": "Outras Lavouras Temporárias", "area_ha": 0.08}, "geometry": {"type": "Polygon", "coordinates": [[[-51.161121555760246, -30.23540600136644, 0.0], [-51.161121555760246, -30.235675495951675, 0.0], [-51.16166054493072, -30.235675495951675, 0.0], [-51.161121555760246, -30.23540600136644, 0.0]]]}}, {"id": "4", "type": "Feature", "properties": {"cultura": "Outras Lavouras Temporárias", "area_ha": 0.04}, "geometry": {"type": "Polygon", "coordinates": [[[-51.160582566589774, -30.23540600136644, 0.0], [-51.160582566589774, -30.235675495951675, 0.0], [-51.16085206117501, -30.235675495951675, 0.0], [-51.160582566589774, -30.23540600136644, 0.0]]]}}, {"id": "5", "type": "Feature", "properties": {"cultura": "Outras Lavouras Temporárias", "area_ha": 0.04}, "geometry": {"type": "Polygon", "coordinates": [[[-51.161121555760246, -30.235136506781203, 0.0], [-51.16085206117501, -30.235136506781203, 0.0], [-51.16085206117501, -30.23540600136644, 0.0], [-51.161121555760246, -30.235136506781203, 0.0]]]}}, {"id": "6", "type": "Feature", "properties": {"cultura": "Outras Lavouras Temporárias", "area_ha": 0.08}, "geometry": {"type": "Polygon", "coordinates": [[[-51.161121555760246, -30.235136506781203, 0.0], [-51.16166054493072, -30.235136506781203, 0.0], [-51.16166054493072, -30.23486701219597, 0.0], [-51.161121555760246, -30.235136506781203, 0.0]]]}}, {"id": "7", "type": "Feature", "properties": {"cultura": "Outras Lavouras Temporárias", "area_ha": 0.08}, "geometry": {"type": "Polygon", "coordinates": [[[-51.15815711532265, -30.233789033855025, 0.0], [-51.15788762073741, -30.233789033855025, 0.0], [-51.15788762073741, -30.234328023025498, 0.0], [-51.15815711532265, -30.233789033855025, 0.0]]]}}, {"id": "8", "type": "Feature", "properties": {"cultura": "Outras Lavouras Temporárias", "area_ha": 0.04}, "geometry": {"type": "Polygon", "coordinates": [[[-51.15815711532265, -30.23351953926979, 0.0], [-51.15815711532265, -30.233789033855025, 0.0], [-51.158426609907885, -30.233789033855025, 0.0], [-51.15815711532265, -30.23351953926979, 0.0]]]}}, {"id": "9", "type": "Feature", "properties": {"cultura": "Outras Lavouras Temporárias", "area_ha": 96.5}, "geometry": {"type": "Polygon", "coordinates": [[[-51.1600435774193, -30.227051669224128, 0.0], [-51.15815711532265, -30.226782174638892, 0.0], [-51.15815711532265, -30.225973690883187, 0.0], [-51.153498051436266, -30.226846120854844, 0.0], [-51.14926435087374, -30.22947795578706, 0.0], [-51.149802783180334, -30.23028560424696, 0.0], [-51.14845531025416, -30.231902571758376, 0.0], [-51.148185815668924, -30.230555098832195, 0.0], [-51.14658751290112, -30.23138617675123, 0.0], [-51.15168924527699, -30.237561958048328, 0.0], [-51.15276722361793, -30.237292463463092, 0.0], [-51.152497729032696, -30.23594499053691, 0.0], [-51.154653685714585, -30.23675347429262, 0.0], [-51.156270653225995, -30.236214485122147, 0.0], [-51.156540147811235, -30.23540600136644, 0.0], [-51.15573166405552, -30.23486701219597, 0.0], [-51.15761812615218, -30.233789033855025, 0.0], [-51.15815711532265, -30.232441560928844, 0.0], [-51.16085206117501, -30.23351953926979, 0.0], [-51.16085206117501, -30.231902571758376, 0.0], [-51.162199534101184, -30.232980550099317, 0.0], [-51.16193003951595, -30.23163307717314, 0.0], [-51.160313072004534, -30.231363582587903, 0.0], [-51.1600435774193, -30.23028560424696, 0.0], [-51.15761812615218, -30.23082459341743, 0.0], [-51.15707913698171, -30.230016109661722, 0.0], [-51.161121555760246, -30.229746615076486, 0.0], [-51.1600435774193, -30.227051669224128, 0.0]], [[-51.156540147811235, -30.23082459341743, 0.0], [-51.15761812615218, -30.23163307717314, 0.0], [-51.15492318029982, -30.232441560928844, 0.0], [-51.15600115864076, -30.23163307717314, 0.0], [-51.15492318029982, -30.231094088002667, 0.0], [-51.15519267488506, -30.230016109661722, 0.0], [-51.15600115864076, -30.230016109661722, 0.0], [-51.15573166405552, -30.230555098832195, 0.0], [-51.15707913698171, -30.230016109661722, 0.0], [-51.156540147811235, -30.23082459341743, 0.0]], [[-51.15519267488506, -30.234597517610734, 0.0], [-51.15492318029982, -30.234328023025498, 0.0], [-51.15573166405552, -30.234597517610734, 0.0], [-51.15519267488506, -30.234597517610734, 0.0]], [[-51.154653685714585, -30.23405852844026, 0.0], [-51.15492318029982, -30.23405852844026, 0.0], [-51.15492318029982, -30.234328023025498, 0.0], [-51.154653685714585, -30.23405852844026, 0.0]], [[-51.154384191129346, -30.233789033855025, 0.0], [-51.154653685714585, -30.233789033855025, 0.0], [-51.154653685714585, -30.23405852844026, 0.0], [-51.154384191129346, -30.233789033855025, 0.0]], [[-51.15411469654411, -30.23351953926979, 0.0], [-51.154384191129346, -30.23351953926979, 0.0], [-51.154384191129346, -30.233789033855025, 0.0], [-51.15411469654411, -30.23351953926979, 0.0]], [[-51.15384520195887, -30.233250044684553, 0.0], [-51.15411469654411, -30.233250044684553, 0.0], [-51.15411469654411, -30.23351953926979, 0.0], [-51.15384520195887, -30.233250044684553, 0.0]], [[-51.15276722361793, -30.23351953926979, 0.0], [-51.152497729032696, -30.232441560928844, 0.0], [-51.15384520195887, -30.232980550099317, 0.0], [-51.15357570737364, -30.233250044684553, 0.0], [-51.15276722361793, -30.23351953926979, 0.0]], [[-51.15168924527699, -30.231363582587903, 0.0], [-51.15168924527699, -30.23163307717314, 0.0], [-51.15034177235081, -30.23082459341743, 0.0], [-51.15168924527699, -30.231363582587903, 0.0]], [[-51.15195873986222, -30.231902571758376, 0.0], [-51.15168924527699, -30.231902571758376, 0.0], [-51.15168924527699, -30.23163307717314, 0.0], [-51.15195873986222, -30.231902571758376, 0.0]], [[-51.15222823444746, -30.232172066343608, 0.0], [-51.15195873986222, -30.232172066343608, 0.0], [-51.15195873986222, -30.231902571758376, 0.0], [-51.15222823444746, -30.232172066343608, 0.0]], [[-51.15222823444746, -30.234328023025498, 0.0], [-51.15168924527699, -30.234328023025498, 0.0], [-51.15168924527699, -30.23351953926979, 0.0], [-51.15222823444746, -30.234328023025498, 0.0]]]}}, {"id": "10", "type": "Feature", "properties": {"cultura": "Outras Lavouras Temporárias", "area_ha": 0.17}, "geometry": {"type": "Polygon", "coordinates": [[[-51.17074584626697, -30.23105713710274, 0.0], [-51.17028437165826, -30.23082459341743, 0.0], [-51.1705538662435, -30.23163307717314, 0.0], [-51.17074584626697, -30.23105713710274, 0.0]]]}}, {"id": "11", "type": "Feature", "properties": {"cultura": "Outras Lavouras Temporárias", "area_ha": 0.08}, "geometry": {"type": "Polygon", "coordinates": [[[-51.156540147811235, -30.23082459341743, 0.0], [-51.15600115864076, -30.23082459341743, 0.0], [-51.15600115864076, -30.231094088002667, 0.0], [-51.156540147811235, -30.23082459341743, 0.0]]]}}, {"id": "12", "type": "Feature", "properties": {"cultura": "Outras Lavouras Temporárias", "area_ha": 0.08}, "geometry": {"type": "Polygon", "coordinates": [[[-51.15573166405552, -30.230555098832195, 0.0], [-51.15519267488506, -30.230555098832195, 0.0], [-51.15519267488506, -30.23082459341743, 0.0], [-51.15573166405552, -30.230555098832195, 0.0]]]}}, {"id": "13", "type": "Feature", "properties": {"cultura": "Outras Lavouras Temporárias", "area_ha": 4.88}, "geometry": {"type": "Polygon", "coordinates": [[[-51.154384191129346, -30.224626217957006, 0.0], [-51.15707913698171, -30.22435672337177, 0.0], [-51.15680964239647, -30.223009250445592, 0.0], [-51.15384520195887, -30.222739755860356, 0.0], [-51.154384191129346, -30.224626217957006, 0.0]]]}}, {"id": "14", "type": "Feature", "properties": {"cultura": "Outras Lavouras Temporárias", "area_ha": 0.04}, "geometry": {"type": "Polygon", "coordinates": [[[-51.15600115864076, -30.222739755860356, 0.0], [-51.15573166405552, -30.222739755860356, 0.0], [-51.15573166405552, -30.223009250445592, 0.0], [-51.15600115864076, -30.222739755860356, 0.0]]]}}, {"id": "15", "type": "Feature", "properties": {"cultura": "Outras Lavouras Temporárias", "area_ha": 0.2}, "geometry": {"type": "Polygon", "coordinates": [[[-51.156540147811235, -30.222739755860356, 0.0], [-51.15713450427203, -30.222400123597048, 0.0], [-51.15738276575107, -30.221616265273905, 0.0], [-51.156540147811235, -30.222739755860356, 0.0]]]}}, {"id": "16", "type": "Feature", "properties": {"cultura": "Outras Lavouras Temporárias", "area_ha": 0.35}, "geometry": {"type": "Polygon", "coordinates": [[[-51.156270653225995, -30.22112278834894, 0.0], [-51.15573166405552, -30.221931272104648, 0.0], [-51.156540147811235, -30.221931272104648, 0.0], [-51.156270653225995, -30.22112278834894, 0.0]]]}}, {"id": "17", "type": "Feature", "properties": {"cultura": "Outras Lavouras Temporárias", "area_ha": 0.27}, "geometry": {"type": "Polygon", "coordinates": [[[-51.15680964239647, -30.220853293763703, 0.0], [-51.15725402010288, -30.22053646423805, 0.0], [-51.156571140145786, -30.219899284760977, 0.0], [-51.15680964239647, -30.220853293763703, 0.0]]]}}, {"id": "18", "type": "Feature", "properties": {"cultura": "Outras Lavouras Temporárias", "area_ha": 1.61}, "geometry": {"type": "Polygon", "coordinates": [[[-51.15573166405552, -30.22031430459323, 0.0], [-51.156540147811235, -30.220583799178467, 0.0], [-51.154384191129346, -30.219246937164137, 0.0], [-51.154384191129346, -30.22031430459323, 0.0], [-51.15600115864076, -30.22112278834894, 0.0], [-51.15573166405552, -30.22031430459323, 0.0]]]}}, {"id": "18", "type": "Feature", "properties": {"cultura": "Outras Lavouras Temporárias", "area_ha": 3.99}, "geometry": {"type": "Polygon", "coordinates": [[[-51.15119212528485, -30.218718271670983, 0.0], [-51.152497729032696, -30.221392282934175, 0.0], [-51.15411469654411, -30.220853293763703, 0.0], [-51.15303671820317, -30.220044810007998, 0.0], [-51.153688373954076, -30.21917593567345, 0.0], [-51.15119212528485, -30.218718271670983, 0.0]], [[-51.15276722361793, -30.219505820837526, 0.0], [-51.15303671820317, -30.219505820837526, 0.0], [-51.15303671820317, -30.219775315422762, 0.0], [-51.15276722361793, -30.219505820837526, 0.0]]]}}, {"id": "19", "type": "Feature", "properties": {"cultura": "Outras Lavouras Temporárias", "area_ha": 0.78}, "geometry": {"type": "Polygon", "coordinates": [[[-51.16166054493072, -29.97453524285813, 0.0], [-51.16166054493072, -29.975613221199076, 0.0], [-51.163008017856896, -29.974804737443367, 0.0], [-51.16166054493072, -29.97453524285813, 0.0]]]}}, {"id": "20", "type": "Feature", "properties": {"cultura": "Outras Lavouras Temporárias", "area_ha": 0.08}, "geometry": {"type": "Polygon", "coordinates": [[[-51.15303671820317, -30.232980550099317, 0.0], [-51.15303671820317, -30.233250044684553, 0.0], [-51.15357570737364, -30.233250044684553, 0.0], [-51.15303671820317, -30.232980550099317, 0.0]]]}}, {"id": "21", "type": "Feature", "properties": {"cultura": "Outras Lavouras Temporárias", "area_ha": 0.04}, "geometry": {"type": "Polygon", "coordinates": [[[-51.152497729032696, -30.23271105551408, 0.0], [-51.152497729032696, -30.232980550099317, 0.0], [-51.15276722361793, -30.232980550099317, 0.0], [-51.152497729032696, -30.23271105551408, 0.0]]]}}, {"id": "22", "type": "Feature", "properties": {"cultura": "Outras Lavouras Temporárias", "area_ha": 0.14}, "geometry": {"type": "Polygon", "coordinates": [[[-51.14845531025416, -30.23028560424696, 0.0], [-51.14926379400987, -30.23028560424696, 0.0], [-51.14873044109906, -30.22997101958438, 0.0], [-51.14845531025416, -30.23028560424696, 0.0]]]}}, {"id": "23", "type": "Feature", "properties": {"cultura": "Outras Lavouras Temporárias", "area_ha": 7.11}, "geometry": {"type": "Polygon", "coordinates": [[[-51.151288787103084, -30.222133663308142, 0.0], [-51.15253333196234, -30.222682231120544, 0.0], [-51.15120295577263, -30.22377657262488, 0.0], [-51.15171794016208, -30.22532152483376, 0.0], [-51.15249041674626, -30.225900881767437, 0.0], [-51.15384938086351, -30.225285805164113, 0.0], [-51.15303671820317, -30.223278745030825, 0.0], [-51.15384520195887, -30.22247026127512, 0.0], [-51.15222823444746, -30.221392282934175, 0.0], [-51.15222823444746, -30.222200766689884, 0.0], [-51.151288787103084, -30.222133663308142, 0.0]]]}}, {"id": "24", "type": "Feature", "properties": {"cultura": "Outras Lavouras Temporárias", "area_ha": 0.04}, "geometry": {"type": "Polygon", "coordinates": [[[-51.1533062127884, -30.221392282934175, 0.0], [-51.15303671820317, -30.221392282934175, 0.0], [-51.15303671820317, -30.22166177751941, 0.0], [-51.1533062127884, -30.221392282934175, 0.0]]]}}, {"id": "25", "type": "Feature", "properties": {"cultura": "Outras Lavouras Temporárias", "area_ha": 0.0}, "geometry": {"type": "Polygon", "coordinates": [[[-51.15222823444746, -30.220853293763703, 0.0], [-51.15216855127827, -30.220853293763703, 0.0], [-51.15216855127827, -30.220912976932894, 0.0], [-51.15222823444746, -30.220853293763703, 0.0]]]}}, {"id": "26", "type": "Feature", "properties": {"cultura": "Outras Lavouras Temporárias", "area_ha": 2.26}, "geometry": {"type": "Polygon", "coordinates": [[[-51.15168924527699, -29.96725888905676, 0.0], [-51.15205345206405, -29.96671257887617, 0.0], [-51.149802783180334, -29.96564192154535, 0.0], [-51.150072277765574, -29.96618091071582, 0.0], [-51.14899429942463, -29.966719899886293, 0.0], [-51.15168924527699, -29.96725888905676, 0.0]]]}}, {"id": "27", "type": "Feature", "properties": {"cultura": "Outras Lavouras Temporárias", "area_ha": 0.04}, "geometry": {"type": "Polygon", "coordinates": [[[-51.149802783180334, -29.965372426960112, 0.0], [-51.1495332885951, -29.965372426960112, 0.0], [-51.1495332885951, -29.96564192154535, 0.0], [-51.149802783180334, -29.965372426960112, 0.0]]]}}, {"id": "28", "type": "Feature", "properties": {"cultura": "Outras Lavouras Temporárias", "area_ha": 0.04}, "geometry": {"type": "Polygon", "coordinates": [[[-51.13875350518567, -30.250767192724883, 0.0], [-51.13848401060043, -30.250767192724883, 0.0], [-51.13848401060043, -30.25103668731012, 0.0], [-51.13875350518567, -30.250767192724883, 0.0]]]}}, {"id": "29", "type": "Feature", "properties": {"cultura": "Outras Lavouras Temporárias", "area_ha": 1.39}, "geometry": {"type": "Polygon", "coordinates": [[[-51.13983148352661, -30.251306181895355, 0.0], [-51.140370472697086, -30.250497698139647, 0.0], [-51.1390229997709, -30.249958708969178, 0.0], [-51.13875350518567, -30.25103668731012, 0.0], [-51.13983148352661, -30.251306181895355, 0.0]]]}}, {"id": "30", "type": "Feature", "properties": {"cultura": "Outras Lavouras Temporárias", "area_ha": 0.04}, "geometry": {"type": "Polygon", "coordinates": [[[-51.138214516015196, -30.249958708969178, 0.0], [-51.138214516015196, -30.25022820355441, 0.0], [-51.13848401060043, -30.25022820355441, 0.0], [-51.138214516015196, -30.249958708969178, 0.0]]]}}, {"id": "31", "type": "Feature", "properties": {"cultura": "Outras Lavouras Temporárias", "area_ha": 0.43}, "geometry": {"type": "Polygon", "coordinates": [[[-51.1390229997709, -30.24915022521347, 0.0], [-51.13848401060043, -30.24915022521347, 0.0], [-51.138214516015196, -30.24968921438394, 0.0], [-51.13875350518567, -30.249958708969178, 0.0], [-51.1390229997709, -30.24915022521347, 0.0]]]}}, {"id": "32", "type": "Feature", "properties": {"cultura": "Outras Lavouras Temporárias", "area_ha": 0.04}, "geometry": {"type": "Polygon", "coordinates": [[[-51.13875350518567, -30.248611236042997, 0.0], [-51.13848401060043, -30.248611236042997, 0.0], [-51.13848401060043, -30.248880730628233, 0.0], [-51.13875350518567, -30.248611236042997, 0.0]]]}}, {"id": "33", "type": "Feature", "properties": {"cultura": "Outras Lavouras Temporárias", "area_ha": 0.08}, "geometry": {"type": "Polygon", "coordinates": [[[-51.140370472697086, -30.24834174145776, 0.0], [-51.140370472697086, -30.248072246872525, 0.0], [-51.13983148352661, -30.248072246872525, 0.0], [-51.140370472697086, -30.24834174145776, 0.0]]]}}, {"id": "34", "type": "Feature", "properties": {"cultura": "Outras Lavouras Temporárias", "area_ha": 0.01}, "geometry": {"type": "Polygon", "coordinates": [[[-51.14317778701168, -30.22581656476019, 0.0], [-51.14317778701168, -30.225973690883187, 0.0], [-51.14333491313468, -30.225973690883187, 0.0], [-51.14317778701168, -30.22581656476019, 0.0]]]}}, {"id": "35", "type": "Feature", "properties": {"cultura": "Outras Lavouras Temporárias", "area_ha": 0.51}, "geometry": {"type": "Polygon", "coordinates": [[[-51.143498175797305, -30.225290449296757, 0.0], [-51.142256934793735, -30.224895712542242, 0.0], [-51.14171794562326, -30.224087228786534, 0.0], [-51.14221219150605, -30.225407356050955, 0.0], [-51.143498175797305, -30.225290449296757, 0.0]]]}}, {"id": "36", "type": "Feature", "properties": {"cultura": "Outras Lavouras Temporárias", "area_ha": 0.06}, "geometry": {"type": "Polygon", "coordinates": [[[-51.14117895645279, -30.223817734201297, 0.0], [-51.14128317804389, -30.224087228786534, 0.0], [-51.14171794562326, -30.224087228786534, 0.0], [-51.14117895645279, -30.223817734201297, 0.0]]]}}, {"id": "37", "type": "Feature", "properties": {"cultura": "Outras Lavouras Temporárias", "area_ha": 0.02}, "geometry": {"type": "Polygon", "coordinates": [[[-51.14090946186755, -30.22354823961606, 0.0], [-51.14092473143072, -30.223733657090225, 0.0], [-51.14117895645279, -30.223817734201297, 0.0], [-51.14090946186755, -30.22354823961606, 0.0]]]}}, {"id": "38", "type": "Feature", "properties": {"cultura": "Outras Lavouras Temporárias", "area_ha": 0.0}, "geometry": {"type": "Polygon", "coordinates": [[[-51.14310674125757, -30.22184862668839, 0.0], [-51.14315638849578, -30.221931272104648, 0.0], [-51.1431563289545, -30.2218882970005, 0.0], [-51.14310674125757, -30.22184862668839, 0.0]]]}}, {"id": "39", "type": "Feature", "properties": {"cultura": "Outras Lavouras Temporárias", "area_ha": 0.78}, "geometry": {"type": "Polygon", "coordinates": [[[-51.14117895645279, -29.964563943204404, 0.0], [-51.140370472697086, -29.964294448619167, 0.0], [-51.140100978111846, -29.965102932374876, 0.0], [-51.14090946186755, -29.965372426960112, 0.0], [-51.14117895645279, -29.964563943204404, 0.0]]]}}, {"id": "40", "type": "Feature", "properties": {"cultura": "Outras Lavouras Temporárias", "area_ha": 0.93}, "geometry": {"type": "Polygon", "coordinates": [[[-51.14144845103802, -29.9637554594487, 0.0], [-51.14144845103802, -29.96213849193728, 0.0], [-51.140370472697086, -29.9637554594487, 0.0], [-51.14144845103802, -29.9637554594487, 0.0]]]}}, {"id": "41", "type": "Feature", "properties": {"cultura": "Outras Lavouras Temporárias", "area_ha": 0.35}, "geometry": {"type": "Polygon", "coordinates": [[[-51.14117895645279, -29.95890455691445, 0.0], [-51.13983148352661, -29.95836556774398, 0.0], [-51.14063996728232, -29.959174051499687, 0.0], [-51.14117895645279, -29.95890455691445, 0.0]]]}}, {"id": "42", "type": "Feature", "properties": {"cultura": "Outras Lavouras Temporárias", "area_ha": 0.39}, "geometry": {"type": "Polygon", "coordinates": [[[-51.13659754850378, -30.25022820355441, 0.0], [-51.13713653767425, -30.250767192724883, 0.0], [-51.137675526844724, -30.249958708969178, 0.0], [-51.13659754850378, -30.25022820355441, 0.0]]]}}, {"id": "43", "type": "Feature", "properties": {"cultura": "Outras Lavouras Temporárias", "area_ha": 0.08}, "geometry": {"type": "Polygon", "coordinates": [[[-51.13632805391855, -30.24968921438394, 0.0], [-51.13632805391855, -30.25022820355441, 0.0], [-51.13659754850378, -30.25022820355441, 0.0], [-51.13632805391855, -30.24968921438394, 0.0]]]}}, {"id": "44", "type": "Feature", "properties": {"cultura": "Outras Lavouras Temporárias", "area_ha": 0.04}, "geometry": {"type": "Polygon", "coordinates": [[[-51.13794502142996, -30.24968921438394, 0.0], [-51.13794502142996, -30.249958708969178, 0.0], [-51.138214516015196, -30.249958708969178, 0.0], [-51.13794502142996, -30.24968921438394, 0.0]]]}}, {"id": "45", "type": "Feature", "properties": {"cultura": "Outras Lavouras Temporárias", "area_ha": 0.97}, "geometry": {"type": "Polygon", "coordinates": [[[-51.135789064748074, -30.249419719798706, 0.0], [-51.13848401060043, -30.248072246872525, 0.0], [-51.137675526844724, -30.24780275228729, 0.0], [-51.135789064748074, -30.249419719798706, 0.0]]]}}, {"id": "46", "type": "Feature", "properties": {"cultura": "Outras Lavouras Temporárias", "area_ha": 0.04}, "geometry": {"type": "Polygon", "coordinates": [[[-51.13659754850378, -30.248072246872525, 0.0], [-51.13632805391855, -30.248072246872525, 0.0], [-51.13632805391855, -30.24834174145776, 0.0], [-51.13659754850378, -30.248072246872525, 0.0]]]}}, {"id": "47", "type": "Feature", "properties": {"cultura": "Outras Lavouras Temporárias", "area_ha": 0.04}, "geometry": {"type": "Polygon", "coordinates": [[[-51.137675526844724, -30.247533257702052, 0.0], [-51.13794502142996, -30.247533257702052, 0.0], [-51.13794502142996, -30.247263763116816, 0.0], [-51.137675526844724, -30.247533257702052, 0.0]]]}}, {"id": "48", "type": "Feature", "properties": {"cultura": "Outras Lavouras Temporárias", "area_ha": 1.55}, "geometry": {"type": "Polygon", "coordinates": [[[-51.137675526844724, -30.24780275228729, 0.0], [-51.13713653767425, -30.247533257702052, 0.0], [-51.137675526844724, -30.246724773946347, 0.0], [-51.13605855933331, -30.246724773946347, 0.0], [-51.13605855933331, -30.24780275228729, 0.0], [-51.137675526844724, -30.24780275228729, 0.0]]]}}, {"id": "49", "type": "Feature", "properties": {"cultura": "Outras Lavouras Temporárias", "area_ha": 9.39}, "geometry": {"type": "Polygon", "coordinates": [[[-51.12231433548628, -29.969145351153415, 0.0], [-51.12231433548628, -29.971570802420537, 0.0], [-51.12447029216817, -29.972379286176245, 0.0], [-51.12420079758293, -29.972918275346714, 0.0], [-51.12662624885005, -29.97264878076148, 0.0], [-51.12500928133864, -29.971840297005773, 0.0], [-51.125548270509114, -29.969145351153415, 0.0], [-51.12635675426482, -29.96887585656818, 0.0], [-51.12447029216817, -29.96887585656818, 0.0], [-51.1239313029977, -29.971031813250065, 0.0], [-51.123392313827225, -29.971031813250065, 0.0], [-51.123392313827225, -29.96887585656818, 0.0], [-51.12231433548628, -29.969145351153415, 0.0]]]}}, {"id": "50", "type": "Feature", "properties": {"cultura": "Outras Lavouras Temporárias", "area_ha": 14.67}, "geometry": {"type": "Polygon", "coordinates": [[[-51.129590689287646, -29.971570802420537, 0.0], [-51.13471108640713, -29.97210979159101, 0.0], [-51.13417209723666, -29.969684340323887, 0.0], [-51.13471108640713, -29.968336867397706, 0.0], [-51.13282462431048, -29.968606361982943, 0.0], [-51.13336361348095, -29.969684340323887, 0.0], [-51.13066866762859, -29.970223329494356, 0.0], [-51.13066866762859, -29.9713013078353, 0.0], [-51.129051700117174, -29.9713013078353, 0.0], [-51.12932119470241, -29.970492824079592, 0.0], [-51.12851271094671, -29.969684340323887, 0.0], [-51.129590689287646, -29.969145351153415, 0.0], [-51.12851271094671, -29.968606361982943, 0.0], [-51.12824321636147, -29.971031813250065, 0.0], [-51.127165238020524, -29.971570802420537, 0.0], [-51.12689574343529, -29.97264878076148, 0.0], [-51.129051700117174, -29.972379286176245, 0.0], [-51.129590689287646, -29.971570802420537, 0.0]], [[-51.127973721776236, -29.971840297005773, 0.0], [-51.127434732605764, -29.971840297005773, 0.0], [-51.127434732605764, -29.971570802420537, 0.0], [-51.127973721776236, -29.971840297005773, 0.0]], [[-51.13228563514001, -29.971570802420537, 0.0], [-51.1314771513843, -29.970492824079592, 0.0], [-51.13255512972524, -29.971031813250065, 0.0], [-51.13228563514001, -29.971570802420537, 0.0]]]}}, {"id": "51", "type": "Feature", "properties": {"cultura": "Outras Lavouras Temporárias", "area_ha": 0.08}, "geometry": {"type": "Polygon", "coordinates": [[[-51.11126505749161, -29.969684340323887, 0.0], [-51.11126505749161, -29.96995383490912, 0.0], [-51.11180404666208, -29.96995383490912, 0.0], [-51.11126505749161, -29.969684340323887, 0.0]]]}}, {"id": "52", "type": "Feature", "properties": {"cultura": "Outras Lavouras Temporárias", "area_ha": 0.08}, "geometry": {"type": "Polygon", "coordinates": [[[-51.129590689287646, -29.96941484573865, 0.0], [-51.129590689287646, -29.969684340323887, 0.0], [-51.13012967845812, -29.969684340323887, 0.0], [-51.129590689287646, -29.96941484573865, 0.0]]]}}, {"id": "53", "type": "Feature", "properties": {"cultura": "Outras Lavouras Temporárias", "area_ha": 0.04}, "geometry": {"type": "Polygon", "coordinates": [[[-51.13066866762859, -29.96941484573865, 0.0], [-51.13066866762859, -29.969684340323887, 0.0], [-51.13093816221383, -29.969684340323887, 0.0], [-51.13066866762859, -29.96941484573865, 0.0]]]}}, {"id": "54", "type": "Feature", "properties": {"cultura": "Outras Lavouras Temporárias", "area_ha": 0.08}, "geometry": {"type": "Polygon", "coordinates": [[[-51.13093816221383, -29.96887585656818, 0.0], [-51.13093816221383, -29.96941484573865, 0.0], [-51.13120765679906, -29.96941484573865, 0.0], [-51.13093816221383, -29.96887585656818, 0.0]]]}}, {"id": "55", "type": "Feature", "properties": {"cultura": "Outras Lavouras Temporárias", "area_ha": 0.23}, "geometry": {"type": "Polygon", "coordinates": [[[-51.13012967845812, -29.968606361982943, 0.0], [-51.13012967845812, -29.96941484573865, 0.0], [-51.13066866762859, -29.96941484573865, 0.0], [-51.13012967845812, -29.968606361982943, 0.0]]]}}, {"id": "56", "type": "Feature", "properties": {"cultura": "Outras Lavouras Temporárias", "area_ha": 0.19}, "geometry": {"type": "Polygon", "coordinates": [[[-51.135789064748074, -29.96483343778964, 0.0], [-51.1344415918219, -29.96483343778964, 0.0], [-51.1344415918219, -29.965102932374876, 0.0], [-51.135789064748074, -29.96483343778964, 0.0]]]}}, {"id": "57", "type": "Feature", "properties": {"cultura": "Outras Lavouras Temporárias", "area_ha": 0.93}, "geometry": {"type": "Polygon", "coordinates": [[[-51.129590689287646, -29.965102932374876, 0.0], [-51.1314771513843, -29.965102932374876, 0.0], [-51.13093816221383, -29.964563943204404, 0.0], [-51.129590689287646, -29.964563943204404, 0.0], [-51.129590689287646, -29.965102932374876, 0.0]]]}}, {"id": "58", "type": "Feature", "properties": {"cultura": "Outras Lavouras Temporárias", "area_ha": 0.08}, "geometry": {"type": "Polygon", "coordinates": [[[-51.13282462431048, -29.960791019011104, 0.0], [-51.13282462431048, -29.961060513596337, 0.0], [-51.13336361348095, -29.961060513596337, 0.0], [-51.13282462431048, -29.960791019011104, 0.0]]]}}, {"id": "59", "type": "Feature", "properties": {"cultura": "Outras Lavouras Temporárias", "area_ha": 0.12}, "geometry": {"type": "Polygon", "coordinates": [[[-51.13201614055477, -29.960521524425868, 0.0], [-51.13282462431048, -29.960791019011104, 0.0], [-51.13282462431048, -29.960521524425868, 0.0], [-51.13201614055477, -29.960521524425868, 0.0]]]}}, {"id": "60", "type": "Feature", "properties": {"cultura": "Outras Lavouras Temporárias", "area_ha": 0.08}, "geometry": {"type": "Polygon", "coordinates": [[[-51.12015837880439, -29.959174051499687, 0.0], [-51.12015837880439, -29.95971304067016, 0.0], [-51.12042787338963, -29.95971304067016, 0.0], [-51.12015837880439, -29.959174051499687, 0.0]]]}}, {"id": "61", "type": "Feature", "properties": {"cultura": "Outras Lavouras Temporárias", "area_ha": 0.04}, "geometry": {"type": "Polygon", "coordinates": [[[-51.11800242212251, -29.959174051499687, 0.0], [-51.11773292753727, -29.959174051499687, 0.0], [-51.11773292753727, -29.959443546084923, 0.0], [-51.11800242212251, -29.959174051499687, 0.0]]]}}, {"id": "62", "type": "Feature", "properties": {"cultura": "Outras Lavouras Temporárias", "area_ha": 0.31}, "geometry": {"type": "Polygon", "coordinates": [[[-51.11800242212251, -29.959174051499687, 0.0], [-51.12015837880439, -29.959174051499687, 0.0], [-51.12015837880439, -29.95890455691445, 0.0], [-51.11800242212251, -29.959174051499687, 0.0]]]}}, {"id": "63", "type": "Feature", "properties": {"cultura": "Outras Lavouras Temporárias", "area_ha": 0.08}, "geometry": {"type": "Polygon", "coordinates": [[[-51.12851271094671, -29.95782657857351, 0.0], [-51.12851271094671, -29.958096073158742, 0.0], [-51.129051700117174, -29.958096073158742, 0.0], [-51.12851271094671, -29.95782657857351, 0.0]]]}}, {"id": "64", "type": "Feature", "properties": {"cultura": "Outras Lavouras Temporárias", "area_ha": 0.16}, "geometry": {"type": "Polygon", "coordinates": [[[-51.127973721776236, -29.95782657857351, 0.0], [-51.12851271094671, -29.95782657857351, 0.0], [-51.12851271094671, -29.957287589403037, 0.0], [-51.127973721776236, -29.95782657857351, 0.0]]]}}, {"id": "65", "type": "Feature", "properties": {"cultura": "Outras Lavouras Temporárias", "area_ha": 1.4}, "geometry": {"type": "Polygon", "coordinates": [[[-51.12447029216817, -29.95782657857351, 0.0], [-51.127973721776236, -29.9570180948178, 0.0], [-51.1247397867534, -29.9570180948178, 0.0], [-51.12447029216817, -29.95782657857351, 0.0]]]}}, {"id": "66", "type": "Feature", "properties": {"cultura": "Outras Lavouras Temporárias", "area_ha": 0.47}, "geometry": {"type": "Polygon", "coordinates": [[[-51.0894359960875, -29.98235058582997, 0.0], [-51.09105296359892, -29.98235058582997, 0.0], [-51.09105296359892, -29.9818115966595, 0.0], [-51.0894359960875, -29.98235058582997, 0.0]]]}}, {"id": "67", "type": "Feature", "properties": {"cultura": "Outras Lavouras Temporárias", "area_ha": 0.08}, "geometry": {"type": "Polygon", "coordinates": [[[-51.090244479843214, -29.980733618318556, 0.0], [-51.089974985257975, -29.980733618318556, 0.0], [-51.089974985257975, -29.98127260748903, 0.0], [-51.090244479843214, -29.980733618318556, 0.0]]]}}, {"id": "68", "type": "Feature", "properties": {"cultura": "Outras Lavouras Temporárias", "area_ha": 0.04}, "geometry": {"type": "Polygon", "coordinates": [[[-51.09078346901369, -29.981003112903792, 0.0], [-51.09105296359892, -29.981003112903792, 0.0], [-51.09105296359892, -29.980733618318556, 0.0], [-51.09078346901369, -29.981003112903792, 0.0]]]}}, {"id": "69", "type": "Feature", "properties": {"cultura": "Outras Lavouras Temporárias", "area_ha": 0.16}, "geometry": {"type": "Polygon", "coordinates": [[[-51.09078346901369, -29.980194629148084, 0.0], [-51.090244479843214, -29.980194629148084, 0.0], [-51.090244479843214, -29.980733618318556, 0.0], [-51.09078346901369, -29.980194629148084, 0.0]]]}}, {"id": "70", "type": "Feature", "properties": {"cultura": "Outras Lavouras Temporárias", "area_ha": 0.31}, "geometry": {"type": "Polygon", "coordinates": [[[-51.09428689862175, -29.978847156221907, 0.0], [-51.094825887792226, -29.978847156221907, 0.0], [-51.094556393206986, -29.977769177880962, 0.0], [-51.09428689862175, -29.978847156221907, 0.0]]]}}, {"id": "71", "type": "Feature", "properties": {"cultura": "Outras Lavouras Temporárias", "area_ha": 0.12}, "geometry": {"type": "Polygon", "coordinates": [[[-51.09320892028081, -29.977769177880962, 0.0], [-51.09320892028081, -29.977499683295726, 0.0], [-51.092400436525104, -29.97723018871049, 0.0], [-51.09320892028081, -29.977769177880962, 0.0]]]}}, {"id": "72", "type": "Feature", "properties": {"cultura": "Outras Lavouras Temporárias", "area_ha": 0.23}, "geometry": {"type": "Polygon", "coordinates": [[[-51.0886275123318, -29.975074232028604, 0.0], [-51.0886275123318, -29.974265748272895, 0.0], [-51.088088523161325, -29.974265748272895, 0.0], [-51.0886275123318, -29.975074232028604, 0.0]]]}}, {"id": "73", "type": "Feature", "properties": {"cultura": "Outras Lavouras Temporárias", "area_ha": 0.08}, "geometry": {"type": "Polygon", "coordinates": [[[-51.11180404666208, -29.97076231866483, 0.0], [-51.11153455207685, -29.970223329494356, 0.0], [-51.11126505749161, -29.970223329494356, 0.0], [-51.11180404666208, -29.97076231866483, 0.0]]]}}, {"id": "74", "type": "Feature", "properties": {"cultura": "Outras Lavouras Temporárias", "area_ha": 0.08}, "geometry": {"type": "Polygon", "coordinates": [[[-51.110726068321135, -29.970223329494356, 0.0], [-51.11126505749161, -29.970223329494356, 0.0], [-51.11126505749161, -29.96995383490912, 0.0], [-51.110726068321135, -29.970223329494356, 0.0]]]}}, {"id": "75", "type": "Feature", "properties": {"cultura": "Outras Lavouras Temporárias", "area_ha": 0.08}, "geometry": {"type": "Polygon", "coordinates": [[[-51.110726068321135, -29.969684340323887, 0.0], [-51.11018707915067, -29.969684340323887, 0.0], [-51.11018707915067, -29.96995383490912, 0.0], [-51.110726068321135, -29.969684340323887, 0.0]]]}}, {"id": "76", "type": "Feature", "properties": {"cultura": "Arroz", "area_ha": 0.04}, "geometry": {"type": "Polygon", "coordinates": [[[-51.140370472697086, -29.96294697569299, 0.0], [-51.140370472697086, -29.963216470278226, 0.0], [-51.14063996728232, -29.963216470278226, 0.0], [-51.140370472697086, -29.96294697569299, 0.0]]]}}, {"id": "77", "type": "Feature", "properties": {"cultura": "Arroz", "area_ha": 0.12}, "geometry": {"type": "Polygon", "coordinates": [[[-51.113151519588264, -29.97723018871049, 0.0], [-51.113151519588264, -29.977499683295726, 0.0], [-51.11396000334397, -29.977499683295726, 0.0], [-51.113151519588264, -29.97723018871049, 0.0]]]}}, {"id": "78", "type": "Feature", "properties": {"cultura": "Arroz", "area_ha": 0.04}, "geometry": {"type": "Polygon", "coordinates": [[[-51.11396000334397, -29.976960694125253, 0.0], [-51.11396000334397, -29.97723018871049, 0.0], [-51.1142294979292, -29.97723018871049, 0.0], [-51.11396000334397, -29.976960694125253, 0.0]]]}}, {"id": "79", "type": "Feature", "properties": {"cultura": "Arroz", "area_ha": 0.35}, "geometry": {"type": "Polygon", "coordinates": [[[-51.113151519588264, -29.969684340323887, 0.0], [-51.113151519588264, -29.96887585656818, 0.0], [-51.11234303583255, -29.96887585656818, 0.0], [-51.113151519588264, -29.969684340323887, 0.0]]]}}, {"id": "80", "type": "Feature", "properties": {"cultura": "Arroz", "area_ha": 1.13}, "geometry": {"type": "Polygon", "coordinates": [[[-51.1104565737359, -29.96725888905676, 0.0], [-51.1104565737359, -29.965372426960112, 0.0], [-51.10991758456543, -29.965372426960112, 0.0], [-51.1096480899802, -29.966450405301057, 0.0], [-51.1104565737359, -29.96725888905676, 0.0]]]}}, {"id": "81", "type": "Feature", "properties": {"cultura": "Arroz", "area_ha": 157.47}, "geometry": {"type": "Polygon", "coordinates": [[[-51.12689574343529, -29.95971304067016, 0.0], [-51.127434732605764, -29.958096073158742, 0.0], [-51.12500928133864, -29.957287589403037, 0.0], [-51.12420079758293, -29.958096073158742, 0.0], [-51.125278775923874, -29.95890455691445, 0.0], [-51.1247397867534, -29.961060513596337, 0.0], [-51.12258383007152, -29.960791019011104, 0.0], [-51.12177534631581, -29.961868997352045, 0.0], [-51.11827191670774, -29.961868997352045, 0.0], [-51.11692444378156, -29.960791019011104, 0.0], [-51.11611596002586, -29.96159950276681, 0.0], [-51.11638545461109, -29.960521524425868, 0.0], [-51.114768487099674, -29.960521524425868, 0.0], [-51.11396000334397, -29.96159950276681, 0.0], [-51.11611596002586, -29.96483343778964, 0.0], [-51.11692444378156, -29.96483343778964, 0.0], [-51.11611596002586, -29.962677481107754, 0.0], [-51.116654949196324, -29.963485964863462, 0.0], [-51.11988888421916, -29.963216470278226, 0.0], [-51.12042787338963, -29.9637554594487, 0.0], [-51.12231433548628, -29.96402495403393, 0.0], [-51.121505851730575, -29.964563943204404, 0.0], [-51.11881090587821, -29.9637554594487, 0.0], [-51.11800242212251, -29.964563943204404, 0.0], [-51.117463432952036, -29.9637554594487, 0.0], [-51.11800242212251, -29.965102932374876, 0.0], [-51.117193938366796, -29.965372426960112, 0.0], [-51.11881090587821, -29.967528383641998, 0.0], [-51.13228563514001, -29.966719899886293, 0.0], [-51.13713653767425, -29.96725888905676, 0.0], [-51.13713653767425, -29.966719899886293, 0.0], [-51.1390229997709, -29.966719899886293, 0.0], [-51.13929249435614, -29.965911416130584, 0.0], [-51.139561988941374, -29.966989394471526, 0.0], [-51.14144845103802, -29.966450405301057, 0.0], [-51.14117895645279, -29.965372426960112, 0.0], [-51.140100978111846, -29.965102932374876, 0.0], [-51.14063996728232, -29.961060513596337, 0.0], [-51.13983148352661, -29.961330008181573, 0.0], [-51.13848401060043, -29.95971304067016, 0.0], [-51.13686704308902, -29.961060513596337, 0.0], [-51.13572071027912, -29.96060198047238, 0.0], [-51.133633108066185, -29.961868997352045, 0.0], [-51.13120765679906, -29.96159950276681, 0.0], [-51.13120765679906, -29.964563943204404, 0.0], [-51.13794502142996, -29.965102932374876, 0.0], [-51.127973721776236, -29.965102932374876, 0.0], [-51.127973721776236, -29.964563943204404, 0.0], [-51.13093816221383, -29.964563943204404, 0.0], [-51.13120765679906, -29.959443546084923, 0.0], [-51.129051700117174, -29.958096073158742, 0.0], [-51.129590689287646, -29.958635062329215, 0.0], [-51.129051700117174, -29.959443546084923, 0.0], [-51.12689574343529, -29.95971304067016, 0.0]], [[-51.11584646544062, -29.961868997352045, 0.0], [-51.11584646544062, -29.96159950276681, 0.0], [-51.11611596002586, -29.96159950276681, 0.0], [-51.11584646544062, -29.961868997352045, 0.0]], [[-51.12635675426482, -29.958635062329215, 0.0], [-51.12662624885005, -29.959174051499687, 0.0], [-51.125278775923874, -29.958635062329215, 0.0], [-51.12635675426482, -29.958635062329215, 0.0]], [[-51.12069736797486, -29.963216470278226, 0.0], [-51.12069736797486, -29.963485964863462, 0.0], [-51.12042787338963, -29.963485964863462, 0.0], [-51.12069736797486, -29.963216470278226, 0.0]], [[-51.13983148352661, -29.965372426960112, 0.0], [-51.13983148352661, -29.965911416130584, 0.0], [-51.139561988941374, -29.965911416130584, 0.0], [-51.13983148352661, -29.965372426960112, 0.0]], [[-51.129860183872886, -29.95971304067016, 0.0], [-51.129590689287646, -29.95971304067016, 0.0], [-51.129590689287646, -29.959443546084923, 0.0], [-51.129860183872886, -29.95971304067016, 0.0]], [[-51.12662624885005, -29.961330008181573, 0.0], [-51.12500928133864, -29.961060513596337, 0.0], [-51.12635675426482, -29.960791019011104, 0.0], [-51.12662624885005, -29.961330008181573, 0.0]], [[-51.12366180841246, -29.962677481107754, 0.0], [-51.123392313827225, -29.962677481107754, 0.0], [-51.123392313827225, -29.961330008181573, 0.0], [-51.12366180841246, -29.962677481107754, 0.0]], [[-51.12689574343529, -29.96159950276681, 0.0], [-51.12878220553194, -29.961868997352045, 0.0], [-51.12878220553194, -29.96213849193728, 0.0], [-51.12689574343529, -29.96159950276681, 0.0]], [[-51.12662624885005, -29.962407986522518, 0.0], [-51.127165238020524, -29.962407986522518, 0.0], [-51.12689574343529, -29.963216470278226, 0.0], [-51.12662624885005, -29.962407986522518, 0.0]], [[-51.12366180841246, -29.96483343778964, 0.0], [-51.12689574343529, -29.964563943204404, 0.0], [-51.127165238020524, -29.965102932374876, 0.0], [-51.11854141129298, -29.965102932374876, 0.0], [-51.123122819241985, -29.96483343778964, 0.0], [-51.123392313827225, -29.963485964863462, 0.0], [-51.12366180841246, -29.96483343778964, 0.0]]]}}, {"id": "82", "type": "Feature", "properties": {"cultura": "Arroz", "area_ha": 0.47}, "geometry": {"type": "Polygon", "coordinates": [[[-51.13228563514001, -29.959982535255396, 0.0], [-51.13120765679906, -29.95971304067016, 0.0], [-51.13120765679906, -29.960521524425868, 0.0], [-51.13228563514001, -29.959982535255396, 0.0]]]}}, {"id": "83", "type": "Feature", "properties": {"cultura": "Arroz", "area_ha": 3.57}, "geometry": {"type": "Polygon", "coordinates": [[[-51.11449899251444, -29.959174051499687, 0.0], [-51.11396000334397, -29.959982535255396, 0.0], [-51.116654949196324, -29.959982535255396, 0.0], [-51.116654949196324, -29.959443546084923, 0.0], [-51.11961938963392, -29.959982535255396, 0.0], [-51.11908040046345, -29.959174051499687, 0.0], [-51.11449899251444, -29.959174051499687, 0.0]]]}}, {"id": "84", "type": "Feature", "properties": {"cultura": "Soja", "area_ha": 0.23}, "geometry": {"type": "Polygon", "coordinates": [[[-51.15168924527699, -30.234328023025498, 0.0], [-51.15222823444746, -30.234328023025498, 0.0], [-51.15222823444746, -30.23351953926979, 0.0], [-51.15168924527699, -30.234328023025498, 0.0]]]}}, {"id": "85", "type": "Feature", "properties": {"cultura": "Soja", "area_ha": 0.39}, "geometry": {"type": "Polygon", "coordinates": [[[-51.15357570737364, -30.233250044684553, 0.0], [-51.15222823444746, -30.23271105551408, 0.0], [-51.15222823444746, -30.233250044684553, 0.0], [-51.15357570737364, -30.233250044684553, 0.0]]]}}, {"id": "86", "type": "Feature", "properties": {"cultura": "Soja", "area_ha": 1.16}, "geometry": {"type": "Polygon", "coordinates": [[[-51.15492318029982, -30.232441560928844, 0.0], [-51.15761812615218, -30.231094088002667, 0.0], [-51.156540147811235, -30.23082459341743, 0.0], [-51.15492318029982, -30.232441560928844, 0.0]]]}}, {"id": "87", "type": "Feature", "properties": {"cultura": "Soja", "area_ha": 0.08}, "geometry": {"type": "Polygon", "coordinates": [[[-51.15492318029982, -30.231094088002667, 0.0], [-51.15519267488506, -30.231094088002667, 0.0], [-51.15519267488506, -30.230555098832195, 0.0], [-51.15492318029982, -30.231094088002667, 0.0]]]}}, {"id": "88", "type": "Feature", "properties": {"cultura": "Soja", "area_ha": 0.54}, "geometry": {"type": "Polygon", "coordinates": [[[-51.15815711532265, -30.230016109661722, 0.0], [-51.15707913698171, -30.229746615076486, 0.0], [-51.15761812615218, -30.23082459341743, 0.0], [-51.15815711532265, -30.230016109661722, 0.0]]]}}, {"id": "89", "type": "Feature", "properties": {"cultura": "Soja", "area_ha": 0.23}, "geometry": {"type": "Polygon", "coordinates": [[[-51.15600115864076, -30.230016109661722, 0.0], [-51.15519267488506, -30.230016109661722, 0.0], [-51.15519267488506, -30.230555098832195, 0.0], [-51.15600115864076, -30.230016109661722, 0.0]]]}}, {"id": "90", "type": "Feature", "properties": {"cultura": "Soja", "area_ha": 0.0}, "geometry": {"type": "Polygon", "coordinates": [[[-51.15168924527699, -30.22516520712748, 0.0], [-51.15171794016208, -30.22532152483376, 0.0], [-51.15174603340447, -30.225335571509927, 0.0], [-51.15168924527699, -30.22516520712748, 0.0]]]}}, {"id": "90", "type": "Feature", "properties": {"cultura": "Soja", "area_ha": 0.52}, "geometry": {"type": "Polygon", "coordinates": [[[-51.15222823444746, -30.222200766689884, 0.0], [-51.151923806409826, -30.221287482576965, 0.0], [-51.151288787103084, -30.221931272104648, 0.0], [-51.151288787103084, -30.222133663308142, 0.0], [-51.15222823444746, -30.222200766689884, 0.0]]]}}, {"id": "91", "type": "Feature", "properties": {"cultura": "Soja", "area_ha": 0.01}, "geometry": {"type": "Polygon", "coordinates": [[[-51.15695361179377, -30.22315321984289, 0.0], [-51.15695361179377, -30.223009250445592, 0.0], [-51.15680964239647, -30.223009250445592, 0.0], [-51.15695361179377, -30.22315321984289, 0.0]]]}}, {"id": "92", "type": "Feature", "properties": {"cultura": "Soja", "area_ha": 0.04}, "geometry": {"type": "Polygon", "coordinates": [[[-51.15573166405552, -30.223278745030825, 0.0], [-51.15600115864076, -30.223278745030825, 0.0], [-51.15600115864076, -30.223009250445592, 0.0], [-51.15573166405552, -30.223278745030825, 0.0]]]}}, {"id": "93", "type": "Feature", "properties": {"cultura": "Soja", "area_ha": 0.08}, "geometry": {"type": "Polygon", "coordinates": [[[-51.1533062127884, -30.223009250445592, 0.0], [-51.15384520195887, -30.223009250445592, 0.0], [-51.15384520195887, -30.222739755860356, 0.0], [-51.1533062127884, -30.223009250445592, 0.0]]]}}, {"id": "94", "type": "Feature", "properties": {"cultura": "Soja", "area_ha": 5.41}, "geometry": {"type": "Polygon", "coordinates": [[[-51.14090946186755, -30.22354823961606, 0.0], [-51.142256934793735, -30.224087228786534, 0.0], [-51.142256934793735, -30.224895712542242, 0.0], [-51.14416483967619, -30.22399114924104, 0.0], [-51.14287737960089, -30.2226607735049, 0.0], [-51.14296321003302, -30.22175955097345, 0.0], [-51.14148263103625, -30.22208141611323, 0.0], [-51.14090946186755, -30.22354823961606, 0.0]]]}}, {"id": "94", "type": "Feature", "properties": {"cultura": "Soja", "area_ha": 3.37}, "geometry": {"type": "Polygon", "coordinates": [[[-51.14252642937897, -30.22516520712748, 0.0], [-51.14339236399034, -30.226351492943397, 0.0], [-51.14551667302477, -30.22712396932017, 0.0], [-51.14489695405634, -30.225221895172616, 0.0], [-51.14252642937897, -30.22516520712748, 0.0]]]}}, {"id": "94", "type": "Feature", "properties": {"cultura": "Soja", "area_ha": 0.02}, "geometry": {"type": "Polygon", "coordinates": [[[-51.14306541854944, -30.227051669224128, 0.0], [-51.143191597710846, -30.227139994637113, 0.0], [-51.14295825459429, -30.2266765953811, 0.0], [-51.14306541854944, -30.227051669224128, 0.0]]]}}, {"id": "94", "type": "Feature", "properties": {"cultura": "Soja", "area_ha": 0.77}, "geometry": {"type": "Polygon", "coordinates": [[[-51.148185815668924, -30.230555098832195, 0.0], [-51.14845531025416, -30.231902571758376, 0.0], [-51.14926379400987, -30.230555098832195, 0.0], [-51.148185815668924, -30.230555098832195, 0.0]]]}}, {"id": "95", "type": "Feature", "properties": {"cultura": "Soja", "area_ha": 9.65}, "geometry": {"type": "Polygon", "coordinates": [[[-51.15303671820317, -30.219775315422762, 0.0], [-51.15411469654411, -30.22031430459323, 0.0], [-51.15384520195887, -30.22112278834894, 0.0], [-51.15276722361793, -30.22112278834894, 0.0], [-51.15303671820317, -30.22247026127512, 0.0], [-51.15680964239647, -30.223009250445592, 0.0], [-51.15727122782827, -30.220622501047803, 0.0], [-51.156540147811235, -30.220044810007998, 0.0], [-51.156540147811235, -30.220583799178467, 0.0], [-51.15573166405552, -30.22031430459323, 0.0], [-51.15600115864076, -30.22112278834894, 0.0], [-51.15519267488506, -30.22112278834894, 0.0], [-51.154493409967614, -30.219258081902442, 0.0], [-51.15303671820317, -30.219775315422762, 0.0]], [[-51.1533062127884, -30.221392282934175, 0.0], [-51.1533062127884, -30.22166177751941, 0.0], [-51.15303671820317, -30.22166177751941, 0.0], [-51.1533062127884, -30.221392282934175, 0.0]], [[-51.156540147811235, -30.221931272104648, 0.0], [-51.15573166405552, -30.221931272104648, 0.0], [-51.15573166405552, -30.221392282934175, 0.0], [-51.156270653225995, -30.22112278834894, 0.0], [-51.156540147811235, -30.221931272104648, 0.0]]]}}, {"id": "96", "type": "Feature", "properties": {"cultura": "Soja", "area_ha": 0.04}, "geometry": {"type": "Polygon", "coordinates": [[[-51.15276722361793, -30.219775315422762, 0.0], [-51.15303671820317, -30.219775315422762, 0.0], [-51.15303671820317, -30.219505820837526, 0.0], [-51.15276722361793, -30.219775315422762, 0.0]]]}}, {"id": "97", "type": "Feature", "properties": {"cultura": "Soja", "area_ha": 0.03}, "geometry": {"type": "Polygon", "coordinates": [[[-51.156540147811235, -30.220044810007998, 0.0], [-51.156462151312354, -30.219849818760792, 0.0], [-51.156108389184, -30.219613051380765, 0.0], [-51.156540147811235, -30.220044810007998, 0.0]]]}}, {"id": "98", "type": "Feature", "properties": {"cultura": "Soja", "area_ha": 0.02}, "geometry": {"type": "Polygon", "coordinates": [[[-51.15168924527699, -30.218697337081817, 0.0], [-51.15150336318344, -30.218626730790003, 0.0], [-51.1512633026372, -30.218697337081817, 0.0], [-51.15168924527699, -30.218697337081817, 0.0]]]}}, {"id": "99", "type": "Feature", "properties": {"cultura": "Soja", "area_ha": 0.12}, "geometry": {"type": "Polygon", "coordinates": [[[-51.14144845103802, -29.964294448619167, 0.0], [-51.14171794562326, -29.964294448619167, 0.0], [-51.14171794562326, -29.963485964863462, 0.0], [-51.14144845103802, -29.964294448619167, 0.0]]]}}, {"id": "100", "type": "Feature", "properties": {"cultura": "Soja", "area_ha": 0.19}, "geometry": {"type": "Polygon", "coordinates": [[[-51.09051397442845, -29.979386145392375, 0.0], [-51.092669931110336, -29.97911665080714, 0.0], [-51.08916650150227, -29.979386145392375, 0.0], [-51.09051397442845, -29.979386145392375, 0.0]]]}}, {"id": "101", "type": "Feature", "properties": {"cultura": "Soja", "area_ha": 0.54}, "geometry": {"type": "Polygon", "coordinates": [[[-51.08970549067274, -29.97857766163667, 0.0], [-51.08916650150227, -29.978308167051434, 0.0], [-51.088358017746565, -29.976152210369545, 0.0], [-51.08889700691704, -29.97857766163667, 0.0], [-51.08970549067274, -29.97857766163667, 0.0]]]}}, {"id": "102", "type": "Feature", "properties": {"cultura": "Soja", "area_ha": 0.66}, "geometry": {"type": "Polygon", "coordinates": [[[-51.09078346901369, -29.974804737443367, 0.0], [-51.092130941939864, -29.973726759102423, 0.0], [-51.089974985257975, -29.97453524285813, 0.0], [-51.09078346901369, -29.974804737443367, 0.0]]]}}, {"id": "103", "type": "Feature", "properties": {"cultura": "Soja", "area_ha": 0.66}, "geometry": {"type": "Polygon", "coordinates": [[[-51.092400436525104, -29.97318776993195, 0.0], [-51.09374790945128, -29.972379286176245, 0.0], [-51.092669931110336, -29.97210979159101, 0.0], [-51.092400436525104, -29.97318776993195, 0.0]]]}}, {"id": "104", "type": "Feature", "properties": {"cultura": "Soja", "area_ha": 3.18}, "geometry": {"type": "Polygon", "coordinates": [[[-51.08701054482038, -29.97210979159101, 0.0], [-51.08754953399085, -29.97318776993195, 0.0], [-51.0886275123318, -29.972918275346714, 0.0], [-51.08781902857609, -29.973457264517187, 0.0], [-51.088088523161325, -29.974265748272895, 0.0], [-51.08889700691704, -29.973457264517187, 0.0], [-51.088358017746565, -29.971031813250065, 0.0], [-51.08701054482038, -29.97210979159101, 0.0]]]}}, {"id": "105", "type": "Feature", "properties": {"cultura": "Soja", "area_ha": 0.04}, "geometry": {"type": "Polygon", "coordinates": [[[-51.088358017746565, -29.971031813250065, 0.0], [-51.0886275123318, -29.971031813250065, 0.0], [-51.0886275123318, -29.97076231866483, 0.0], [-51.088358017746565, -29.971031813250065, 0.0]]]}}, {"id": "106", "type": "Feature", "properties": {"cultura": "Soja", "area_ha": 0.04}, "geometry": {"type": "Polygon", "coordinates": [[[-51.11126505749161, -29.967528383641998, 0.0], [-51.11126505749161, -29.96725888905676, 0.0], [-51.110995562906375, -29.96725888905676, 0.0], [-51.11126505749161, -29.967528383641998, 0.0]]]}}, {"id": "107", "type": "Feature", "properties": {"cultura": "Soja", "area_ha": 0.23}, "geometry": {"type": "Polygon", "coordinates": [[[-51.11126505749161, -29.966719899886293, 0.0], [-51.11126505749161, -29.96725888905676, 0.0], [-51.11207354124732, -29.966450405301057, 0.0], [-51.11126505749161, -29.966719899886293, 0.0]]]}}, {"id": "108", "type": "Feature", "properties": {"cultura": "Soja", "area_ha": 2.45}, "geometry": {"type": "Polygon", "coordinates": [[[-51.09293942569557, -29.96564192154535, 0.0], [-51.09590386613316, -29.967797878227234, 0.0], [-51.0961733607184, -29.966450405301057, 0.0], [-51.09293942569557, -29.96564192154535, 0.0]]]}}, {"id": "109", "type": "Feature", "properties": {"cultura": "Soja", "area_ha": 0.08}, "geometry": {"type": "Polygon", "coordinates": [[[-51.14117895645279, -29.965911416130584, 0.0], [-51.14144845103802, -29.965911416130584, 0.0], [-51.14144845103802, -29.965372426960112, 0.0], [-51.14117895645279, -29.965911416130584, 0.0]]]}}, {"id": "110", "type": "Feature", "properties": {"cultura": "Soja", "area_ha": 0.31}, "geometry": {"type": "Polygon", "coordinates": [[[-51.10991758456543, -29.965372426960112, 0.0], [-51.108839606224485, -29.965372426960112, 0.0], [-51.108839606224485, -29.965911416130584, 0.0], [-51.10991758456543, -29.965372426960112, 0.0]]]}}, {"id": "111", "type": "Feature", "properties": {"cultura": "Soja", "area_ha": 0.04}, "geometry": {"type": "Polygon", "coordinates": [[[-51.14117895645279, -29.965372426960112, 0.0], [-51.14117895645279, -29.965102932374876, 0.0], [-51.14090946186755, -29.965102932374876, 0.0], [-51.14117895645279, -29.965372426960112, 0.0]]]}}, {"id": "112", "type": "Feature", "properties": {"cultura": "Soja", "area_ha": 0.43}, "geometry": {"type": "Polygon", "coordinates": [[[-51.14063996728232, -29.964563943204404, 0.0], [-51.14144845103802, -29.965102932374876, 0.0], [-51.14090946186755, -29.9637554594487, 0.0], [-51.14063996728232, -29.964563943204404, 0.0]]]}}]}