{"type": "FeatureCollection", "features": [{"type": "Feature", "geometry": {"type": "Point", "coordinates": [-51.1996521, -29.9826418]}, "properties": {"co_entidade": 43004610, "no_entidade": "5207 EEI IRMAO MARIO FRIGO", "municipio": "Porto Alegre", "tp_dependencia": 4, "tp_dependencia_label": "Privada", "ds_endereco": "R MARIA PAULA LEAL", "nu_endereco": 200, "ds_complemento": null, "no_bairro": "FARRAPOS", "co_cep": 90250617, "endereco_geocode": "R MARIA PAULA LEAL, 200, FARRAPOS, 90250617, Porto Alegre - RS", "qtd_mat_infantil": 99, "qtd_mat_fundamental": 0, "qtd_mat_medio": 0, "qtd_mat_profissional": 0, "qtd_mat_eja": 0, "qtd_mat_especial": 5, "qtd_mat_total": 104, "qtd_doc_total": 10, "qtd_prof_total": 7, "qtd_prof": 7, "qtd_doc": 10, "qtd_matri_inf": 99, "qtd_matri_fund": 0, "qtd_matri_med": 0, "qtd_matri_prof": 0, "qtd_matri_eja": 0, "qtd_matri_esp": 5}}, {"type": "Feature", "geometry": {"type": "Point", "coordinates": [-51.2070551, -30.1839765]}, "properties": {"co_entidade": 43004873, "no_entidade": "INST EDUC INF ABCB SAO FRANCISCO", "municipio": "Porto Alegre", "tp_dependencia": 4, "tp_dependencia_label": "Privada", "ds_endereco": "ESTRADA RETIRO DA PONTA GROSSA", "nu_endereco": 1701, "ds_complemento": null, "no_bairro": "PONTA GROSSA", "co_cep": 91780590, "endereco_geocode": "ESTRADA RETIRO DA PONTA GROSSA, 1701, PONTA GROSSA, 91780590, Porto Alegre - RS", "qtd_mat_infantil": 77, "qtd_mat_fundamental": 0, "qtd_mat_medio": 0, "qtd_mat_profissional": 0, "qtd_mat_eja": 0, "qtd_mat_especial": 2, "qtd_mat_total": 79, "qtd_doc_total": 4, "qtd_prof_total": 14, "qtd_prof": 14, "qtd_doc": 4, "qtd_matri_inf": 77, "qtd_matri_fund": 0, "qtd_matri_med": 0, "qtd_matri_prof": 0, "qtd_matri_eja": 0, "qtd_matri_esp": 2}}, {"type": "Feature", "geometry": {"type": "Point", "coordinates": [-51.2201233, -30.1811193]}, "properties": {"co_entidade": 43005055, "no_entidade": "ESC ENS FUND WALDORF QUERENCIA", "municipio": "Porto Alegre", "tp_dependencia": 4, "tp_dependencia_label": "Privada", "ds_endereco": "BECO PONTA GROSSA", "nu_endereco": 874, "ds_complemento": null, "no_bairro": "PONTA GROSSA", "co_cep": 91780570, "endereco_geocode": "BECO PONTA GROSSA, 874, PONTA GROSSA, 91780570, Porto Alegre - RS", "qtd_mat_infantil": 22, "qtd_mat_fundamental": 149, "qtd_mat_medio": 0, "qtd_mat_profissional": 0, "qtd_mat_eja": 0, "qtd_mat_especial": 15, "qtd_mat_total": 186, "qtd_doc_total": 13, "qtd_prof_total": 15, "qtd_prof": 15, "qtd_doc": 13, "qtd_matri_inf": 22, "qtd_matri_fund": 149, "qtd_matri_med": 0, "qtd_matri_prof": 0, "qtd_matri_eja": 0, "qtd_matri_esp": 15}}, {"type": "Feature", "geometry": {"type": "Point", "coordinates": [-51.1927754, -30.1850144]}, "properties": {"co_entidade": 43006817, "no_entidade": "5212 ECEI SAO JORGE", "municipio": "Porto Alegre", "tp_dependencia": 4, "tp_dependencia_label": "Privada", "ds_endereco": "R STEFAN HERMANN", "nu_endereco": 4, "ds_complemento": null, "no_bairro": "PONTA GROSSA", "co_cep": 91780598, "endereco_geocode": "R STEFAN HERMANN, 4, PONTA GROSSA, 91780598, Porto Alegre - RS", "qtd_mat_infantil": 137, "qtd_mat_fundamental": 0, "qtd_mat_medio": 0, "qtd_mat_profissional": 0, "qtd_mat_eja": 0, "qtd_mat_especial": 5, "qtd_mat_total": 142, "qtd_doc_total": 7, "qtd_prof_total": 6, "qtd_prof": 6, "qtd_doc": 7, "qtd_matri_inf": 137, "qtd_matri_fund": 0, "qtd_matri_med": 0, "qtd_matri_prof": 0, "qtd_matri_eja": 0, "qtd_matri_esp": 5}}, {"type": "Feature", "geometry": {"type": "Point", "coordinates": [-51.1922355, -29.9986867]}, "properties": {"co_entidade": 43007392, "no_entidade": "ESC EDUC PROF FLIGHT", "municipio": "Porto Alegre", "tp_dependencia": 4, "tp_dependencia_label": "Privada", "ds_endereco": "RUA DEZOITO DE NOVEMBRO", "nu_endereco": 800, "ds_complemento": null, "no_bairro": "NAVEGANTES", "co_cep": 90240040, "endereco_geocode": "RUA DEZOITO DE NOVEMBRO, 800, NAVEGANTES, 90240040, Porto Alegre - RS", "qtd_mat_infantil": 0, "qtd_mat_fundamental": 0, "qtd_mat_medio": 0, "qtd_mat_profissional": 68, "qtd_mat_eja": 0, "qtd_mat_especial": 1, "qtd_mat_total": 69, "qtd_doc_total": 3, "qtd_prof_total": 9, "qtd_prof": 9, "qtd_doc": 3, "qtd_matri_inf": 0, "qtd_matri_fund": 0, "qtd_matri_med": 0, "qtd_matri_prof": 68, "qtd_matri_eja": 0, "qtd_matri_esp": 1}}, {"type": "Feature", "geometry": {"type": "Point", "coordinates": [-51.2078223, -29.9976705]}, "properties": {"co_entidade": 43047670, "no_entidade": "5230 EEI ABRASCE ILHA DO PAVAO", "municipio": "Porto Alegre", "tp_dependencia": 4, "tp_dependencia_label": "Privada", "ds_endereco": "BR 290", "nu_endereco": 98, "ds_complemento": null, "no_bairro": "ARQUIPELAGO", "co_cep": 90090004, "endereco_geocode": "BR 290, 98, ARQUIPELAGO, 90090004, Porto Alegre - RS", "qtd_mat_infantil": 47, "qtd_mat_fundamental": 0, "qtd_mat_medio": 0, "qtd_mat_profissional": 0, "qtd_mat_eja": 0, "qtd_mat_especial": 0, "qtd_mat_total": 47, "qtd_doc_total": 5, "qtd_prof_total": 5, "qtd_prof": 5, "qtd_doc": 5, "qtd_matri_inf": 47, "qtd_matri_fund": 0, "qtd_matri_med": 0, "qtd_matri_prof": 0, "qtd_matri_eja": 0, "qtd_matri_esp": 0}}, {"type": "Feature", "geometry": {"type": "Point", "coordinates": [-51.1249664, -29.9822457]}, "properties": {"co_entidade": 43048196, "no_entidade": "EMEI MIGUEL GRANATO VELASQUEZ", "municipio": "Porto Alegre", "tp_dependencia": 3, "tp_dependencia_label": "Municipal", "ds_endereco": "R ARMANDO COSTA", "nu_endereco": 0, "ds_complemento": "LOTEAMENTO BONANZA", "no_bairro": "SARANDI", "co_cep": 91120450, "endereco_geocode": "R ARMANDO COSTA, 0, SARANDI, 91120450, Porto Alegre - RS", "qtd_mat_infantil": 134, "qtd_mat_fundamental": 0, "qtd_mat_medio": 0, "qtd_mat_profissional": 0, "qtd_mat_eja": 0, "qtd_mat_especial": 6, "qtd_mat_total": 140, "qtd_doc_total": 10, "qtd_prof_total": 17, "qtd_prof": 17, "qtd_doc": 10, "qtd_matri_inf": 134, "qtd_matri_fund": 0, "qtd_matri_med": 0, "qtd_matri_prof": 0, "qtd_matri_eja": 0, "qtd_matri_esp": 6}}, {"type": "Feature", "geometry": {"type": "Point", "coordinates": [-51.2275965, -30.0476044]}, "properties": {"co_entidade": 43051545, "no_entidade": "EEP IBREP - EAD", "municipio": "Porto Alegre", "tp_dependencia": 4, "tp_dependencia_label": "Privada", "ds_endereco": "AV. PRAIA DE BELAS", "nu_endereco": 1510, "ds_complemento": "TERREO", "no_bairro": "PAIA D E BELAS", "co_cep": 90020007, "endereco_geocode": "AV. PRAIA DE BELAS, 1510, PAIA D E BELAS, 90020007, Porto Alegre - RS", "qtd_mat_infantil": 0, "qtd_mat_fundamental": 0, "qtd_mat_medio": 2, "qtd_mat_profissional": 2, "qtd_mat_eja": 0, "qtd_mat_especial": 0, "qtd_mat_total": 4, "qtd_doc_total": 1, "qtd_prof_total": 6, "qtd_prof": 6, "qtd_doc": 1, "qtd_matri_inf": 0, "qtd_matri_fund": 0, "qtd_matri_med": 2, "qtd_matri_prof": 2, "qtd_matri_eja": 0, "qtd_matri_esp": 0}}, {"type": "Feature", "geometry": {"type": "Point", "coordinates": [-51.1954337, -29.9903195]}, "properties": {"co_entidade": 43089194, "no_entidade": "5240 EEI JARDIM FLORESTA LAMI", "municipio": "Porto Alegre", "tp_dependencia": 4, "tp_dependencia_label": "Privada", "ds_endereco": "RUA E", "nu_endereco": 115, "ds_complemento": null, "no_bairro": "LAMI", "co_cep": 91787516, "endereco_geocode": "RUA E, 115, LAMI, 91787516, Porto Alegre - RS", "qtd_mat_infantil": 110, "qtd_mat_fundamental": 0, "qtd_mat_medio": 0, "qtd_mat_profissional": 0, "qtd_mat_eja": 0, "qtd_mat_especial": 7, "qtd_mat_total": 117, "qtd_doc_total": 6, "qtd_prof_total": 11, "qtd_prof": 11, "qtd_doc": 6, "qtd_matri_inf": 110, "qtd_matri_fund": 0, "qtd_matri_med": 0, "qtd_matri_prof": 0, "qtd_matri_eja": 0, "qtd_matri_esp": 7}}, {"type": "Feature", "geometry": {"type": "Point", "coordinates": [-51.2008502, -30.0024866]}, "properties": {"co_entidade": 43104967, "no_entidade": "COLEGIO CONCORDIA - PORTO ALEGRE", "municipio": "Porto Alegre", "tp_dependencia": 4, "tp_dependencia_label": "Privada", "ds_endereco": "AVENIDA PRESIDENTE FRANKLIN ROOSEVELT", "nu_endereco": 770, "ds_complemento": null, "no_bairro": "NAVEGANTES", "co_cep": 90230001, "endereco_geocode": "AVENIDA PRESIDENTE FRANKLIN ROOSEVELT, 770, NAVEGANTES, 90230001, Porto Alegre - RS", "qtd_mat_infantil": 18, "qtd_mat_fundamental": 399, "qtd_mat_medio": 124, "qtd_mat_profissional": 0, "qtd_mat_eja": 0, "qtd_mat_especial": 40, "qtd_mat_total": 581, "qtd_doc_total": 39, "qtd_prof_total": 20, "qtd_prof": 20, "qtd_doc": 39, "qtd_matri_inf": 18, "qtd_matri_fund": 399, "qtd_matri_med": 124, "qtd_matri_prof": 0, "qtd_matri_eja": 0, "qtd_matri_esp": 40}}, {"type": "Feature", "geometry": {"type": "Point", "coordinates": [-51.25958256727911, -30.01396695]}, "properties": {"co_entidade": 43105815, "no_entidade": "ESC EST ENS MED ALMIRANTE BARROSO", "municipio": "Porto Alegre", "tp_dependencia": 2, "tp_dependencia_label": "Estadual", "ds_endereco": "R CAPITAO COELHO 95", "nu_endereco": 95, "ds_complemento": null, "no_bairro": "ARQUIPELAGO", "co_cep": 90090040, "endereco_geocode": "R CAPITAO COELHO 95, 95, ARQUIPELAGO, 90090040, Porto Alegre - RS", "qtd_mat_infantil": 0, "qtd_mat_fundamental": 307, "qtd_mat_medio": 174, "qtd_mat_profissional": 0, "qtd_mat_eja": 0, "qtd_mat_especial": 53, "qtd_mat_total": 534, "qtd_doc_total": 25, "qtd_prof_total": 15, "qtd_prof": 15, "qtd_doc": 25, "qtd_matri_inf": 0, "qtd_matri_fund": 307, "qtd_matri_med": 174, "qtd_matri_prof": 0, "qtd_matri_eja": 0, "qtd_matri_esp": 53}}, {"type": "Feature", "geometry": {"type": "Point", "coordinates": [-51.2251876, -29.9917365]}, "properties": {"co_entidade": 43105823, "no_entidade": "ESC EST ENS FUN ALVARENGA PEIXOTO", "municipio": "Porto Alegre", "tp_dependencia": 2, "tp_dependencia_label": "Estadual", "ds_endereco": "R SANTA RITA DE CASSIA 100", "nu_endereco": 100, "ds_complemento": null, "no_bairro": "ILHA DOS MARINHEIROS", "co_cep": 90090260, "endereco_geocode": "R SANTA RITA DE CASSIA 100, 100, ILHA DOS MARINHEIROS, 90090260, Porto Alegre - RS", "qtd_mat_infantil": 0, "qtd_mat_fundamental": 228, "qtd_mat_medio": 0, "qtd_mat_profissional": 0, "qtd_mat_eja": 65, "qtd_mat_especial": 18, "qtd_mat_total": 311, "qtd_doc_total": 22, "qtd_prof_total": 12, "qtd_prof": 12, "qtd_doc": 22, "qtd_matri_inf": 0, "qtd_matri_fund": 228, "qtd_matri_med": 0, "qtd_matri_prof": 0, "qtd_matri_eja": 65, "qtd_matri_esp": 18}}, {"type": "Feature", "geometry": {"type": "Point", "coordinates": [-51.1251693, -29.9861257]}, "properties": {"co_entidade": 43105890, "no_entidade": "ESC EST ENS FUN ARAUJO PORTO ALEGRE", "municipio": "Porto Alegre", "tp_dependencia": 2, "tp_dependencia_label": "Estadual", "ds_endereco": "R PANDIA CALOGERAS 429", "nu_endereco": 429, "ds_complemento": null, "no_bairro": "SARANDI", "co_cep": 91120560, "endereco_geocode": "R PANDIA CALOGERAS 429, 429, SARANDI, 91120560, Porto Alegre - RS", "qtd_mat_infantil": 0, "qtd_mat_fundamental": 314, "qtd_mat_medio": 0, "qtd_mat_profissional": 0, "qtd_mat_eja": 0, "qtd_mat_especial": 16, "qtd_mat_total": 330, "qtd_doc_total": 18, "qtd_prof_total": 10, "qtd_prof": 10, "qtd_doc": 18, "qtd_matri_inf": 0, "qtd_matri_fund": 314, "qtd_matri_med": 0, "qtd_matri_prof": 0, "qtd_matri_eja": 0, "qtd_matri_esp": 16}}, {"type": "Feature", "geometry": {"type": "Point", "coordinates": [-51.21143102691848, -30.0148701]}, "properties": {"co_entidade": 43106013, "no_entidade": "ESC EST ENS FUN CAMILA FURTADO ALVES", "municipio": "Porto Alegre", "tp_dependencia": 2, "tp_dependencia_label": "Estadual", "ds_endereco": "R ALMIRANTE BARROSO 79", "nu_endereco": 79, "ds_complemento": null, "no_bairro": "FLORESTA", "co_cep": 90220021, "endereco_geocode": "R ALMIRANTE BARROSO 79, 79, FLORESTA, 90220021, Porto Alegre - RS", "qtd_mat_infantil": 0, "qtd_mat_fundamental": 84, "qtd_mat_medio": 0, "qtd_mat_profissional": 0, "qtd_mat_eja": 0, "qtd_mat_especial": 15, "qtd_mat_total": 99, "qtd_doc_total": 12, "qtd_prof_total": 9, "qtd_prof": 9, "qtd_doc": 12, "qtd_matri_inf": 0, "qtd_matri_fund": 84, "qtd_matri_med": 0, "qtd_matri_prof": 0, "qtd_matri_eja": 0, "qtd_matri_esp": 15}}, {"type": "Feature", "geometry": {"type": "Point", "coordinates": [-51.19819538373909, -29.99365225]}, "properties": {"co_entidade": 43106030, "no_entidade": "ESC EST ENS FUN DR CARLOS BARBOSA GONCALVES", "municipio": "Porto Alegre", "tp_dependencia": 2, "tp_dependencia_label": "Estadual", "ds_endereco": "TRV DR HEINZELMANN 250", "nu_endereco": 250, "ds_complemento": null, "no_bairro": "NAVEGANTES", "co_cep": 90240100, "endereco_geocode": "TRV DR HEINZELMANN 250, 250, NAVEGANTES, 90240100, Porto Alegre - RS", "qtd_mat_infantil": 0, "qtd_mat_fundamental": 220, "qtd_mat_medio": 0, "qtd_mat_profissional": 0, "qtd_mat_eja": 0, "qtd_mat_especial": 5, "qtd_mat_total": 225, "qtd_doc_total": 14, "qtd_prof_total": 7, "qtd_prof": 7, "qtd_doc": 14, "qtd_matri_inf": 0, "qtd_matri_fund": 220, "qtd_matri_med": 0, "qtd_matri_prof": 0, "qtd_matri_eja": 0, "qtd_matri_esp": 5}}, {"type": "Feature", "geometry": {"type": "Point", "coordinates": [-51.19304782131003, -29.9801133]}, "properties": {"co_entidade": 43106048, "no_entidade": "COL ESTADUAL CARLOS FAGUNDES DE MELLO", "municipio": "Porto Alegre", "tp_dependencia": 2, "tp_dependencia_label": "Estadual", "ds_endereco": "R IRMA MARIA JOSE TREVISAN 200", "nu_endereco": 200, "ds_complemento": null, "no_bairro": "NAVEGANTES VILA FAR", "co_cep": 90250430, "endereco_geocode": "R IRMA MARIA JOSE TREVISAN 200, 200, NAVEGANTES VILA FAR, 90250430, Porto Alegre - RS", "qtd_mat_infantil": 0, "qtd_mat_fundamental": 590, "qtd_mat_medio": 184, "qtd_mat_profissional": 0, "qtd_mat_eja": 119, "qtd_mat_especial": 29, "qtd_mat_total": 922, "qtd_doc_total": 40, "qtd_prof_total": 13, "qtd_prof": 13, "qtd_doc": 40, "qtd_matri_inf": 0, "qtd_matri_fund": 590, "qtd_matri_med": 184, "qtd_matri_prof": 0, "qtd_matri_eja": 119, "qtd_matri_esp": 29}}, {"type": "Feature", "geometry": {"type": "Point", "coordinates": [-51.2100496, -30.185248]}, "properties": {"co_entidade": 43106242, "no_entidade": "ESC EST ENS FUN DR JOSE LOUREIRO DA SILVA", "municipio": "Porto Alegre", "tp_dependencia": 2, "tp_dependencia_label": "Estadual", "ds_endereco": "ETR ESTRADA RETIRO DA PONTA GROSSA 3541", "nu_endereco": 3541, "ds_complemento": null, "no_bairro": "PONTA GROSSA", "co_cep": 91780590, "endereco_geocode": "ETR ESTRADA RETIRO DA PONTA GROSSA 3541, 3541, PONTA GROSSA, 91780590, Porto Alegre - RS", "qtd_mat_infantil": 0, "qtd_mat_fundamental": 375, "qtd_mat_medio": 0, "qtd_mat_profissional": 0, "qtd_mat_eja": 0, "qtd_mat_especial": 17, "qtd_mat_total": 392, "qtd_doc_total": 16, "qtd_prof_total": 12, "qtd_prof": 12, "qtd_doc": 16, "qtd_matri_inf": 0, "qtd_matri_fund": 375, "qtd_matri_med": 0, "qtd_matri_prof": 0, "qtd_matri_eja": 0, "qtd_matri_esp": 17}}, {"type": "Feature", "geometry": {"type": "Point", "coordinates": [-51.1282358, -29.9827507]}, "properties": {"co_entidade": 43106722, "no_entidade": "ESC EST ENS FUN MAJOR MIGUEL JOSE PEREIRA", "municipio": "Porto Alegre", "tp_dependencia": 2, "tp_dependencia_label": "Estadual", "ds_endereco": "R JACKSON DE FIGUEIREDO 675", "nu_endereco": 675, "ds_complemento": null, "no_bairro": "SARANDI", "co_cep": 91120380, "endereco_geocode": "R JACKSON DE FIGUEIREDO 675, 675, SARANDI, 91120380, Porto Alegre - RS", "qtd_mat_infantil": 0, "qtd_mat_fundamental": 363, "qtd_mat_medio": 0, "qtd_mat_profissional": 0, "qtd_mat_eja": 0, "qtd_mat_especial": 31, "qtd_mat_total": 394, "qtd_doc_total": 22, "qtd_prof_total": 10, "qtd_prof": 10, "qtd_doc": 22, "qtd_matri_inf": 0, "qtd_matri_fund": 363, "qtd_matri_med": 0, "qtd_matri_prof": 0, "qtd_matri_eja": 0, "qtd_matri_esp": 31}}, {"type": "Feature", "geometry": {"type": "Point", "coordinates": [-51.1363896, -29.9875798]}, "properties": {"co_entidade": 43106854, "no_entidade": "ESC EST ENS FUN PROFESSORA AURORA PEIXOTO DE AZEVEDO", "municipio": "Porto Alegre", "tp_dependencia": 2, "tp_dependencia_label": "Estadual", "ds_endereco": "R PEDRO DOS SANTOS SA 50 PREDIO", "nu_endereco": 50, "ds_complemento": "PREDIO", "no_bairro": "SARANDI", "co_cep": 91120150, "endereco_geocode": "R PEDRO DOS SANTOS SA 50 PREDIO, 50, SARANDI, 91120150, Porto Alegre - RS", "qtd_mat_infantil": 0, "qtd_mat_fundamental": 178, "qtd_mat_medio": 0, "qtd_mat_profissional": 0, "qtd_mat_eja": 0, "qtd_mat_especial": 17, "qtd_mat_total": 195, "qtd_doc_total": 14, "qtd_prof_total": 8, "qtd_prof": 8, "qtd_doc": 14, "qtd_matri_inf": 0, "qtd_matri_fund": 178, "qtd_matri_med": 0, "qtd_matri_prof": 0, "qtd_matri_eja": 0, "qtd_matri_esp": 17}}, {"type": "Feature", "geometry": {"type": "Point", "coordinates": [-51.1964835, -29.9853031]}, "properties": {"co_entidade": 43107303, "no_entidade": "ESC EST ENS FUN DANILO ANTONIO ZAFFARI", "municipio": "Porto Alegre", "tp_dependencia": 2, "tp_dependencia_label": "Estadual", "ds_endereco": "R GENERAL MARCOS KRUCHIN 291", "nu_endereco": 291, "ds_complemento": null, "no_bairro": "FARRAPOS", "co_cep": 90245250, "endereco_geocode": "R GENERAL MARCOS KRUCHIN 291, 291, FARRAPOS, 90245250, Porto Alegre - RS", "qtd_mat_infantil": 0, "qtd_mat_fundamental": 413, "qtd_mat_medio": 0, "qtd_mat_profissional": 0, "qtd_mat_eja": 0, "qtd_mat_especial": 27, "qtd_mat_total": 440, "qtd_doc_total": 18, "qtd_prof_total": 11, "qtd_prof": 11, "qtd_doc": 18, "qtd_matri_inf": 0, "qtd_matri_fund": 413, "qtd_matri_med": 0, "qtd_matri_prof": 0, "qtd_matri_eja": 0, "qtd_matri_esp": 27}}, {"type": "Feature", "geometry": {"type": "Point", "coordinates": [-51.13496618120757, -29.98241835]}, "properties": {"co_entidade": 43107478, "no_entidade": "ESC EST ENS FUN DECIO MARTINS COSTA", "municipio": "Porto Alegre", "tp_dependencia": 2, "tp_dependencia_label": "Estadual", "ds_endereco": "R DOMINGOS DE ABREU 967", "nu_endereco": 967, "ds_complemento": null, "no_bairro": "SARANDI", "co_cep": 91120090, "endereco_geocode": "R DOMINGOS DE ABREU 967, 967, SARANDI, 91120090, Porto Alegre - RS", "qtd_mat_infantil": 0, "qtd_mat_fundamental": 209, "qtd_mat_medio": 0, "qtd_mat_profissional": 0, "qtd_mat_eja": 13, "qtd_mat_especial": 25, "qtd_mat_total": 247, "qtd_doc_total": 17, "qtd_prof_total": 13, "qtd_prof": 13, "qtd_doc": 17, "qtd_matri_inf": 0, "qtd_matri_fund": 209, "qtd_matri_med": 0, "qtd_matri_prof": 0, "qtd_matri_eja": 13, "qtd_matri_esp": 25}}, {"type": "Feature", "geometry": {"type": "Point", "coordinates": [-51.19568643316132, -29.9796076]}, "properties": {"co_entidade": 43107826, "no_entidade": "ESC EST ENS FUN OSWALDO VERGARA", "municipio": "Porto Alegre", "tp_dependencia": 2, "tp_dependencia_label": "Estadual", "ds_endereco": "R GRACIANO CAMOZZATO 101", "nu_endereco": 101, "ds_complemento": null, "no_bairro": "FARRAPOS", "co_cep": 90250390, "endereco_geocode": "R GRACIANO CAMOZZATO 101, 101, FARRAPOS, 90250390, Porto Alegre - RS", "qtd_mat_infantil": 0, "qtd_mat_fundamental": 407, "qtd_mat_medio": 0, "qtd_mat_profissional": 0, "qtd_mat_eja": 0, "qtd_mat_especial": 5, "qtd_mat_total": 412, "qtd_doc_total": 18, "qtd_prof_total": 7, "qtd_prof": 7, "qtd_doc": 18, "qtd_matri_inf": 0, "qtd_matri_fund": 407, "qtd_matri_med": 0, "qtd_matri_prof": 0, "qtd_matri_eja": 0, "qtd_matri_esp": 5}}, {"type": "Feature", "geometry": {"type": "Point", "coordinates": [-51.192733676866695, -29.99340845]}, "properties": {"co_entidade": 43108245, "no_entidade": "ESC EST ENS FUN LIONS CLUB POA FARRAPOS", "municipio": "Porto Alegre", "tp_dependencia": 2, "tp_dependencia_label": "Estadual", "ds_endereco": "R DONA TEODORA 1156", "nu_endereco": 1156, "ds_complemento": null, "no_bairro": "HUMAITA", "co_cep": 90240300, "endereco_geocode": "R DONA TEODORA 1156, 1156, HUMAITA, 90240300, Porto Alegre - RS", "qtd_mat_infantil": 0, "qtd_mat_fundamental": 180, "qtd_mat_medio": 0, "qtd_mat_profissional": 0, "qtd_mat_eja": 0, "qtd_mat_especial": 5, "qtd_mat_total": 185, "qtd_doc_total": 15, "qtd_prof_total": 8, "qtd_prof": 8, "qtd_doc": 15, "qtd_matri_inf": 0, "qtd_matri_fund": 180, "qtd_matri_med": 0, "qtd_matri_prof": 0, "qtd_matri_eja": 0, "qtd_matri_esp": 5}}, {"type": "Feature", "geometry": {"type": "Point", "coordinates": [-51.09105639701912, -29.99708475]}, "properties": {"co_entidade": 43108474, "no_entidade": "ESC EST ENS FUN VINTE DE SETEMBRO", "municipio": "Porto Alegre", "tp_dependencia": 2, "tp_dependencia_label": "Estadual", "ds_endereco": "R MARUJAIBA 8", "nu_endereco": 8, "ds_complemento": null, "no_bairro": "SANTA ROSA DE LIMA", "co_cep": 91170340, "endereco_geocode": "R MARUJAIBA 8, 8, SANTA ROSA DE LIMA, 91170340, Porto Alegre - RS", "qtd_mat_infantil": 0, "qtd_mat_fundamental": 693, "qtd_mat_medio": 0, "qtd_mat_profissional": 0, "qtd_mat_eja": 0, "qtd_mat_especial": 22, "qtd_mat_total": 715, "qtd_doc_total": 28, "qtd_prof_total": 17, "qtd_prof": 17, "qtd_doc": 28, "qtd_matri_inf": 0, "qtd_matri_fund": 693, "qtd_matri_med": 0, "qtd_matri_prof": 0, "qtd_matri_eja": 0, "qtd_matri_esp": 22}}, {"type": "Feature", "geometry": {"type": "Point", "coordinates": [-51.126487135422906, -29.97902515]}, "properties": {"co_entidade": 43108563, "no_entidade": "EMEF PRES JOAO BELCHIOR MARQUES GOULART", "municipio": "Porto Alegre", "tp_dependencia": 3, "tp_dependencia_label": "Municipal", "ds_endereco": "R JOAO LUIZ PUFAL", "nu_endereco": 100, "ds_complemento": "VILA ELIZABETH", "no_bairro": "SARANDI", "co_cep": 91120530, "endereco_geocode": "R JOAO LUIZ PUFAL, 100, SARANDI, 91120530, Porto Alegre - RS", "qtd_mat_infantil": 67, "qtd_mat_fundamental": 590, "qtd_mat_medio": 0, "qtd_mat_profissional": 0, "qtd_mat_eja": 0, "qtd_mat_especial": 64, "qtd_mat_total": 721, "qtd_doc_total": 41, "qtd_prof_total": 34, "qtd_prof": 34, "qtd_doc": 41, "qtd_matri_inf": 67, "qtd_matri_fund": 590, "qtd_matri_med": 0, "qtd_matri_prof": 0, "qtd_matri_eja": 0, "qtd_matri_esp": 64}}, {"type": "Feature", "geometry": {"type": "Point", "coordinates": [-51.22853328239779, -30.05587655]}, "properties": {"co_entidade": 43108946, "no_entidade": "EEI PIAZITO", "municipio": "Porto Alegre", "tp_dependencia": 4, "tp_dependencia_label": "Privada", "ds_endereco": "AVENIDA PRAIA DE BELAS", "nu_endereco": 1948, "ds_complemento": null, "no_bairro": "PRAIA DE BELAS", "co_cep": 90110000, "endereco_geocode": "AVENIDA PRAIA DE BELAS, 1948, PRAIA DE BELAS, 90110000, Porto Alegre - RS", "qtd_mat_infantil": 59, "qtd_mat_fundamental": 0, "qtd_mat_medio": 0, "qtd_mat_profissional": 0, "qtd_mat_eja": 0, "qtd_mat_especial": 0, "qtd_mat_total": 59, "qtd_doc_total": 7, "qtd_prof_total": 7, "qtd_prof": 7, "qtd_doc": 7, "qtd_matri_inf": 59, "qtd_matri_fund": 0, "qtd_matri_med": 0, "qtd_matri_prof": 0, "qtd_matri_eja": 0, "qtd_matri_esp": 0}}, {"type": "Feature", "geometry": {"type": "Point", "coordinates": [-51.1878863, -29.9802321]}, "properties": {"co_entidade": 43109179, "no_entidade": "ESC EST ENS FUN JOSE GARIBALDI", "municipio": "Porto Alegre", "tp_dependencia": 2, "tp_dependencia_label": "Estadual", "ds_endereco": "R DR CAIO BRANDAO DE MELLO 300 PREDIO", "nu_endereco": 300, "ds_complemento": "PREDIO", "no_bairro": "PARQUE HUMAITA", "co_cep": 90250110, "endereco_geocode": "R DR CAIO BRANDAO DE MELLO 300 PREDIO, 300, PARQUE HUMAITA, 90250110, Porto Alegre - RS", "qtd_mat_infantil": 0, "qtd_mat_fundamental": 293, "qtd_mat_medio": 0, "qtd_mat_profissional": 0, "qtd_mat_eja": 0, "qtd_mat_especial": 11, "qtd_mat_total": 304, "qtd_doc_total": 18, "qtd_prof_total": 5, "qtd_prof": 5, "qtd_doc": 18, "qtd_matri_inf": 0, "qtd_matri_fund": 293, "qtd_matri_med": 0, "qtd_matri_prof": 0, "qtd_matri_eja": 0, "qtd_matri_esp": 11}}, {"type": "Feature", "geometry": {"type": "Point", "coordinates": [-51.2275965, -30.0476044]}, "properties": {"co_entidade": 43109373, "no_entidade": "CENTRO DE ENSINO FUNDAMENTAL PROJETO", "municipio": "Porto Alegre", "tp_dependencia": 4, "tp_dependencia_label": "Privada", "ds_endereco": "AVENIDA IPIRANGA", "nu_endereco": 585, "ds_complemento": null, "no_bairro": "PRAIA DE BELAS", "co_cep": 90160092, "endereco_geocode": "AVENIDA IPIRANGA, 585, PRAIA DE BELAS, 90160092, Porto Alegre - RS", "qtd_mat_infantil": 58, "qtd_mat_fundamental": 144, "qtd_mat_medio": 0, "qtd_mat_profissional": 0, "qtd_mat_eja": 0, "qtd_mat_especial": 27, "qtd_mat_total": 229, "qtd_doc_total": 19, "qtd_prof_total": 15, "qtd_prof": 15, "qtd_doc": 19, "qtd_matri_inf": 58, "qtd_matri_fund": 144, "qtd_matri_med": 0, "qtd_matri_prof": 0, "qtd_matri_eja": 0, "qtd_matri_esp": 27}}, {"type": "Feature", "geometry": {"type": "Point", "coordinates": [-51.245676178427416, -30.09484435]}, "properties": {"co_entidade": 43172440, "no_entidade": "COLEGIO LEONARDO DA VINCI- BETA", "municipio": "Porto Alegre", "tp_dependencia": 4, "tp_dependencia_label": "Privada", "ds_endereco": "AVENIDA ICARAI", "nu_endereco": 1879, "ds_complemento": null, "no_bairro": "CRISTAL", "co_cep": 90810000, "endereco_geocode": "AVENIDA ICARAI, 1879, CRISTAL, 90810000, Porto Alegre - RS", "qtd_mat_infantil": 48, "qtd_mat_fundamental": 575, "qtd_mat_medio": 180, "qtd_mat_profissional": 0, "qtd_mat_eja": 0, "qtd_mat_especial": 23, "qtd_mat_total": 826, "qtd_doc_total": 66, "qtd_prof_total": 37, "qtd_prof": 37, "qtd_doc": 66, "qtd_matri_inf": 48, "qtd_matri_fund": 575, "qtd_matri_med": 180, "qtd_matri_prof": 0, "qtd_matri_eja": 0, "qtd_matri_esp": 23}}, {"type": "Feature", "geometry": {"type": "Point", "coordinates": [-51.1881425, -29.9797311]}, "properties": {"co_entidade": 43172482, "no_entidade": "EMEF VER ANTONIO GIUDICE", "municipio": "Porto Alegre", "tp_dependencia": 3, "tp_dependencia_label": "Municipal", "ds_endereco": "RUA DR CAIO BRANDAO DE MELLO", "nu_endereco": 1, "ds_complemento": null, "no_bairro": "HUMAITA", "co_cep": 90250110, "endereco_geocode": "RUA DR CAIO BRANDAO DE MELLO, 1, HUMAITA, 90250110, Porto Alegre - RS", "qtd_mat_infantil": 0, "qtd_mat_fundamental": 792, "qtd_mat_medio": 0, "qtd_mat_profissional": 0, "qtd_mat_eja": 191, "qtd_mat_especial": 96, "qtd_mat_total": 1079, "qtd_doc_total": 56, "qtd_prof_total": 26, "qtd_prof": 26, "qtd_doc": 56, "qtd_matri_inf": 0, "qtd_matri_fund": 792, "qtd_matri_med": 0, "qtd_matri_prof": 0, "qtd_matri_eja": 191, "qtd_matri_esp": 96}}, {"type": "Feature", "geometry": {"type": "Point", "coordinates": [-51.13157316644717, -29.98308695]}, "properties": {"co_entidade": 43173306, "no_entidade": "ESC EST ENS MED CRISTOVAO COLOMBO", "municipio": "Porto Alegre", "tp_dependencia": 2, "tp_dependencia_label": "Estadual", "ds_endereco": "R REZENDE COSTA 805", "nu_endereco": 805, "ds_complemento": null, "no_bairro": "SARANDI", "co_cep": 91120280, "endereco_geocode": "R REZENDE COSTA 805, 805, SARANDI, 91120280, Porto Alegre - RS", "qtd_mat_infantil": 0, "qtd_mat_fundamental": 255, "qtd_mat_medio": 383, "qtd_mat_profissional": 0, "qtd_mat_eja": 0, "qtd_mat_especial": 36, "qtd_mat_total": 674, "qtd_doc_total": 42, "qtd_prof_total": 14, "qtd_prof": 14, "qtd_doc": 42, "qtd_matri_inf": 0, "qtd_matri_fund": 255, "qtd_matri_med": 383, "qtd_matri_prof": 0, "qtd_matri_eja": 0, "qtd_matri_esp": 36}}, {"type": "Feature", "geometry": {"type": "Point", "coordinates": [-51.12726354501568, -29.98007325]}, "properties": {"co_entidade": 43173624, "no_entidade": "EMEI DA VILA ELIZABETH", "municipio": "Porto Alegre", "tp_dependencia": 3, "tp_dependencia_label": "Municipal", "ds_endereco": "R PAULO GOMES DE OLIVEIRA", "nu_endereco": 120, "ds_complemento": "VILA ELIZABETH", "no_bairro": "SARANDI", "co_cep": 91120570, "endereco_geocode": "R PAULO GOMES DE OLIVEIRA, 120, SARANDI, 91120570, Porto Alegre - RS", "qtd_mat_infantil": 93, "qtd_mat_fundamental": 0, "qtd_mat_medio": 0, "qtd_mat_profissional": 0, "qtd_mat_eja": 0, "qtd_mat_especial": 5, "qtd_mat_total": 98, "qtd_doc_total": 16, "qtd_prof_total": 5, "qtd_prof": 5, "qtd_doc": 16, "qtd_matri_inf": 93, "qtd_matri_fund": 0, "qtd_matri_med": 0, "qtd_matri_prof": 0, "qtd_matri_eja": 0, "qtd_matri_esp": 5}}, {"type": "Feature", "geometry": {"type": "Point", "coordinates": [-51.2100496, -30.185248]}, "properties": {"co_entidade": 43175139, "no_entidade": "EMEI PONTA GROSSA", "municipio": "Porto Alegre", "tp_dependencia": 3, "tp_dependencia_label": "Municipal", "ds_endereco": "ESTR RETIRO DA PONTA GROSSA", "nu_endereco": 3581, "ds_complemento": null, "no_bairro": "PONTA GROSSA", "co_cep": 91780590, "endereco_geocode": "ESTR RETIRO DA PONTA GROSSA, 3581, PONTA GROSSA, 91780590, Porto Alegre - RS", "qtd_mat_infantil": 143, "qtd_mat_fundamental": 0, "qtd_mat_medio": 0, "qtd_mat_profissional": 0, "qtd_mat_eja": 0, "qtd_mat_especial": 12, "qtd_mat_total": 155, "qtd_doc_total": 9, "qtd_prof_total": 4, "qtd_prof": 4, "qtd_doc": 9, "qtd_matri_inf": 143, "qtd_matri_fund": 0, "qtd_matri_med": 0, "qtd_matri_prof": 0, "qtd_matri_eja": 0, "qtd_matri_esp": 12}}, {"type": "Feature", "geometry": {"type": "Point", "coordinates": [-51.1881425, -29.9797311]}, "properties": {"co_entidade": 43175147, "no_entidade": "EMEI HUMAITA", "municipio": "Porto Alegre", "tp_dependencia": 3, "tp_dependencia_label": "Municipal", "ds_endereco": "RUA DR CAIO BRANDAO DE MELLO", "nu_endereco": 1, "ds_complemento": null, "no_bairro": "HUMAITA", "co_cep": 90250110, "endereco_geocode": "RUA DR CAIO BRANDAO DE MELLO, 1, HUMAITA, 90250110, Porto Alegre - RS", "qtd_mat_infantil": 96, "qtd_mat_fundamental": 0, "qtd_mat_medio": 0, "qtd_mat_profissional": 0, "qtd_mat_eja": 0, "qtd_mat_especial": 5, "qtd_mat_total": 101, "qtd_doc_total": 17, "qtd_prof_total": 13, "qtd_prof": 13, "qtd_doc": 17, "qtd_matri_inf": 96, "qtd_matri_fund": 0, "qtd_matri_med": 0, "qtd_matri_prof": 0, "qtd_matri_eja": 0, "qtd_matri_esp": 5}}, {"type": "Feature", "geometry": {"type": "Point", "coordinates": [-51.2602189, -30.0165948]}, "properties": {"co_entidade": 43175163, "no_entidade": "EMEI ILHA DA PINTADA", "municipio": "Porto Alegre", "tp_dependencia": 3, "tp_dependencia_label": "Municipal", "ds_endereco": "R GARRUCHOS", "nu_endereco": 0, "ds_complemento": null, "no_bairro": "ARQUIPELAGO", "co_cep": 90090080, "endereco_geocode": "R GARRUCHOS, 0, ARQUIPELAGO, 90090080, Porto Alegre - RS", "qtd_mat_infantil": 102, "qtd_mat_fundamental": 0, "qtd_mat_medio": 0, "qtd_mat_profissional": 0, "qtd_mat_eja": 0, "qtd_mat_especial": 6, "qtd_mat_total": 108, "qtd_doc_total": 12, "qtd_prof_total": 17, "qtd_prof": 17, "qtd_doc": 12, "qtd_matri_inf": 102, "qtd_matri_fund": 0, "qtd_matri_med": 0, "qtd_matri_prof": 0, "qtd_matri_eja": 0, "qtd_matri_esp": 6}}, {"type": "Feature", "geometry": {"type": "Point", "coordinates": [-51.20097912431511, -30.0000094]}, "properties": {"co_entidade": 43176500, "no_entidade": "CENTRO DE FORMACAO PROFISSIONAL SENAI VISCONDE DE MAUA", "municipio": "Porto Alegre", "tp_dependencia": 4, "tp_dependencia_label": "Privada", "ds_endereco": "SERTORIO", "nu_endereco": 473, "ds_complemento": null, "no_bairro": "NAVEGANTES", "co_cep": 91020001, "endereco_geocode": "SERTORIO, 473, NAVEGANTES, 91020001, Porto Alegre - RS", "qtd_mat_infantil": 0, "qtd_mat_fundamental": 0, "qtd_mat_medio": 0, "qtd_mat_profissional": 338, "qtd_mat_eja": 0, "qtd_mat_especial": 0, "qtd_mat_total": 338, "qtd_doc_total": 12, "qtd_prof_total": 21, "qtd_prof": 21, "qtd_doc": 12, "qtd_matri_inf": 0, "qtd_matri_fund": 0, "qtd_matri_med": 0, "qtd_matri_prof": 338, "qtd_matri_eja": 0, "qtd_matri_esp": 0}}, {"type": "Feature", "geometry": {"type": "Point", "coordinates": [-51.15774972491723, -29.98687935]}, "properties": {"co_entidade": 43177018, "no_entidade": "EMEF MIGRANTES", "municipio": "Porto Alegre", "tp_dependencia": 3, "tp_dependencia_label": "Municipal", "ds_endereco": "AVENIDA SEVERO DULLIUS", "nu_endereco": 165, "ds_complemento": null, "no_bairro": "ANCHIETA", "co_cep": 90200310, "endereco_geocode": "AVENIDA SEVERO DULLIUS, 165, ANCHIETA, 90200310, Porto Alegre - RS", "qtd_mat_infantil": 28, "qtd_mat_fundamental": 135, "qtd_mat_medio": 0, "qtd_mat_profissional": 0, "qtd_mat_eja": 0, "qtd_mat_especial": 13, "qtd_mat_total": 176, "qtd_doc_total": 19, "qtd_prof_total": 21, "qtd_prof": 21, "qtd_doc": 19, "qtd_matri_inf": 28, "qtd_matri_fund": 135, "qtd_matri_med": 0, "qtd_matri_prof": 0, "qtd_matri_eja": 0, "qtd_matri_esp": 13}}, {"type": "Feature", "geometry": {"type": "Point", "coordinates": [-51.184506355755246, -29.9831436]}, "properties": {"co_entidade": 43182259, "no_entidade": "ESC EDUC PROF MAN AERON OTTO E MEYER", "municipio": "Porto Alegre", "tp_dependencia": 4, "tp_dependencia_label": "Privada", "ds_endereco": "AV. JOSE ALOISIO FILHO", "nu_endereco": 695, "ds_complemento": null, "no_bairro": "HUMAITA", "co_cep": 91030270, "endereco_geocode": "AV. JOSE ALOISIO FILHO, 695, HUMAITA, 91030270, Porto Alegre - RS", "qtd_mat_infantil": 0, "qtd_mat_fundamental": 0, "qtd_mat_medio": 0, "qtd_mat_profissional": 23, "qtd_mat_eja": 0, "qtd_mat_especial": 0, "qtd_mat_total": 23, "qtd_doc_total": 2, "qtd_prof_total": 4, "qtd_prof": 4, "qtd_doc": 2, "qtd_matri_inf": 0, "qtd_matri_fund": 0, "qtd_matri_med": 0, "qtd_matri_prof": 23, "qtd_matri_eja": 0, "qtd_matri_esp": 0}}, {"type": "Feature", "geometry": {"type": "Point", "coordinates": [-51.1937107, -29.9803337]}, "properties": {"co_entidade": 43185410, "no_entidade": "5013 IEI SANTA LUIZA", "municipio": "Porto Alegre", "tp_dependencia": 4, "tp_dependencia_label": "Privada", "ds_endereco": "R IRMA MARIA JOSE TREVISAN", "nu_endereco": 30, "ds_complemento": null, "no_bairro": "FARRAPOS", "co_cep": 90250430, "endereco_geocode": "R IRMA MARIA JOSE TREVISAN, 30, FARRAPOS, 90250430, Porto Alegre - RS", "qtd_mat_infantil": 194, "qtd_mat_fundamental": 0, "qtd_mat_medio": 0, "qtd_mat_profissional": 0, "qtd_mat_eja": 0, "qtd_mat_especial": 2, "qtd_mat_total": 196, "qtd_doc_total": 14, "qtd_prof_total": 11, "qtd_prof": 11, "qtd_doc": 14, "qtd_matri_inf": 194, "qtd_matri_fund": 0, "qtd_matri_med": 0, "qtd_matri_prof": 0, "qtd_matri_eja": 0, "qtd_matri_esp": 2}}, {"type": "Feature", "geometry": {"type": "Point", "coordinates": [-51.1368687, -29.9789137]}, "properties": {"co_entidade": 43188141, "no_entidade": "5009 IEI SANTA CATARINA", "municipio": "Porto Alegre", "tp_dependencia": 4, "tp_dependencia_label": "Privada", "ds_endereco": "R JOSUE DE CASTRO", "nu_endereco": 290, "ds_complemento": null, "no_bairro": "SARANDI", "co_cep": 91120110, "endereco_geocode": "R JOSUE DE CASTRO, 290, SARANDI, 91120110, Porto Alegre - RS", "qtd_mat_infantil": 87, "qtd_mat_fundamental": 0, "qtd_mat_medio": 0, "qtd_mat_profissional": 0, "qtd_mat_eja": 0, "qtd_mat_especial": 2, "qtd_mat_total": 89, "qtd_doc_total": 5, "qtd_prof_total": 6, "qtd_prof": 6, "qtd_doc": 5, "qtd_matri_inf": 87, "qtd_matri_fund": 0, "qtd_matri_med": 0, "qtd_matri_prof": 0, "qtd_matri_eja": 0, "qtd_matri_esp": 2}}, {"type": "Feature", "geometry": {"type": "Point", "coordinates": [-51.2375993, -30.0953517]}, "properties": {"co_entidade": 43188206, "no_entidade": "5083 EEI CASA DE NAZARE CENTRO DE APOIO AO MENOR", "municipio": "Porto Alegre", "tp_dependencia": 4, "tp_dependencia_label": "Privada", "ds_endereco": "R CEL TIMOTEO", "nu_endereco": 350, "ds_complemento": null, "no_bairro": "CRISTAL", "co_cep": 91910680, "endereco_geocode": "R CEL TIMOTEO, 350, CRISTAL, 91910680, Porto Alegre - RS", "qtd_mat_infantil": 106, "qtd_mat_fundamental": 0, "qtd_mat_medio": 0, "qtd_mat_profissional": 0, "qtd_mat_eja": 0, "qtd_mat_especial": 3, "qtd_mat_total": 109, "qtd_doc_total": 6, "qtd_prof_total": 12, "qtd_prof": 12, "qtd_doc": 6, "qtd_matri_inf": 106, "qtd_matri_fund": 0, "qtd_matri_med": 0, "qtd_matri_prof": 0, "qtd_matri_eja": 0, "qtd_matri_esp": 3}}, {"type": "Feature", "geometry": {"type": "Point", "coordinates": [-51.2508268, -30.0953895]}, "properties": {"co_entidade": 43188311, "no_entidade": "5114 EEI CAPELA NAVEGANTES", "municipio": "Porto Alegre", "tp_dependencia": 4, "tp_dependencia_label": "Privada", "ds_endereco": "AV GUAIBA", "nu_endereco": 3955, "ds_complemento": null, "no_bairro": "CRISTAL", "co_cep": 91900420, "endereco_geocode": "AV GUAIBA, 3955, CRISTAL, 91900420, Porto Alegre - RS", "qtd_mat_infantil": 55, "qtd_mat_fundamental": 0, "qtd_mat_medio": 0, "qtd_mat_profissional": 0, "qtd_mat_eja": 0, "qtd_mat_especial": 2, "qtd_mat_total": 57, "qtd_doc_total": 3, "qtd_prof_total": 5, "qtd_prof": 5, "qtd_doc": 3, "qtd_matri_inf": 55, "qtd_matri_fund": 0, "qtd_matri_med": 0, "qtd_matri_prof": 0, "qtd_matri_eja": 0, "qtd_matri_esp": 2}}, {"type": "Feature", "geometry": {"type": "Point", "coordinates": [-51.1703829, -29.9778922]}, "properties": {"co_entidade": 43189032, "no_entidade": "5036 EEI MUNDO CRIANCA", "municipio": "Porto Alegre", "tp_dependencia": 4, "tp_dependencia_label": "Privada", "ds_endereco": "RUA 4", "nu_endereco": 62, "ds_complemento": null, "no_bairro": "MORRO SANTANA", "co_cep": 91450430, "endereco_geocode": "RUA 4, 62, MORRO SANTANA, 91450430, Porto Alegre - RS", "qtd_mat_infantil": 92, "qtd_mat_fundamental": 0, "qtd_mat_medio": 0, "qtd_mat_profissional": 0, "qtd_mat_eja": 0, "qtd_mat_especial": 2, "qtd_mat_total": 94, "qtd_doc_total": 7, "qtd_prof_total": 6, "qtd_prof": 6, "qtd_doc": 7, "qtd_matri_inf": 92, "qtd_matri_fund": 0, "qtd_matri_med": 0, "qtd_matri_prof": 0, "qtd_matri_eja": 0, "qtd_matri_esp": 2}}, {"type": "Feature", "geometry": {"type": "Point", "coordinates": [-51.2275965, -30.0476044]}, "properties": {"co_entidade": 43190391, "no_entidade": "5050 EEI NSA SRA APARECIDA SAO PEDRO", "municipio": "Porto Alegre", "tp_dependencia": 4, "tp_dependencia_label": "Privada", "ds_endereco": "AV IPIRANGA", "nu_endereco": 5229, "ds_complemento": "RUA A 435", "no_bairro": "PRAIA DE BELAS", "co_cep": 90160092, "endereco_geocode": "AV IPIRANGA, 5229, PRAIA DE BELAS, 90160092, Porto Alegre - RS", "qtd_mat_infantil": 60, "qtd_mat_fundamental": 0, "qtd_mat_medio": 0, "qtd_mat_profissional": 0, "qtd_mat_eja": 0, "qtd_mat_especial": 3, "qtd_mat_total": 63, "qtd_doc_total": 4, "qtd_prof_total": 5, "qtd_prof": 5, "qtd_doc": 4, "qtd_matri_inf": 60, "qtd_matri_fund": 0, "qtd_matri_med": 0, "qtd_matri_prof": 0, "qtd_matri_eja": 0, "qtd_matri_esp": 3}}, {"type": "Feature", "geometry": {"type": "Point", "coordinates": [-51.1997273, -29.9887386]}, "properties": {"co_entidade": 43190456, "no_entidade": "5002 IEI JOAO PAULO II", "municipio": "Porto Alegre", "tp_dependencia": 4, "tp_dependencia_label": "Privada", "ds_endereco": "R FREDERICO MENTZ", "nu_endereco": 118, "ds_complemento": null, "no_bairro": "FARRAPOS", "co_cep": 90250370, "endereco_geocode": "R FREDERICO MENTZ, 118, FARRAPOS, 90250370, Porto Alegre - RS", "qtd_mat_infantil": 98, "qtd_mat_fundamental": 0, "qtd_mat_medio": 0, "qtd_mat_profissional": 0, "qtd_mat_eja": 0, "qtd_mat_especial": 4, "qtd_mat_total": 102, "qtd_doc_total": 6, "qtd_prof_total": 9, "qtd_prof": 9, "qtd_doc": 6, "qtd_matri_inf": 98, "qtd_matri_fund": 0, "qtd_matri_med": 0, "qtd_matri_prof": 0, "qtd_matri_eja": 0, "qtd_matri_esp": 4}}, {"type": "Feature", "geometry": {"type": "Point", "coordinates": [-51.1108857, -29.985706]}, "properties": {"co_entidade": 43190588, "no_entidade": "5010 IEI ACOMPAR NUCLEO II - SANTO AGOSTINHO", "municipio": "Porto Alegre", "tp_dependencia": 4, "tp_dependencia_label": "Privada", "ds_endereco": "AV CALDEIA", "nu_endereco": 210, "ds_complemento": null, "no_bairro": "SARANDI", "co_cep": 91130540, "endereco_geocode": "AV CALDEIA, 210, SARANDI, 91130540, Porto Alegre - RS", "qtd_mat_infantil": 173, "qtd_mat_fundamental": 0, "qtd_mat_medio": 0, "qtd_mat_profissional": 0, "qtd_mat_eja": 0, "qtd_mat_especial": 7, "qtd_mat_total": 180, "qtd_doc_total": 9, "qtd_prof_total": 10, "qtd_prof": 10, "qtd_doc": 9, "qtd_matri_inf": 173, "qtd_matri_fund": 0, "qtd_matri_med": 0, "qtd_matri_prof": 0, "qtd_matri_eja": 0, "qtd_matri_esp": 7}}, {"type": "Feature", "geometry": {"type": "Point", "coordinates": [-51.134592, -29.9909522]}, "properties": {"co_entidade": 43190677, "no_entidade": "5113 EEI ANJINHO DA GUARDA", "municipio": "Porto Alegre", "tp_dependencia": 4, "tp_dependencia_label": "Privada", "ds_endereco": "R DOMINGOS DE ABREU", "nu_endereco": 290, "ds_complemento": null, "no_bairro": "SARANDI", "co_cep": 91120090, "endereco_geocode": "R DOMINGOS DE ABREU, 290, SARANDI, 91120090, Porto Alegre - RS", "qtd_mat_infantil": 190, "qtd_mat_fundamental": 0, "qtd_mat_medio": 0, "qtd_mat_profissional": 0, "qtd_mat_eja": 0, "qtd_mat_especial": 16, "qtd_mat_total": 206, "qtd_doc_total": 13, "qtd_prof_total": 11, "qtd_prof": 11, "qtd_doc": 13, "qtd_matri_inf": 190, "qtd_matri_fund": 0, "qtd_matri_med": 0, "qtd_matri_prof": 0, "qtd_matri_eja": 0, "qtd_matri_esp": 16}}, {"type": "Feature", "geometry": {"type": "Point", "coordinates": [-51.19877, -29.9890894]}, "properties": {"co_entidade": 43190685, "no_entidade": "5012 ECEI UMBERTO NEGRINI", "municipio": "Porto Alegre", "tp_dependencia": 4, "tp_dependencia_label": "Privada", "ds_endereco": "R DONA TEODORA", "nu_endereco": 160, "ds_complemento": null, "no_bairro": "FARRAPOS", "co_cep": 90240300, "endereco_geocode": "R DONA TEODORA, 160, FARRAPOS, 90240300, Porto Alegre - RS", "qtd_mat_infantil": 99, "qtd_mat_fundamental": 0, "qtd_mat_medio": 0, "qtd_mat_profissional": 0, "qtd_mat_eja": 0, "qtd_mat_especial": 2, "qtd_mat_total": 101, "qtd_doc_total": 7, "qtd_prof_total": 7, "qtd_prof": 7, "qtd_doc": 7, "qtd_matri_inf": 99, "qtd_matri_fund": 0, "qtd_matri_med": 0, "qtd_matri_prof": 0, "qtd_matri_eja": 0, "qtd_matri_esp": 2}}, {"type": "Feature", "geometry": {"type": "Point", "coordinates": [-51.1979535, -29.97973]}, "properties": {"co_entidade": 43201288, "no_entidade": "5130 IEI TECNOBABY", "municipio": "Porto Alegre", "tp_dependencia": 4, "tp_dependencia_label": "Privada", "ds_endereco": "R MARIA TRINDADE", "nu_endereco": 115, "ds_complemento": null, "no_bairro": "FARRAPOS", "co_cep": 90250275, "endereco_geocode": "R MARIA TRINDADE, 115, FARRAPOS, 90250275, Porto Alegre - RS", "qtd_mat_infantil": 104, "qtd_mat_fundamental": 0, "qtd_mat_medio": 0, "qtd_mat_profissional": 0, "qtd_mat_eja": 0, "qtd_mat_especial": 0, "qtd_mat_total": 104, "qtd_doc_total": 10, "qtd_prof_total": 7, "qtd_prof": 7, "qtd_doc": 10, "qtd_matri_inf": 104, "qtd_matri_fund": 0, "qtd_matri_med": 0, "qtd_matri_prof": 0, "qtd_matri_eja": 0, "qtd_matri_esp": 0}}, {"type": "Feature", "geometry": {"type": "Point", "coordinates": [-51.131991, -29.9836051]}, "properties": {"co_entidade": 43201342, "no_entidade": "ESCOLA DE EDUCACAO INFANTIL MORANGUINHO EREILI", "municipio": "Porto Alegre", "tp_dependencia": 4, "tp_dependencia_label": "Privada", "ds_endereco": "RUA REZENDE COSTA", "nu_endereco": 360, "ds_complemento": null, "no_bairro": "SARANDI", "co_cep": 91120280, "endereco_geocode": "RUA REZENDE COSTA, 360, SARANDI, 91120280, Porto Alegre - RS", "qtd_mat_infantil": 40, "qtd_mat_fundamental": 0, "qtd_mat_medio": 0, "qtd_mat_profissional": 0, "qtd_mat_eja": 0, "qtd_mat_especial": 1, "qtd_mat_total": 41, "qtd_doc_total": 4, "qtd_prof_total": 6, "qtd_prof": 6, "qtd_doc": 4, "qtd_matri_inf": 40, "qtd_matri_fund": 0, "qtd_matri_med": 0, "qtd_matri_prof": 0, "qtd_matri_eja": 0, "qtd_matri_esp": 1}}, {"type": "Feature", "geometry": {"type": "Point", "coordinates": [-51.1965344, -29.977494]}, "properties": {"co_entidade": 43208312, "no_entidade": "5134 ECEI MARISTA BOA MAE", "municipio": "Porto Alegre", "tp_dependencia": 4, "tp_dependencia_label": "Privada", "ds_endereco": "R SEISCENTOS NOVENTA OITO", "nu_endereco": 104, "ds_complemento": null, "no_bairro": "FARRAPOS", "co_cep": 90250596, "endereco_geocode": "R SEISCENTOS NOVENTA OITO, 104, FARRAPOS, 90250596, Porto Alegre - RS", "qtd_mat_infantil": 96, "qtd_mat_fundamental": 0, "qtd_mat_medio": 0, "qtd_mat_profissional": 0, "qtd_mat_eja": 0, "qtd_mat_especial": 9, "qtd_mat_total": 105, "qtd_doc_total": 6, "qtd_prof_total": 6, "qtd_prof": 6, "qtd_doc": 6, "qtd_matri_inf": 96, "qtd_matri_fund": 0, "qtd_matri_med": 0, "qtd_matri_prof": 0, "qtd_matri_eja": 0, "qtd_matri_esp": 9}}, {"type": "Feature", "geometry": {"type": "Point", "coordinates": [-51.1337567, -29.9813476]}, "properties": {"co_entidade": 43210996, "no_entidade": "EEI VIVENDO E APRENDENDO", "municipio": "Porto Alegre", "tp_dependencia": 4, "tp_dependencia_label": "Privada", "ds_endereco": "AVENIDA TOLEDO PIZA", "nu_endereco": 1107, "ds_complemento": null, "no_bairro": "SARANDI", "co_cep": 91120300, "endereco_geocode": "AVENIDA TOLEDO PIZA, 1107, SARANDI, 91120300, Porto Alegre - RS", "qtd_mat_infantil": 71, "qtd_mat_fundamental": 0, "qtd_mat_medio": 0, "qtd_mat_profissional": 0, "qtd_mat_eja": 0, "qtd_mat_especial": 3, "qtd_mat_total": 74, "qtd_doc_total": 6, "qtd_prof_total": 5, "qtd_prof": 5, "qtd_doc": 6, "qtd_matri_inf": 71, "qtd_matri_fund": 0, "qtd_matri_med": 0, "qtd_matri_prof": 0, "qtd_matri_eja": 0, "qtd_matri_esp": 3}}, {"type": "Feature", "geometry": {"type": "Point", "coordinates": [-51.1315926, -29.9794779]}, "properties": {"co_entidade": 43211348, "no_entidade": "5183 EEI FAVO DE MEL VILA ELIZABETH", "municipio": "Porto Alegre", "tp_dependencia": 4, "tp_dependencia_label": "Privada", "ds_endereco": "R VIDAL BARBOSA", "nu_endereco": 1075, "ds_complemento": null, "no_bairro": "SARANDI", "co_cep": 91120340, "endereco_geocode": "R VIDAL BARBOSA, 1075, SARANDI, 91120340, Porto Alegre - RS", "qtd_mat_infantil": 78, "qtd_mat_fundamental": 0, "qtd_mat_medio": 0, "qtd_mat_profissional": 0, "qtd_mat_eja": 0, "qtd_mat_especial": 1, "qtd_mat_total": 79, "qtd_doc_total": 6, "qtd_prof_total": 7, "qtd_prof": 7, "qtd_doc": 6, "qtd_matri_inf": 78, "qtd_matri_fund": 0, "qtd_matri_med": 0, "qtd_matri_prof": 0, "qtd_matri_eja": 0, "qtd_matri_esp": 1}}, {"type": "Feature", "geometry": {"type": "Point", "coordinates": [-51.1967658, -29.9869106]}, "properties": {"co_entidade": 43211399, "no_entidade": "5138 IEI BRINCANDO E APRENDENDO", "municipio": "Porto Alegre", "tp_dependencia": 4, "tp_dependencia_label": "Privada", "ds_endereco": "R MONSENHOR SEVERINO BRUN", "nu_endereco": 65, "ds_complemento": "065 LOT PROGRESSO", "no_bairro": "FARRAPOS", "co_cep": 90245308, "endereco_geocode": "R MONSENHOR SEVERINO BRUN, 65, FARRAPOS, 90245308, Porto Alegre - RS", "qtd_mat_infantil": 87, "qtd_mat_fundamental": 0, "qtd_mat_medio": 0, "qtd_mat_profissional": 0, "qtd_mat_eja": 0, "qtd_mat_especial": 3, "qtd_mat_total": 90, "qtd_doc_total": 7, "qtd_prof_total": 5, "qtd_prof": 5, "qtd_doc": 7, "qtd_matri_inf": 87, "qtd_matri_fund": 0, "qtd_matri_med": 0, "qtd_matri_prof": 0, "qtd_matri_eja": 0, "qtd_matri_esp": 3}}, {"type": "Feature", "geometry": {"type": "Point", "coordinates": [-51.1916446, -30.0016138]}, "properties": {"co_entidade": 43213952, "no_entidade": "EEI AMIGUINHOS DO PLANETA", "municipio": "Porto Alegre", "tp_dependencia": 4, "tp_dependencia_label": "Privada", "ds_endereco": "AVENIDA CEARA", "nu_endereco": 1640, "ds_complemento": null, "no_bairro": "SAO JOAO", "co_cep": 90240512, "endereco_geocode": "AVENIDA CEARA, 1640, SAO JOAO, 90240512, Porto Alegre - RS", "qtd_mat_infantil": 42, "qtd_mat_fundamental": 0, "qtd_mat_medio": 0, "qtd_mat_profissional": 0, "qtd_mat_eja": 0, "qtd_mat_especial": 1, "qtd_mat_total": 43, "qtd_doc_total": 4, "qtd_prof_total": 10, "qtd_prof": 10, "qtd_doc": 4, "qtd_matri_inf": 42, "qtd_matri_fund": 0, "qtd_matri_med": 0, "qtd_matri_prof": 0, "qtd_matri_eja": 0, "qtd_matri_esp": 1}}, {"type": "Feature", "geometry": {"type": "Point", "coordinates": [-51.1337567, -29.9813476]}, "properties": {"co_entidade": 43216277, "no_entidade": "ESCOLA DE EDUCACAO INFANTIL SOL DO SABER", "municipio": "Porto Alegre", "tp_dependencia": 4, "tp_dependencia_label": "Privada", "ds_endereco": "AVENIDA TOLEDO PIZA", "nu_endereco": 123, "ds_complemento": null, "no_bairro": "SARANDI", "co_cep": 91120300, "endereco_geocode": "AVENIDA TOLEDO PIZA, 123, SARANDI, 91120300, Porto Alegre - RS", "qtd_mat_infantil": 71, "qtd_mat_fundamental": 0, "qtd_mat_medio": 0, "qtd_mat_profissional": 0, "qtd_mat_eja": 0, "qtd_mat_especial": 2, "qtd_mat_total": 73, "qtd_doc_total": 5, "qtd_prof_total": 4, "qtd_prof": 4, "qtd_doc": 5, "qtd_matri_inf": 71, "qtd_matri_fund": 0, "qtd_matri_med": 0, "qtd_matri_prof": 0, "qtd_matri_eja": 0, "qtd_matri_esp": 2}}, {"type": "Feature", "geometry": {"type": "Point", "coordinates": [-51.2283056, -30.0379745]}, "properties": {"co_entidade": 43216579, "no_entidade": "CETER CENTRO DE EDUCACAO TECNOLOGICA REPUBLICA LTDA", "municipio": "Porto Alegre", "tp_dependencia": 4, "tp_dependencia_label": "Privada", "ds_endereco": "AVENIDA BORGES DE MEDEIROS", "nu_endereco": 308, "ds_complemento": 126, "no_bairro": "CENTRO HISTORICO", "co_cep": 90020020, "endereco_geocode": "AVENIDA BORGES DE MEDEIROS, 308, CENTRO HISTORICO, 90020020, Porto Alegre - RS", "qtd_mat_infantil": 0, "qtd_mat_fundamental": 0, "qtd_mat_medio": 0, "qtd_mat_profissional": 1144, "qtd_mat_eja": 0, "qtd_mat_especial": 1, "qtd_mat_total": 1145, "qtd_doc_total": 1, "qtd_prof_total": 6, "qtd_prof": 6, "qtd_doc": 1, "qtd_matri_inf": 0, "qtd_matri_fund": 0, "qtd_matri_med": 0, "qtd_matri_prof": 1144, "qtd_matri_eja": 0, "qtd_matri_esp": 1}}, {"type": "Feature", "geometry": {"type": "Point", "coordinates": [-51.183274, -29.9782823]}, "properties": {"co_entidade": 43219446, "no_entidade": "SENAT - SERVICO NACIONAL DE APRENDIZAGEM DO TRANSPORTE", "municipio": "Porto Alegre", "tp_dependencia": 4, "tp_dependencia_label": "Privada", "ds_endereco": "AVENIDA JOSE ALOISIO FILHO", "nu_endereco": 625, "ds_complemento": null, "no_bairro": "HUMAITA", "co_cep": 90250180, "endereco_geocode": "AVENIDA JOSE ALOISIO FILHO, 625, HUMAITA, 90250180, Porto Alegre - RS", "qtd_mat_infantil": 0, "qtd_mat_fundamental": 0, "qtd_mat_medio": 0, "qtd_mat_profissional": 287, "qtd_mat_eja": 0, "qtd_mat_especial": 2, "qtd_mat_total": 289, "qtd_doc_total": 5, "qtd_prof_total": 15, "qtd_prof": 15, "qtd_doc": 5, "qtd_matri_inf": 0, "qtd_matri_fund": 0, "qtd_matri_med": 0, "qtd_matri_prof": 287, "qtd_matri_eja": 0, "qtd_matri_esp": 2}}, {"type": "Feature", "geometry": {"type": "Point", "coordinates": [-51.2275965, -30.0476044]}, "properties": {"co_entidade": 43240410, "no_entidade": "5170 IEI INTEGRACAO DOS ANJOS", "municipio": "Porto Alegre", "tp_dependencia": 4, "tp_dependencia_label": "Privada", "ds_endereco": "AV IPIRANGA", "nu_endereco": 3780, "ds_complemento": 3858, "no_bairro": "PRAIA DE BELAS", "co_cep": 90160090, "endereco_geocode": "AV IPIRANGA, 3780, PRAIA DE BELAS, 90160090, Porto Alegre - RS", "qtd_mat_infantil": 162, "qtd_mat_fundamental": 0, "qtd_mat_medio": 0, "qtd_mat_profissional": 0, "qtd_mat_eja": 0, "qtd_mat_especial": 13, "qtd_mat_total": 175, "qtd_doc_total": 9, "qtd_prof_total": 7, "qtd_prof": 7, "qtd_doc": 9, "qtd_matri_inf": 162, "qtd_matri_fund": 0, "qtd_matri_med": 0, "qtd_matri_prof": 0, "qtd_matri_eja": 0, "qtd_matri_esp": 13}}, {"type": "Feature", "geometry": {"type": "Point", "coordinates": [-51.19877, -29.9890894]}, "properties": {"co_entidade": 43240429, "no_entidade": "5154 IEI MUNDO COLORIDO", "municipio": "Porto Alegre", "tp_dependencia": 4, "tp_dependencia_label": "Privada", "ds_endereco": "R DONA TEODORA", "nu_endereco": 984, "ds_complemento": "ALAMEDA 3 PREDIO 47", "no_bairro": "FARRAPOS", "co_cep": 90240300, "endereco_geocode": "R DONA TEODORA, 984, FARRAPOS, 90240300, Porto Alegre - RS", "qtd_mat_infantil": 79, "qtd_mat_fundamental": 0, "qtd_mat_medio": 0, "qtd_mat_profissional": 0, "qtd_mat_eja": 0, "qtd_mat_especial": 3, "qtd_mat_total": 82, "qtd_doc_total": 5, "qtd_prof_total": 6, "qtd_prof": 6, "qtd_doc": 5, "qtd_matri_inf": 79, "qtd_matri_fund": 0, "qtd_matri_med": 0, "qtd_matri_prof": 0, "qtd_matri_eja": 0, "qtd_matri_esp": 3}}, {"type": "Feature", "geometry": {"type": "Point", "coordinates": [-51.088534, -30.2406]}, "properties": {"co_entidade": 43241204, "no_entidade": "5202 EEI GIRASSOL LAMI", "municipio": "Porto Alegre", "tp_dependencia": 4, "tp_dependencia_label": "Privada", "ds_endereco": "R NOVA OLINDA", "nu_endereco": 203, "ds_complemento": null, "no_bairro": "LAMI", "co_cep": 91787640, "endereco_geocode": "R NOVA OLINDA, 203, LAMI, 91787640, Porto Alegre - RS", "qtd_mat_infantil": 58, "qtd_mat_fundamental": 0, "qtd_mat_medio": 0, "qtd_mat_profissional": 0, "qtd_mat_eja": 0, "qtd_mat_especial": 1, "qtd_mat_total": 59, "qtd_doc_total": 4, "qtd_prof_total": 4, "qtd_prof": 4, "qtd_doc": 4, "qtd_matri_inf": 58, "qtd_matri_fund": 0, "qtd_matri_med": 0, "qtd_matri_prof": 0, "qtd_matri_eja": 0, "qtd_matri_esp": 1}}, {"type": "Feature", "geometry": {"type": "Point", "coordinates": [-51.1645123, -29.9877962]}, "properties": {"co_entidade": 43259014, "no_entidade": "5167 EEI PADRE VALLE NOSSO SONHO II", "municipio": "Porto Alegre", "tp_dependencia": 4, "tp_dependencia_label": "Privada", "ds_endereco": "RUA BERNARDI", "nu_endereco": 61, "ds_complemento": null, "no_bairro": "CRISTO REDENTOR", "co_cep": 91040030, "endereco_geocode": "RUA BERNARDI, 61, CRISTO REDENTOR, 91040030, Porto Alegre - RS", "qtd_mat_infantil": 121, "qtd_mat_fundamental": 0, "qtd_mat_medio": 0, "qtd_mat_profissional": 0, "qtd_mat_eja": 0, "qtd_mat_especial": 4, "qtd_mat_total": 125, "qtd_doc_total": 8, "qtd_prof_total": 7, "qtd_prof": 7, "qtd_doc": 8, "qtd_matri_inf": 121, "qtd_matri_fund": 0, "qtd_matri_med": 0, "qtd_matri_prof": 0, "qtd_matri_eja": 0, "qtd_matri_esp": 4}}, {"type": "Feature", "geometry": {"type": "Point", "coordinates": [-51.2139139, -30.0171849]}, "properties": {"co_entidade": 43280005, "no_entidade": "EEI MARISTA MENINO JESUS", "municipio": "Porto Alegre", "tp_dependencia": 4, "tp_dependencia_label": "Privada", "ds_endereco": "R GARCA-MOURA", "nu_endereco": 100, "ds_complemento": null, "no_bairro": "FLORESTA", "co_cep": 90220330, "endereco_geocode": "R GARCA-MOURA, 100, FLORESTA, 90220330, Porto Alegre - RS", "qtd_mat_infantil": 96, "qtd_mat_fundamental": 0, "qtd_mat_medio": 0, "qtd_mat_profissional": 0, "qtd_mat_eja": 0, "qtd_mat_especial": 4, "qtd_mat_total": 100, "qtd_doc_total": 6, "qtd_prof_total": 12, "qtd_prof": 12, "qtd_doc": 6, "qtd_matri_inf": 96, "qtd_matri_fund": 0, "qtd_matri_med": 0, "qtd_matri_prof": 0, "qtd_matri_eja": 0, "qtd_matri_esp": 4}}, {"type": "Feature", "geometry": {"type": "Point", "coordinates": [-51.201345, -29.9994171]}, "properties": {"co_entidade": 43300189, "no_entidade": "ESC EDUC INF VIDA NOVA", "municipio": "Porto Alegre", "tp_dependencia": 4, "tp_dependencia_label": "Privada", "ds_endereco": "RUA SANTOS PEDROSO", "nu_endereco": 163, "ds_complemento": null, "no_bairro": "NAVEGANTES", "co_cep": 90240180, "endereco_geocode": "RUA SANTOS PEDROSO, 163, NAVEGANTES, 90240180, Porto Alegre - RS", "qtd_mat_infantil": 37, "qtd_mat_fundamental": 0, "qtd_mat_medio": 0, "qtd_mat_profissional": 0, "qtd_mat_eja": 0, "qtd_mat_especial": 1, "qtd_mat_total": 38, "qtd_doc_total": 5, "qtd_prof_total": 5, "qtd_prof": 5, "qtd_doc": 5, "qtd_matri_inf": 37, "qtd_matri_fund": 0, "qtd_matri_med": 0, "qtd_matri_prof": 0, "qtd_matri_eja": 0, "qtd_matri_esp": 1}}, {"type": "Feature", "geometry": {"type": "Point", "coordinates": [-51.11590405482032, -29.98116485]}, "properties": {"co_entidade": 43326080, "no_entidade": "CENTRO DE FORMACAO PROFISSIONAL SENAI PORTO ALEGRE", "municipio": "Porto Alegre", "tp_dependencia": 4, "tp_dependencia_label": "Privada", "ds_endereco": "AVENIDA ASSIS BRASIL", "nu_endereco": 8450, "ds_complemento": null, "no_bairro": "SARANDI", "co_cep": 91140000, "endereco_geocode": "AVENIDA ASSIS BRASIL, 8450, SARANDI, 91140000, Porto Alegre - RS", "qtd_mat_infantil": 0, "qtd_mat_fundamental": 0, "qtd_mat_medio": 0, "qtd_mat_profissional": 442, "qtd_mat_eja": 0, "qtd_mat_especial": 7, "qtd_mat_total": 449, "qtd_doc_total": 12, "qtd_prof_total": 28, "qtd_prof": 28, "qtd_doc": 12, "qtd_matri_inf": 0, "qtd_matri_fund": 0, "qtd_matri_med": 0, "qtd_matri_prof": 442, "qtd_matri_eja": 0, "qtd_matri_esp": 7}}, {"type": "Feature", "geometry": {"type": "Point", "coordinates": [-51.2420316, -29.9870613]}, "properties": {"co_entidade": 43367356, "no_entidade": "5195 IEI ANJO DAS FLORES", "municipio": "Porto Alegre", "tp_dependencia": 4, "tp_dependencia_label": "Privada", "ds_endereco": "R PESCADOR", "nu_endereco": 400, "ds_complemento": null, "no_bairro": "ARQUIPELAGO", "co_cep": 90090170, "endereco_geocode": "R PESCADOR, 400, ARQUIPELAGO, 90090170, Porto Alegre - RS", "qtd_mat_infantil": 81, "qtd_mat_fundamental": 0, "qtd_mat_medio": 0, "qtd_mat_profissional": 0, "qtd_mat_eja": 0, "qtd_mat_especial": 6, "qtd_mat_total": 87, "qtd_doc_total": 12, "qtd_prof_total": 7, "qtd_prof": 7, "qtd_doc": 12, "qtd_matri_inf": 81, "qtd_matri_fund": 0, "qtd_matri_med": 0, "qtd_matri_prof": 0, "qtd_matri_eja": 0, "qtd_matri_esp": 6}}]}