{"type": "FeatureCollection", "features": [{"type": "Feature", "geometry": {"type": "Point", "coordinates": [-51.1996521, -29.9826418]}, "properties": {"co_entidade": 43004610, "no_entidade": "5207 EEI IRMAO MARIO FRIGO", "municipio": "Porto Alegre", "tp_dependencia": 4, "tp_dependencia_label": "Privada", "ds_endereco": "R MARIA PAULA LEAL", "nu_endereco": 200, "ds_complemento": null, "no_bairro": "FARRAPOS", "co_cep": 90250617, "endereco_geocode": "R MARIA PAULA LEAL, 200, FARRAPOS, 90250617, Porto Alegre - RS", "qtd_mat_infantil": 99, "qtd_mat_fundamental": 0, "qtd_mat_medio": 0, "qtd_mat_profissional": 0, "qtd_mat_eja": 0, "qtd_mat_especial": 5, "qtd_mat_total": 104, "qtd_doc_total": 10, "qtd_prof_total": 7, "qtd_prof": 7, "qtd_doc": 10, "qtd_matri_inf": 99, "qtd_matri_fund": 0, "qtd_matri_med": 0, "qtd_matri_prof": 0, "qtd_matri_eja": 0, "qtd_matri_esp": 5}}, {"type": "Feature", "geometry": {"type": "Point", "coordinates": [-51.2078223, -29.9976705]}, "properties": {"co_entidade": 43047670, "no_entidade": "5230 EEI ABRASCE ILHA DO PAVAO", "municipio": "Porto Alegre", "tp_dependencia": 4, "tp_dependencia_label": "Privada", "ds_endereco": "BR 290", "nu_endereco": 98, "ds_complemento": null, "no_bairro": "ARQUIPELAGO", "co_cep": 90090004, "endereco_geocode": "BR 290, 98, ARQUIPELAGO, 90090004, Porto Alegre - RS", "qtd_mat_infantil": 47, "qtd_mat_fundamental": 0, "qtd_mat_medio": 0, "qtd_mat_profissional": 0, "qtd_mat_eja": 0, "qtd_mat_especial": 0, "qtd_mat_total": 47, "qtd_doc_total": 5, "qtd_prof_total": 5, "qtd_prof": 5, "qtd_doc": 5, "qtd_matri_inf": 47, "qtd_matri_fund": 0, "qtd_matri_med": 0, "qtd_matri_prof": 0, "qtd_matri_eja": 0, "qtd_matri_esp": 0}}, {"type": "Feature", "geometry": {"type": "Point", "coordinates": [-51.1249664, -29.9822457]}, "properties": {"co_entidade": 43048196, "no_entidade": "EMEI MIGUEL GRANATO VELASQUEZ", "municipio": "Porto Alegre", "tp_dependencia": 3, "tp_dependencia_label": "Municipal", "ds_endereco": "R ARMANDO COSTA", "nu_endereco": 0, "ds_complemento": "LOTEAMENTO BONANZA", "no_bairro": "SARANDI", "co_cep": 91120450, "endereco_geocode": "R ARMANDO COSTA, 0, SARANDI, 91120450, Porto Alegre - RS", "qtd_mat_infantil": 134, "qtd_mat_fundamental": 0, "qtd_mat_medio": 0, "qtd_mat_profissional": 0, "qtd_mat_eja": 0, "qtd_mat_especial": 6, "qtd_mat_total": 140, "qtd_doc_total": 10, "qtd_prof_total": 17, "qtd_prof": 17, "qtd_doc": 10, "qtd_matri_inf": 134, "qtd_matri_fund": 0, "qtd_matri_med": 0, "qtd_matri_prof": 0, "qtd_matri_eja": 0, "qtd_matri_esp": 6}}, {"type": "Feature", "geometry": {"type": "Point", "coordinates": [-51.1954337, -29.9903195]}, "properties": {"co_entidade": 43089194, "no_entidade": "5240 EEI JARDIM FLORESTA LAMI", "municipio": "Porto Alegre", "tp_dependencia": 4, "tp_dependencia_label": "Privada", "ds_endereco": "RUA E", "nu_endereco": 115, "ds_complemento": null, "no_bairro": "LAMI", "co_cep": 91787516, "endereco_geocode": "RUA E, 115, LAMI, 91787516, Porto Alegre - RS", "qtd_mat_infantil": 110, "qtd_mat_fundamental": 0, "qtd_mat_medio": 0, "qtd_mat_profissional": 0, "qtd_mat_eja": 0, "qtd_mat_especial": 7, "qtd_mat_total": 117, "qtd_doc_total": 6, "qtd_prof_total": 11, "qtd_prof": 11, "qtd_doc": 6, "qtd_matri_inf": 110, "qtd_matri_fund": 0, "qtd_matri_med": 0, "qtd_matri_prof": 0, "qtd_matri_eja": 0, "qtd_matri_esp": 7}}, {"type": "Feature", "geometry": {"type": "Point", "coordinates": [-51.25958256727911, -30.01396695]}, "properties": {"co_entidade": 43105815, "no_entidade": "ESC EST ENS MED ALMIRANTE BARROSO", "municipio": "Porto Alegre", "tp_dependencia": 2, "tp_dependencia_label": "Estadual", "ds_endereco": "R CAPITAO COELHO 95", "nu_endereco": 95, "ds_complemento": null, "no_bairro": "ARQUIPELAGO", "co_cep": 90090040, "endereco_geocode": "R CAPITAO COELHO 95, 95, ARQUIPELAGO, 90090040, Porto Alegre - RS", "qtd_mat_infantil": 0, "qtd_mat_fundamental": 307, "qtd_mat_medio": 174, "qtd_mat_profissional": 0, "qtd_mat_eja": 0, "qtd_mat_especial": 53, "qtd_mat_total": 534, "qtd_doc_total": 25, "qtd_prof_total": 15, "qtd_prof": 15, "qtd_doc": 25, "qtd_matri_inf": 0, "qtd_matri_fund": 307, "qtd_matri_med": 174, "qtd_matri_prof": 0, "qtd_matri_eja": 0, "qtd_matri_esp": 53}}, {"type": "Feature", "geometry": {"type": "Point", "coordinates": [-51.2251876, -29.9917365]}, "properties": {"co_entidade": 43105823, "no_entidade": "ESC EST ENS FUN ALVARENGA PEIXOTO", "municipio": "Porto Alegre", "tp_dependencia": 2, "tp_dependencia_label": "Estadual", "ds_endereco": "R SANTA RITA DE CASSIA 100", "nu_endereco": 100, "ds_complemento": null, "no_bairro": "ILHA DOS MARINHEIROS", "co_cep": 90090260, "endereco_geocode": "R SANTA RITA DE CASSIA 100, 100, ILHA DOS MARINHEIROS, 90090260, Porto Alegre - RS", "qtd_mat_infantil": 0, "qtd_mat_fundamental": 228, "qtd_mat_medio": 0, "qtd_mat_profissional": 0, "qtd_mat_eja": 65, "qtd_mat_especial": 18, "qtd_mat_total": 311, "qtd_doc_total": 22, "qtd_prof_total": 12, "qtd_prof": 12, "qtd_doc": 22, "qtd_matri_inf": 0, "qtd_matri_fund": 228, "qtd_matri_med": 0, "qtd_matri_prof": 0, "qtd_matri_eja": 65, "qtd_matri_esp": 18}}, {"type": "Feature", "geometry": {"type": "Point", "coordinates": [-51.19819538373909, -29.99365225]}, "properties": {"co_entidade": 43106030, "no_entidade": "ESC EST ENS FUN DR CARLOS BARBOSA GONCALVES", "municipio": "Porto Alegre", "tp_dependencia": 2, "tp_dependencia_label": "Estadual", "ds_endereco": "TRV DR HEINZELMANN 250", "nu_endereco": 250, "ds_complemento": null, "no_bairro": "NAVEGANTES", "co_cep": 90240100, "endereco_geocode": "TRV DR HEINZELMANN 250, 250, NAVEGANTES, 90240100, Porto Alegre - RS", "qtd_mat_infantil": 0, "qtd_mat_fundamental": 220, "qtd_mat_medio": 0, "qtd_mat_profissional": 0, "qtd_mat_eja": 0, "qtd_mat_especial": 5, "qtd_mat_total": 225, "qtd_doc_total": 14, "qtd_prof_total": 7, "qtd_prof": 7, "qtd_doc": 14, "qtd_matri_inf": 0, "qtd_matri_fund": 220, "qtd_matri_med": 0, "qtd_matri_prof": 0, "qtd_matri_eja": 0, "qtd_matri_esp": 5}}, {"type": "Feature", "geometry": {"type": "Point", "coordinates": [-51.19304782131003, -29.9801133]}, "properties": {"co_entidade": 43106048, "no_entidade": "COL ESTADUAL CARLOS FAGUNDES DE MELLO", "municipio": "Porto Alegre", "tp_dependencia": 2, "tp_dependencia_label": "Estadual", "ds_endereco": "R IRMA MARIA JOSE TREVISAN 200", "nu_endereco": 200, "ds_complemento": null, "no_bairro": "NAVEGANTES VILA FAR", "co_cep": 90250430, "endereco_geocode": "R IRMA MARIA JOSE TREVISAN 200, 200, NAVEGANTES VILA FAR, 90250430, Porto Alegre - RS", "qtd_mat_infantil": 0, "qtd_mat_fundamental": 590, "qtd_mat_medio": 184, "qtd_mat_profissional": 0, "qtd_mat_eja": 119, "qtd_mat_especial": 29, "qtd_mat_total": 922, "qtd_doc_total": 40, "qtd_prof_total": 13, "qtd_prof": 13, "qtd_doc": 40, "qtd_matri_inf": 0, "qtd_matri_fund": 590, "qtd_matri_med": 184, "qtd_matri_prof": 0, "qtd_matri_eja": 119, "qtd_matri_esp": 29}}, {"type": "Feature", "geometry": {"type": "Point", "coordinates": [-51.19568643316132, -29.9796076]}, "properties": {"co_entidade": 43107826, "no_entidade": "ESC EST ENS FUN OSWALDO VERGARA", "municipio": "Porto Alegre", "tp_dependencia": 2, "tp_dependencia_label": "Estadual", "ds_endereco": "R GRACIANO CAMOZZATO 101", "nu_endereco": 101, "ds_complemento": null, "no_bairro": "FARRAPOS", "co_cep": 90250390, "endereco_geocode": "R GRACIANO CAMOZZATO 101, 101, FARRAPOS, 90250390, Porto Alegre - RS", "qtd_mat_infantil": 0, "qtd_mat_fundamental": 407, "qtd_mat_medio": 0, "qtd_mat_profissional": 0, "qtd_mat_eja": 0, "qtd_mat_especial": 5, "qtd_mat_total": 412, "qtd_doc_total": 18, "qtd_prof_total": 7, "qtd_prof": 7, "qtd_doc": 18, "qtd_matri_inf": 0, "qtd_matri_fund": 407, "qtd_matri_med": 0, "qtd_matri_prof": 0, "qtd_matri_eja": 0, "qtd_matri_esp": 5}}, {"type": "Feature", "geometry": {"type": "Point", "coordinates": [-51.192733676866695, -29.99340845]}, "properties": {"co_entidade": 43108245, "no_entidade": "ESC EST ENS FUN LIONS CLUB POA FARRAPOS", "municipio": "Porto Alegre", "tp_dependencia": 2, "tp_dependencia_label": "Estadual", "ds_endereco": "R DONA TEODORA 1156", "nu_endereco": 1156, "ds_complemento": null, "no_bairro": "HUMAITA", "co_cep": 90240300, "endereco_geocode": "R DONA TEODORA 1156, 1156, HUMAITA, 90240300, Porto Alegre - RS", "qtd_mat_infantil": 0, "qtd_mat_fundamental": 180, "qtd_mat_medio": 0, "qtd_mat_profissional": 0, "qtd_mat_eja": 0, "qtd_mat_especial": 5, "qtd_mat_total": 185, "qtd_doc_total": 15, "qtd_prof_total": 8, "qtd_prof": 8, "qtd_doc": 15, "qtd_matri_inf": 0, "qtd_matri_fund": 180, "qtd_matri_med": 0, "qtd_matri_prof": 0, "qtd_matri_eja": 0, "qtd_matri_esp": 5}}, {"type": "Feature", "geometry": {"type": "Point", "coordinates": [-51.126487135422906, -29.97902515]}, "properties": {"co_entidade": 43108563, "no_entidade": "EMEF PRES JOAO BELCHIOR MARQUES GOULART", "municipio": "Porto Alegre", "tp_dependencia": 3, "tp_dependencia_label": "Municipal", "ds_endereco": "R JOAO LUIZ PUFAL", "nu_endereco": 100, "ds_complemento": "VILA ELIZABETH", "no_bairro": "SARANDI", "co_cep": 91120530, "endereco_geocode": "R JOAO LUIZ PUFAL, 100, SARANDI, 91120530, Porto Alegre - RS", "qtd_mat_infantil": 67, "qtd_mat_fundamental": 590, "qtd_mat_medio": 0, "qtd_mat_profissional": 0, "qtd_mat_eja": 0, "qtd_mat_especial": 64, "qtd_mat_total": 721, "qtd_doc_total": 41, "qtd_prof_total": 34, "qtd_prof": 34, "qtd_doc": 41, "qtd_matri_inf": 67, "qtd_matri_fund": 590, "qtd_matri_med": 0, "qtd_matri_prof": 0, "qtd_matri_eja": 0, "qtd_matri_esp": 64}}, {"type": "Feature", "geometry": {"type": "Point", "coordinates": [-51.1878863, -29.9802321]}, "properties": {"co_entidade": 43109179, "no_entidade": "ESC EST ENS FUN JOSE GARIBALDI", "municipio": "Porto Alegre", "tp_dependencia": 2, "tp_dependencia_label": "Estadual", "ds_endereco": "R DR CAIO BRANDAO DE MELLO 300 PREDIO", "nu_endereco": 300, "ds_complemento": "PREDIO", "no_bairro": "PARQUE HUMAITA", "co_cep": 90250110, "endereco_geocode": "R DR CAIO BRANDAO DE MELLO 300 PREDIO, 300, PARQUE HUMAITA, 90250110, Porto Alegre - RS", "qtd_mat_infantil": 0, "qtd_mat_fundamental": 293, "qtd_mat_medio": 0, "qtd_mat_profissional": 0, "qtd_mat_eja": 0, "qtd_mat_especial": 11, "qtd_mat_total": 304, "qtd_doc_total": 18, "qtd_prof_total": 5, "qtd_prof": 5, "qtd_doc": 18, "qtd_matri_inf": 0, "qtd_matri_fund": 293, "qtd_matri_med": 0, "qtd_matri_prof": 0, "qtd_matri_eja": 0, "qtd_matri_esp": 11}}, {"type": "Feature", "geometry": {"type": "Point", "coordinates": [-51.12726354501568, -29.98007325]}, "properties": {"co_entidade": 43173624, "no_entidade": "EMEI DA VILA ELIZABETH", "municipio": "Porto Alegre", "tp_dependencia": 3, "tp_dependencia_label": "Municipal", "ds_endereco": "R PAULO GOMES DE OLIVEIRA", "nu_endereco": 120, "ds_complemento": "VILA ELIZABETH", "no_bairro": "SARANDI", "co_cep": 91120570, "endereco_geocode": "R PAULO GOMES DE OLIVEIRA, 120, SARANDI, 91120570, Porto Alegre - RS", "qtd_mat_infantil": 93, "qtd_mat_fundamental": 0, "qtd_mat_medio": 0, "qtd_mat_profissional": 0, "qtd_mat_eja": 0, "qtd_mat_especial": 5, "qtd_mat_total": 98, "qtd_doc_total": 16, "qtd_prof_total": 5, "qtd_prof": 5, "qtd_doc": 16, "qtd_matri_inf": 93, "qtd_matri_fund": 0, "qtd_matri_med": 0, "qtd_matri_prof": 0, "qtd_matri_eja": 0, "qtd_matri_esp": 5}}, {"type": "Feature", "geometry": {"type": "Point", "coordinates": [-51.184506355755246, -29.9831436]}, "properties": {"co_entidade": 43182259, "no_entidade": "ESC EDUC PROF MAN AERON OTTO E MEYER", "municipio": "Porto Alegre", "tp_dependencia": 4, "tp_dependencia_label": "Privada", "ds_endereco": "AV. JOSE ALOISIO FILHO", "nu_endereco": 695, "ds_complemento": null, "no_bairro": "HUMAITA", "co_cep": 91030270, "endereco_geocode": "AV. JOSE ALOISIO FILHO, 695, HUMAITA, 91030270, Porto Alegre - RS", "qtd_mat_infantil": 0, "qtd_mat_fundamental": 0, "qtd_mat_medio": 0, "qtd_mat_profissional": 23, "qtd_mat_eja": 0, "qtd_mat_especial": 0, "qtd_mat_total": 23, "qtd_doc_total": 2, "qtd_prof_total": 4, "qtd_prof": 4, "qtd_doc": 2, "qtd_matri_inf": 0, "qtd_matri_fund": 0, "qtd_matri_med": 0, "qtd_matri_prof": 23, "qtd_matri_eja": 0, "qtd_matri_esp": 0}}, {"type": "Feature", "geometry": {"type": "Point", "coordinates": [-51.1937107, -29.9803337]}, "properties": {"co_entidade": 43185410, "no_entidade": "5013 IEI SANTA LUIZA", "municipio": "Porto Alegre", "tp_dependencia": 4, "tp_dependencia_label": "Privada", "ds_endereco": "R IRMA MARIA JOSE TREVISAN", "nu_endereco": 30, "ds_complemento": null, "no_bairro": "FARRAPOS", "co_cep": 90250430, "endereco_geocode": "R IRMA MARIA JOSE TREVISAN, 30, FARRAPOS, 90250430, Porto Alegre - RS", "qtd_mat_infantil": 194, "qtd_mat_fundamental": 0, "qtd_mat_medio": 0, "qtd_mat_profissional": 0, "qtd_mat_eja": 0, "qtd_mat_especial": 2, "qtd_mat_total": 196, "qtd_doc_total": 14, "qtd_prof_total": 11, "qtd_prof": 11, "qtd_doc": 14, "qtd_matri_inf": 194, "qtd_matri_fund": 0, "qtd_matri_med": 0, "qtd_matri_prof": 0, "qtd_matri_eja": 0, "qtd_matri_esp": 2}}, {"type": "Feature", "geometry": {"type": "Point", "coordinates": [-51.1368687, -29.9789137]}, "properties": {"co_entidade": 43188141, "no_entidade": "5009 IEI SANTA CATARINA", "municipio": "Porto Alegre", "tp_dependencia": 4, "tp_dependencia_label": "Privada", "ds_endereco": "R JOSUE DE CASTRO", "nu_endereco": 290, "ds_complemento": null, "no_bairro": "SARANDI", "co_cep": 91120110, "endereco_geocode": "R JOSUE DE CASTRO, 290, SARANDI, 91120110, Porto Alegre - RS", "qtd_mat_infantil": 87, "qtd_mat_fundamental": 0, "qtd_mat_medio": 0, "qtd_mat_profissional": 0, "qtd_mat_eja": 0, "qtd_mat_especial": 2, "qtd_mat_total": 89, "qtd_doc_total": 5, "qtd_prof_total": 6, "qtd_prof": 6, "qtd_doc": 5, "qtd_matri_inf": 87, "qtd_matri_fund": 0, "qtd_matri_med": 0, "qtd_matri_prof": 0, "qtd_matri_eja": 0, "qtd_matri_esp": 2}}, {"type": "Feature", "geometry": {"type": "Point", "coordinates": [-51.2375993, -30.0953517]}, "properties": {"co_entidade": 43188206, "no_entidade": "5083 EEI CASA DE NAZARE CENTRO DE APOIO AO MENOR", "municipio": "Porto Alegre", "tp_dependencia": 4, "tp_dependencia_label": "Privada", "ds_endereco": "R CEL TIMOTEO", "nu_endereco": 350, "ds_complemento": null, "no_bairro": "CRISTAL", "co_cep": 91910680, "endereco_geocode": "R CEL TIMOTEO, 350, CRISTAL, 91910680, Porto Alegre - RS", "qtd_mat_infantil": 106, "qtd_mat_fundamental": 0, "qtd_mat_medio": 0, "qtd_mat_profissional": 0, "qtd_mat_eja": 0, "qtd_mat_especial": 3, "qtd_mat_total": 109, "qtd_doc_total": 6, "qtd_prof_total": 12, "qtd_prof": 12, "qtd_doc": 6, "qtd_matri_inf": 106, "qtd_matri_fund": 0, "qtd_matri_med": 0, "qtd_matri_prof": 0, "qtd_matri_eja": 0, "qtd_matri_esp": 3}}, {"type": "Feature", "geometry": {"type": "Point", "coordinates": [-51.1703829, -29.9778922]}, "properties": {"co_entidade": 43189032, "no_entidade": "5036 EEI MUNDO CRIANCA", "municipio": "Porto Alegre", "tp_dependencia": 4, "tp_dependencia_label": "Privada", "ds_endereco": "RUA 4", "nu_endereco": 62, "ds_complemento": null, "no_bairro": "MORRO SANTANA", "co_cep": 91450430, "endereco_geocode": "RUA 4, 62, MORRO SANTANA, 91450430, Porto Alegre - RS", "qtd_mat_infantil": 92, "qtd_mat_fundamental": 0, "qtd_mat_medio": 0, "qtd_mat_profissional": 0, "qtd_mat_eja": 0, "qtd_mat_especial": 2, "qtd_mat_total": 94, "qtd_doc_total": 7, "qtd_prof_total": 6, "qtd_prof": 6, "qtd_doc": 7, "qtd_matri_inf": 92, "qtd_matri_fund": 0, "qtd_matri_med": 0, "qtd_matri_prof": 0, "qtd_matri_eja": 0, "qtd_matri_esp": 2}}, {"type": "Feature", "geometry": {"type": "Point", "coordinates": [-51.1997273, -29.9887386]}, "properties": {"co_entidade": 43190456, "no_entidade": "5002 IEI JOAO PAULO II", "municipio": "Porto Alegre", "tp_dependencia": 4, "tp_dependencia_label": "Privada", "ds_endereco": "R FREDERICO MENTZ", "nu_endereco": 118, "ds_complemento": null, "no_bairro": "FARRAPOS", "co_cep": 90250370, "endereco_geocode": "R FREDERICO MENTZ, 118, FARRAPOS, 90250370, Porto Alegre - RS", "qtd_mat_infantil": 98, "qtd_mat_fundamental": 0, "qtd_mat_medio": 0, "qtd_mat_profissional": 0, "qtd_mat_eja": 0, "qtd_mat_especial": 4, "qtd_mat_total": 102, "qtd_doc_total": 6, "qtd_prof_total": 9, "qtd_prof": 9, "qtd_doc": 6, "qtd_matri_inf": 98, "qtd_matri_fund": 0, "qtd_matri_med": 0, "qtd_matri_prof": 0, "qtd_matri_eja": 0, "qtd_matri_esp": 4}}, {"type": "Feature", "geometry": {"type": "Point", "coordinates": [-51.19877, -29.9890894]}, "properties": {"co_entidade": 43190685, "no_entidade": "5012 ECEI UMBERTO NEGRINI", "municipio": "Porto Alegre", "tp_dependencia": 4, "tp_dependencia_label": "Privada", "ds_endereco": "R DONA TEODORA", "nu_endereco": 160, "ds_complemento": null, "no_bairro": "FARRAPOS", "co_cep": 90240300, "endereco_geocode": "R DONA TEODORA, 160, FARRAPOS, 90240300, Porto Alegre - RS", "qtd_mat_infantil": 99, "qtd_mat_fundamental": 0, "qtd_mat_medio": 0, "qtd_mat_profissional": 0, "qtd_mat_eja": 0, "qtd_mat_especial": 2, "qtd_mat_total": 101, "qtd_doc_total": 7, "qtd_prof_total": 7, "qtd_prof": 7, "qtd_doc": 7, "qtd_matri_inf": 99, "qtd_matri_fund": 0, "qtd_matri_med": 0, "qtd_matri_prof": 0, "qtd_matri_eja": 0, "qtd_matri_esp": 2}}, {"type": "Feature", "geometry": {"type": "Point", "coordinates": [-51.1979535, -29.97973]}, "properties": {"co_entidade": 43201288, "no_entidade": "5130 IEI TECNOBABY", "municipio": "Porto Alegre", "tp_dependencia": 4, "tp_dependencia_label": "Privada", "ds_endereco": "R MARIA TRINDADE", "nu_endereco": 115, "ds_complemento": null, "no_bairro": "FARRAPOS", "co_cep": 90250275, "endereco_geocode": "R MARIA TRINDADE, 115, FARRAPOS, 90250275, Porto Alegre - RS", "qtd_mat_infantil": 104, "qtd_mat_fundamental": 0, "qtd_mat_medio": 0, "qtd_mat_profissional": 0, "qtd_mat_eja": 0, "qtd_mat_especial": 0, "qtd_mat_total": 104, "qtd_doc_total": 10, "qtd_prof_total": 7, "qtd_prof": 7, "qtd_doc": 10, "qtd_matri_inf": 104, "qtd_matri_fund": 0, "qtd_matri_med": 0, "qtd_matri_prof": 0, "qtd_matri_eja": 0, "qtd_matri_esp": 0}}, {"type": "Feature", "geometry": {"type": "Point", "coordinates": [-51.1965344, -29.977494]}, "properties": {"co_entidade": 43208312, "no_entidade": "5134 ECEI MARISTA BOA MAE", "municipio": "Porto Alegre", "tp_dependencia": 4, "tp_dependencia_label": "Privada", "ds_endereco": "R SEISCENTOS NOVENTA OITO", "nu_endereco": 104, "ds_complemento": null, "no_bairro": "FARRAPOS", "co_cep": 90250596, "endereco_geocode": "R SEISCENTOS NOVENTA OITO, 104, FARRAPOS, 90250596, Porto Alegre - RS", "qtd_mat_infantil": 96, "qtd_mat_fundamental": 0, "qtd_mat_medio": 0, "qtd_mat_profissional": 0, "qtd_mat_eja": 0, "qtd_mat_especial": 9, "qtd_mat_total": 105, "qtd_doc_total": 6, "qtd_prof_total": 6, "qtd_prof": 6, "qtd_doc": 6, "qtd_matri_inf": 96, "qtd_matri_fund": 0, "qtd_matri_med": 0, "qtd_matri_prof": 0, "qtd_matri_eja": 0, "qtd_matri_esp": 9}}, {"type": "Feature", "geometry": {"type": "Point", "coordinates": [-51.1315926, -29.9794779]}, "properties": {"co_entidade": 43211348, "no_entidade": "5183 EEI FAVO DE MEL VILA ELIZABETH", "municipio": "Porto Alegre", "tp_dependencia": 4, "tp_dependencia_label": "Privada", "ds_endereco": "R VIDAL BARBOSA", "nu_endereco": 1075, "ds_complemento": null, "no_bairro": "SARANDI", "co_cep": 91120340, "endereco_geocode": "R VIDAL BARBOSA, 1075, SARANDI, 91120340, Porto Alegre - RS", "qtd_mat_infantil": 78, "qtd_mat_fundamental": 0, "qtd_mat_medio": 0, "qtd_mat_profissional": 0, "qtd_mat_eja": 0, "qtd_mat_especial": 1, "qtd_mat_total": 79, "qtd_doc_total": 6, "qtd_prof_total": 7, "qtd_prof": 7, "qtd_doc": 6, "qtd_matri_inf": 78, "qtd_matri_fund": 0, "qtd_matri_med": 0, "qtd_matri_prof": 0, "qtd_matri_eja": 0, "qtd_matri_esp": 1}}, {"type": "Feature", "geometry": {"type": "Point", "coordinates": [-51.1967658, -29.9869106]}, "properties": {"co_entidade": 43211399, "no_entidade": "5138 IEI BRINCANDO E APRENDENDO", "municipio": "Porto Alegre", "tp_dependencia": 4, "tp_dependencia_label": "Privada", "ds_endereco": "R MONSENHOR SEVERINO BRUN", "nu_endereco": 65, "ds_complemento": "065 LOT PROGRESSO", "no_bairro": "FARRAPOS", "co_cep": 90245308, "endereco_geocode": "R MONSENHOR SEVERINO BRUN, 65, FARRAPOS, 90245308, Porto Alegre - RS", "qtd_mat_infantil": 87, "qtd_mat_fundamental": 0, "qtd_mat_medio": 0, "qtd_mat_profissional": 0, "qtd_mat_eja": 0, "qtd_mat_especial": 3, "qtd_mat_total": 90, "qtd_doc_total": 7, "qtd_prof_total": 5, "qtd_prof": 5, "qtd_doc": 7, "qtd_matri_inf": 87, "qtd_matri_fund": 0, "qtd_matri_med": 0, "qtd_matri_prof": 0, "qtd_matri_eja": 0, "qtd_matri_esp": 3}}, {"type": "Feature", "geometry": {"type": "Point", "coordinates": [-51.183274, -29.9782823]}, "properties": {"co_entidade": 43219446, "no_entidade": "SENAT - SERVICO NACIONAL DE APRENDIZAGEM DO TRANSPORTE", "municipio": "Porto Alegre", "tp_dependencia": 4, "tp_dependencia_label": "Privada", "ds_endereco": "AVENIDA JOSE ALOISIO FILHO", "nu_endereco": 625, "ds_complemento": null, "no_bairro": "HUMAITA", "co_cep": 90250180, "endereco_geocode": "AVENIDA JOSE ALOISIO FILHO, 625, HUMAITA, 90250180, Porto Alegre - RS", "qtd_mat_infantil": 0, "qtd_mat_fundamental": 0, "qtd_mat_medio": 0, "qtd_mat_profissional": 287, "qtd_mat_eja": 0, "qtd_mat_especial": 2, "qtd_mat_total": 289, "qtd_doc_total": 5, "qtd_prof_total": 15, "qtd_prof": 15, "qtd_doc": 5, "qtd_matri_inf": 0, "qtd_matri_fund": 0, "qtd_matri_med": 0, "qtd_matri_prof": 287, "qtd_matri_eja": 0, "qtd_matri_esp": 2}}, {"type": "Feature", "geometry": {"type": "Point", "coordinates": [-51.19877, -29.9890894]}, "properties": {"co_entidade": 43240429, "no_entidade": "5154 IEI MUNDO COLORIDO", "municipio": "Porto Alegre", "tp_dependencia": 4, "tp_dependencia_label": "Privada", "ds_endereco": "R DONA TEODORA", "nu_endereco": 984, "ds_complemento": "ALAMEDA 3 PREDIO 47", "no_bairro": "FARRAPOS", "co_cep": 90240300, "endereco_geocode": "R DONA TEODORA, 984, FARRAPOS, 90240300, Porto Alegre - RS", "qtd_mat_infantil": 79, "qtd_mat_fundamental": 0, "qtd_mat_medio": 0, "qtd_mat_profissional": 0, "qtd_mat_eja": 0, "qtd_mat_especial": 3, "qtd_mat_total": 82, "qtd_doc_total": 5, "qtd_prof_total": 6, "qtd_prof": 6, "qtd_doc": 5, "qtd_matri_inf": 79, "qtd_matri_fund": 0, "qtd_matri_med": 0, "qtd_matri_prof": 0, "qtd_matri_eja": 0, "qtd_matri_esp": 3}}, {"type": "Feature", "geometry": {"type": "Point", "coordinates": [-51.088534, -30.2406]}, "properties": {"co_entidade": 43241204, "no_entidade": "5202 EEI GIRASSOL LAMI", "municipio": "Porto Alegre", "tp_dependencia": 4, "tp_dependencia_label": "Privada", "ds_endereco": "R NOVA OLINDA", "nu_endereco": 203, "ds_complemento": null, "no_bairro": "LAMI", "co_cep": 91787640, "endereco_geocode": "R NOVA OLINDA, 203, LAMI, 91787640, Porto Alegre - RS", "qtd_mat_infantil": 58, "qtd_mat_fundamental": 0, "qtd_mat_medio": 0, "qtd_mat_profissional": 0, "qtd_mat_eja": 0, "qtd_mat_especial": 1, "qtd_mat_total": 59, "qtd_doc_total": 4, "qtd_prof_total": 4, "qtd_prof": 4, "qtd_doc": 4, "qtd_matri_inf": 58, "qtd_matri_fund": 0, "qtd_matri_med": 0, "qtd_matri_prof": 0, "qtd_matri_eja": 0, "qtd_matri_esp": 1}}, {"type": "Feature", "geometry": {"type": "Point", "coordinates": [-51.1645123, -29.9877962]}, "properties": {"co_entidade": 43259014, "no_entidade": "5167 EEI PADRE VALLE NOSSO SONHO II", "municipio": "Porto Alegre", "tp_dependencia": 4, "tp_dependencia_label": "Privada", "ds_endereco": "RUA BERNARDI", "nu_endereco": 61, "ds_complemento": null, "no_bairro": "CRISTO REDENTOR", "co_cep": 91040030, "endereco_geocode": "RUA BERNARDI, 61, CRISTO REDENTOR, 91040030, Porto Alegre - RS", "qtd_mat_infantil": 121, "qtd_mat_fundamental": 0, "qtd_mat_medio": 0, "qtd_mat_profissional": 0, "qtd_mat_eja": 0, "qtd_mat_especial": 4, "qtd_mat_total": 125, "qtd_doc_total": 8, "qtd_prof_total": 7, "qtd_prof": 7, "qtd_doc": 8, "qtd_matri_inf": 121, "qtd_matri_fund": 0, "qtd_matri_med": 0, "qtd_matri_prof": 0, "qtd_matri_eja": 0, "qtd_matri_esp": 4}}, {"type": "Feature", "geometry": {"type": "Point", "coordinates": [-51.2139139, -30.0171849]}, "properties": {"co_entidade": 43280005, "no_entidade": "EEI MARISTA MENINO JESUS", "municipio": "Porto Alegre", "tp_dependencia": 4, "tp_dependencia_label": "Privada", "ds_endereco": "R GARCA-MOURA", "nu_endereco": 100, "ds_complemento": null, "no_bairro": "FLORESTA", "co_cep": 90220330, "endereco_geocode": "R GARCA-MOURA, 100, FLORESTA, 90220330, Porto Alegre - RS", "qtd_mat_infantil": 96, "qtd_mat_fundamental": 0, "qtd_mat_medio": 0, "qtd_mat_profissional": 0, "qtd_mat_eja": 0, "qtd_mat_especial": 4, "qtd_mat_total": 100, "qtd_doc_total": 6, "qtd_prof_total": 12, "qtd_prof": 12, "qtd_doc": 6, "qtd_matri_inf": 96, "qtd_matri_fund": 0, "qtd_matri_med": 0, "qtd_matri_prof": 0, "qtd_matri_eja": 0, "qtd_matri_esp": 4}}]}