{"type":"FeatureCollection","features":[{"type":"Feature","properties":{"nome":null,"detalhe":"mast","osm_id":"node/2118471803"},"geometry":{"type":"Point","coordinates":[-51.2572858,-30.026306]}},{"type":"Feature","properties":{"nome":null,"detalhe":"mast","osm_id":"node/2118471962"},"geometry":{"type":"Point","coordinates":[-51.2589258,-30.0263819]}},{"type":"Feature","properties":{"nome":null,"detalhe":"tower","osm_id":"node/2118767033"},"geometry":{"type":"Point","coordinates":[-51.2984553,-29.9575201]}},{"type":"Feature","properties":{"nome":null,"detalhe":"tower","osm_id":"node/2118767394"},"geometry":{"type":"Point","coordinates":[-51.2959003,-29.9594101]}},{"type":"Feature","properties":{"nome":null,"detalhe":"tower","osm_id":"node/4258983176"},"geometry":{"type":"Point","coordinates":[-51.262074,-30.0160248]}},{"type":"Feature","properties":{"nome":null,"detalhe":"tower","osm_id":"node/4258983738"},"geometry":{"type":"Point","coordinates":[-51.2617522,-30.0164266]}},{"type":"Feature","properties":{"nome":null,"detalhe":"tower","osm_id":"node/4452772713"},"geometry":{"type":"Point","coordinates":[-51.2308507,-30.1336249]}},{"type":"Feature","properties":{"nome":null,"detalhe":"tower","osm_id":"node/7055133233"},"geometry":{"type":"Point","coordinates":[-51.2569613,-30.0189607]}},{"type":"Feature","properties":{"nome":null,"detalhe":"tower","osm_id":"node/7467864516"},"geometry":{"type":"Point","coordinates":[-51.21336,-30.176333]}},{"type":"Feature","properties":{"nome":null,"detalhe":"tower","osm_id":"node/7468003405"},"geometry":{"type":"Point","coordinates":[-51.2638996,-30.1091923]}},{"type":"Feature","properties":{"nome":null,"detalhe":"tower","osm_id":"node/7468015568"},"geometry":{"type":"Point","coordinates":[-51.2298437,-30.0550443]}},{"type":"Feature","properties":{"nome":null,"detalhe":"tower","osm_id":"node/7468016993"},"geometry":{"type":"Point","coordinates":[-51.2356714,-30.0303184]}},{"type":"Feature","properties":{"nome":null,"detalhe":"tower","osm_id":"node/7468026093"},"geometry":{"type":"Point","coordinates":[-51.229061,-30.048685]}},{"type":"Feature","properties":{"nome":null,"detalhe":"tower","osm_id":"node/7468048291"},"geometry":{"type":"Point","coordinates":[-51.2295483,-30.0453814]}},{"type":"Feature","properties":{"nome":null,"detalhe":"tower","osm_id":"node/7468056124"},"geometry":{"type":"Point","coordinates":[-51.2340272,-30.0306972]}},{"type":"Feature","properties":{"nome":null,"detalhe":"tower","osm_id":"node/7468064430"},"geometry":{"type":"Point","coordinates":[-51.2197778,-30.0473333]}},{"type":"Feature","properties":{"nome":null,"detalhe":"tower","osm_id":"node/7468067519"},"geometry":{"type":"Point","coordinates":[-51.2130833,-30.0198056]}},{"type":"Feature","properties":{"nome":null,"detalhe":"tower","osm_id":"node/7468070415"},"geometry":{"type":"Point","coordinates":[-51.1915906,-29.9836713]}},{"type":"Feature","properties":{"nome":null,"detalhe":"tower","osm_id":"node/7468072473"},"geometry":{"type":"Point","coordinates":[-51.1939787,-29.9842362]}},{"type":"Feature","properties":{"nome":null,"detalhe":"tower","osm_id":"node/7468074191"},"geometry":{"type":"Point","coordinates":[-51.2035278,-29.9968056]}},{"type":"Feature","properties":{"nome":null,"detalhe":"tower","osm_id":"node/7468075989"},"geometry":{"type":"Point","coordinates":[-51.1917361,-29.9844103]}},{"type":"Feature","properties":{"nome":null,"detalhe":"tower","osm_id":"node/7468086231"},"geometry":{"type":"Point","coordinates":[-51.17375,-30.0036944]}},{"type":"Feature","properties":{"nome":null,"detalhe":"tower","osm_id":"node/7468092796"},"geometry":{"type":"Point","coordinates":[-51.1724386,-30.0037083]}},{"type":"Feature","properties":{"nome":null,"detalhe":"tower","osm_id":"node/7473328371"},"geometry":{"type":"Point","coordinates":[-51.1139657,-29.9778907]}},{"type":"Feature","properties":{"nome":null,"detalhe":"tower","osm_id":"node/7473329465"},"geometry":{"type":"Point","coordinates":[-51.1979564,-30.0077209]}},{"type":"Feature","properties":{"nome":null,"detalhe":"tower","osm_id":"node/7473336914"},"geometry":{"type":"Point","coordinates":[-51.1293333,-29.98025]}},{"type":"Feature","properties":{"nome":null,"detalhe":"tower","osm_id":"node/7473336915"},"geometry":{"type":"Point","coordinates":[-51.1379987,-29.9684112]}},{"type":"Feature","properties":{"nome":null,"detalhe":"tower","osm_id":"node/7473350876"},"geometry":{"type":"Point","coordinates":[-51.1242483,-29.9877769]}},{"type":"Feature","properties":{"nome":null,"detalhe":"tower","osm_id":"node/7473359193"},"geometry":{"type":"Point","coordinates":[-51.1940833,-30.0057778]}},{"type":"Feature","properties":{"nome":null,"detalhe":"tower","osm_id":"node/7473365124"},"geometry":{"type":"Point","coordinates":[-51.1678889,-29.9783333]}},{"type":"Feature","properties":{"nome":null,"detalhe":"tower","osm_id":"node/7473368043"},"geometry":{"type":"Point","coordinates":[-51.2197864,-29.9929529]}},{"type":"Feature","properties":{"nome":null,"detalhe":"tower","osm_id":"node/7473369513"},"geometry":{"type":"Point","coordinates":[-51.1925805,-30.0075082]}},{"type":"Feature","properties":{"nome":null,"detalhe":"tower","osm_id":"node/7473370814"},"geometry":{"type":"Point","coordinates":[-51.1983941,-30.0106225]}},{"type":"Feature","properties":{"nome":null,"detalhe":"tower","osm_id":"node/7473378366"},"geometry":{"type":"Point","coordinates":[-51.1980059,-30.0076846]}},{"type":"Feature","properties":{"nome":null,"detalhe":"tower","osm_id":"node/10743552324"},"geometry":{"type":"Point","coordinates":[-51.2020786,-29.9995333]}}]}