{"type":"FeatureCollection","features":[{"type":"Feature","properties":{"nome":"Subestação Porto Alegre 9","detalhe":"substation","osm_id":"way/108399315"},"geometry":{"type":"Point","coordinates":[-51.1965111,-29.971358]}},{"type":"Feature","properties":{"nome":"Subestação Porto Alegre 4","detalhe":"substation","osm_id":"way/169280139"},"geometry":{"type":"Point","coordinates":[-51.2283391,-30.0468888]}},{"type":"Feature","properties":{"nome":"Subestação Menino Deus","detalhe":"substation","osm_id":"way/285776284"},"geometry":{"type":"Point","coordinates":[-51.2410584,-30.0728028]}},{"type":"Feature","properties":{"nome":"Subestação Arena do Grêmio","detalhe":"substation","osm_id":"way/286621138"},"geometry":{"type":"Point","coordinates":[-51.1945751,-29.9724601]}},{"type":"Feature","properties":{"nome":"Subestação Porto Alegre 7","detalhe":"substation","osm_id":"way/318751465"},"geometry":{"type":"Point","coordinates":[-51.2147799,-30.0196402]}},{"type":"Feature","properties":{"nome":"Subestação Farrapos","detalhe":"substation","osm_id":"way/319059493"},"geometry":{"type":"Point","coordinates":[-51.2004661,-29.9977508]}},{"type":"Feature","properties":{"nome":"Subestação Porto Alegre 2","detalhe":"substation","osm_id":"way/421408067"},"geometry":{"type":"Point","coordinates":[-51.1979131,-30.006968]}},{"type":"Feature","properties":{"nome":"Subestação Vonpar","detalhe":"substation","osm_id":"way/506584541"},"geometry":{"type":"Point","coordinates":[-51.1172046,-29.9714862]}},{"type":"Feature","properties":{"nome":"Subestação Gerdau","detalhe":"substation","osm_id":"way/507747934"},"geometry":{"type":"Point","coordinates":[-51.2067546,-30.0145131]}},{"type":"Feature","properties":{"nome":"Subestação Ambev","detalhe":"substation","osm_id":"way/532137532"},"geometry":{"type":"Point","coordinates":[-51.2085105,-30.0119727]}},{"type":"Feature","properties":{"nome":null,"detalhe":"plant","osm_id":"way/784079719"},"geometry":{"type":"Point","coordinates":[-51.1706393,-29.9692972]}},{"type":"Feature","properties":{"nome":"Subestação Porto Alegre Airport","detalhe":"substation","osm_id":"way/806805998"},"geometry":{"type":"Point","coordinates":[-51.1662584,-29.9892168]}},{"type":"Feature","properties":{"nome":null,"detalhe":"plant","osm_id":"way/969843678"},"geometry":{"type":"Point","coordinates":[-51.1605819,-29.9712127]}},{"type":"Feature","properties":{"nome":"UTE Porto Alegre","detalhe":"substation","osm_id":"way/1098316826"},"geometry":{"type":"Point","coordinates":[-51.1942874,-29.9704252]}},{"type":"Feature","properties":{"nome":null,"detalhe":"plant","osm_id":"way/1281960756"},"geometry":{"type":"Point","coordinates":[-51.2440378,-30.0902963]}}]}