{"type":"FeatureCollection","features":[{"type":"Feature","properties":{"nome":null,"detalhe":"weir","osm_id":"node/2395566312"},"geometry":{"type":"Point","coordinates":[-51.2310655,-30.0561461]}},{"type":"Feature","properties":{"nome":null,"detalhe":"weir","osm_id":"node/2395566334"},"geometry":{"type":"Point","coordinates":[-51.2318123,-30.0567224]}},{"type":"Feature","properties":{"nome":null,"detalhe":"dam","osm_id":"way/1211509797"},"geometry":{"type":"Point","coordinates":[-51.1982209,-30.1832111]}},{"type":"Feature","properties":{"nome":null,"detalhe":"dam","osm_id":"way/1211509803"},"geometry":{"type":"Point","coordinates":[-51.1993958,-30.1794679]}},{"type":"Feature","properties":{"nome":null,"detalhe":"dam","osm_id":"way/1212921415"},"geometry":{"type":"Point","coordinates":[-51.1201535,-30.2364644]}}]}