{"type":"FeatureCollection","features":[{"type":"Feature","properties":{"nome":null,"detalhe":"via: primary_link","osm_id":"way/27026341"},"geometry":{"type":"Point","coordinates":[-51.2196255,-30.0222618]}},{"type":"Feature","properties":{"nome":"Rua Voluntários da Pátria","detalhe":"via: secondary","osm_id":"way/27100734"},"geometry":{"type":"Point","coordinates":[-51.2058578,-29.9982201]}},{"type":"Feature","properties":{"nome":"Elevada da Conceição","detalhe":"via: primary","osm_id":"way/27101636"},"geometry":{"type":"Point","coordinates":[-51.2192087,-30.0226366]}},{"type":"Feature","properties":{"nome":null,"detalhe":"via: primary_link","osm_id":"way/27101681"},"geometry":{"type":"Point","coordinates":[-51.2183327,-30.0213259]}},{"type":"Feature","properties":{"nome":"Avenida Fernando Ferrari","detalhe":"via: residential","osm_id":"way/29083910"},"geometry":{"type":"Point","coordinates":[-51.161276,-29.9738259]}},{"type":"Feature","properties":{"nome":"Travessia Régis Bitencourt","detalhe":"via: motorway","osm_id":"way/29208284"},"geometry":{"type":"Point","coordinates":[-51.2370698,-29.9884658]}},{"type":"Feature","properties":{"nome":"Travessia Régis Bitencourt","detalhe":"via: motorway","osm_id":"way/29208296"},"geometry":{"type":"Point","coordinates":[-51.2369443,-29.9882055]}},{"type":"Feature","properties":{"nome":"Travessia Régis Bitencourt","detalhe":"via: motorway","osm_id":"way/29208310"},"geometry":{"type":"Point","coordinates":[-51.2228813,-29.9927617]}},{"type":"Feature","properties":{"nome":"Travessia Régis Bitencourt","detalhe":"via: motorway","osm_id":"way/29208315"},"geometry":{"type":"Point","coordinates":[-51.2229756,-29.9930347]}},{"type":"Feature","properties":{"nome":"Ponte do Guaíba","detalhe":"via: motorway","osm_id":"way/29208969"},"geometry":{"type":"Point","coordinates":[-51.211323,-29.9966268]}},{"type":"Feature","properties":{"nome":null,"detalhe":"via: motorway_link","osm_id":"way/29209011"},"geometry":{"type":"Point","coordinates":[-51.2063714,-29.9963398]}},{"type":"Feature","properties":{"nome":null,"detalhe":"via: motorway_link","osm_id":"way/29209094"},"geometry":{"type":"Point","coordinates":[-51.2072225,-29.9983891]}},{"type":"Feature","properties":{"nome":null,"detalhe":"via: motorway_link","osm_id":"way/29209307"},"geometry":{"type":"Point","coordinates":[-51.2042246,-29.998951]}},{"type":"Feature","properties":{"nome":"Rua Voluntários da Pátria","detalhe":"via: secondary","osm_id":"way/29209338"},"geometry":{"type":"Point","coordinates":[-51.206018,-29.9981976]}},{"type":"Feature","properties":{"nome":"Avenida Presidente Castello Branco","detalhe":"via: motorway","osm_id":"way/29209529"},"geometry":{"type":"Point","coordinates":[-51.2066934,-29.998047]}},{"type":"Feature","properties":{"nome":"Avenida Presidente Castello Branco","detalhe":"via: motorway","osm_id":"way/29209536"},"geometry":{"type":"Point","coordinates":[-51.2064649,-29.9980806]}},{"type":"Feature","properties":{"nome":"Freeway","detalhe":"via: motorway","osm_id":"way/29210971"},"geometry":{"type":"Point","coordinates":[-51.176569,-29.9696276]}},{"type":"Feature","properties":{"nome":"Freeway","detalhe":"via: motorway","osm_id":"way/29211197"},"geometry":{"type":"Point","coordinates":[-51.1771804,-29.9718541]}},{"type":"Feature","properties":{"nome":null,"detalhe":"via: motorway_link","osm_id":"way/29211237"},"geometry":{"type":"Point","coordinates":[-51.1780448,-29.9729518]}},{"type":"Feature","properties":{"nome":"Freeway","detalhe":"via: motorway","osm_id":"way/29211281"},"geometry":{"type":"Point","coordinates":[-51.1151337,-29.9684972]}},{"type":"Feature","properties":{"nome":"Freeway","detalhe":"via: motorway","osm_id":"way/29211287"},"geometry":{"type":"Point","coordinates":[-51.1151397,-29.9682922]}},{"type":"Feature","properties":{"nome":"Avenida Borges de Medeiros","detalhe":"via: secondary","osm_id":"way/29221871"},"geometry":{"type":"Point","coordinates":[-51.2284076,-30.0386962]}},{"type":"Feature","properties":{"nome":"Avenida Borges de Medeiros","detalhe":"via: secondary","osm_id":"way/29221873"},"geometry":{"type":"Point","coordinates":[-51.2282971,-30.0387071]}},{"type":"Feature","properties":{"nome":"Viaduto Leonel Brizola","detalhe":"via: secondary","osm_id":"way/32693539"},"geometry":{"type":"Point","coordinates":[-51.1897244,-29.9959586]}},{"type":"Feature","properties":{"nome":null,"detalhe":"via: motorway_link","osm_id":"way/37006005"},"geometry":{"type":"Point","coordinates":[-51.1812812,-29.9714427]}},{"type":"Feature","properties":{"nome":null,"detalhe":"via: motorway_link","osm_id":"way/51691425"},"geometry":{"type":"Point","coordinates":[-51.2065226,-29.998611]}},{"type":"Feature","properties":{"nome":null,"detalhe":"via: footway","osm_id":"way/51692168"},"geometry":{"type":"Point","coordinates":[-51.2040693,-29.9901782]}},{"type":"Feature","properties":{"nome":null,"detalhe":"via: footway","osm_id":"way/51813967"},"geometry":{"type":"Point","coordinates":[-51.1788512,-29.9767432]}},{"type":"Feature","properties":{"nome":"Freeway","detalhe":"via: motorway","osm_id":"way/60444385"},"geometry":{"type":"Point","coordinates":[-51.1390045,-29.9673277]}},{"type":"Feature","properties":{"nome":"Freeway","detalhe":"via: motorway","osm_id":"way/60444386"},"geometry":{"type":"Point","coordinates":[-51.1389957,-29.9675251]}},{"type":"Feature","properties":{"nome":null,"detalhe":"via: footway","osm_id":"way/60472373"},"geometry":{"type":"Point","coordinates":[-51.1719469,-29.9699425]}},{"type":"Feature","properties":{"nome":null,"detalhe":"via: footway","osm_id":"way/69294438"},"geometry":{"type":"Point","coordinates":[-51.1824893,-29.9880006]}},{"type":"Feature","properties":{"nome":"Viaduto José Eduardo Utzig","detalhe":"via: primary","osm_id":"way/75457772"},"geometry":{"type":"Point","coordinates":[-51.1913677,-30.0064927]}},{"type":"Feature","properties":{"nome":"Viaduto José Eduardo Utzig","detalhe":"via: primary","osm_id":"way/75519179"},"geometry":{"type":"Point","coordinates":[-51.19025,-30.0074936]}},{"type":"Feature","properties":{"nome":"Embarque / Via Elevada","detalhe":"via: unclassified","osm_id":"way/89384525"},"geometry":{"type":"Point","coordinates":[-51.177903,-29.9894442]}},{"type":"Feature","properties":{"nome":null,"detalhe":"via: footway","osm_id":"way/89529740"},"geometry":{"type":"Point","coordinates":[-51.1817144,-29.9881471]}},{"type":"Feature","properties":{"nome":null,"detalhe":"via: footway","osm_id":"way/89529744"},"geometry":{"type":"Point","coordinates":[-51.1762408,-29.9896522]}},{"type":"Feature","properties":{"nome":null,"detalhe":"via: motorway_link","osm_id":"way/89529758"},"geometry":{"type":"Point","coordinates":[-51.1804297,-29.9875634]}},{"type":"Feature","properties":{"nome":null,"detalhe":"via: motorway_link","osm_id":"way/89529773"},"geometry":{"type":"Point","coordinates":[-51.1810287,-29.9870812]}},{"type":"Feature","properties":{"nome":null,"detalhe":"via: footway","osm_id":"way/89529779"},"geometry":{"type":"Point","coordinates":[-51.1817552,-29.9889282]}},{"type":"Feature","properties":{"nome":"Viaduto Leonel Brizola","detalhe":"via: secondary","osm_id":"way/98396195"},"geometry":{"type":"Point","coordinates":[-51.1903831,-29.9962276]}},{"type":"Feature","properties":{"nome":"Rua Eduardo Nadruz","detalhe":"via: tertiary","osm_id":"way/107903071"},"geometry":{"type":"Point","coordinates":[-51.0880837,-29.9976687]}},{"type":"Feature","properties":{"nome":"Linha 1","detalhe":"ferrovia","osm_id":"way/109197382"},"geometry":{"type":"Point","coordinates":[-51.1958214,-29.9972512]}},{"type":"Feature","properties":{"nome":"Ponte de Pedra","detalhe":"via: pedestrian","osm_id":"way/112410804"},"geometry":{"type":"Point","coordinates":[-51.22895,-30.0380717]}},{"type":"Feature","properties":{"nome":"Embarque / Via Elevada","detalhe":"via: unclassified","osm_id":"way/132022856"},"geometry":{"type":"Point","coordinates":[-51.1769478,-29.9898393]}},{"type":"Feature","properties":{"nome":"Avenida Ernesto Neugebauer","detalhe":"via: secondary","osm_id":"way/177796046"},"geometry":{"type":"Point","coordinates":[-51.1769463,-29.9681796]}},{"type":"Feature","properties":{"nome":null,"detalhe":"via: motorway_link","osm_id":"way/189615593"},"geometry":{"type":"Point","coordinates":[-51.1809826,-29.9865997]}},{"type":"Feature","properties":{"nome":"Ciclovia Beira-Rio","detalhe":"via: cycleway","osm_id":"way/193079352"},"geometry":{"type":"Point","coordinates":[-51.2328044,-30.0473645]}},{"type":"Feature","properties":{"nome":null,"detalhe":"via: footway","osm_id":"way/201706094"},"geometry":{"type":"Point","coordinates":[-51.2514987,-29.985731]}},{"type":"Feature","properties":{"nome":null,"detalhe":"via: footway","osm_id":"way/203170654"},"geometry":{"type":"Point","coordinates":[-51.2279966,-30.0495997]}},{"type":"Feature","properties":{"nome":null,"detalhe":"via: footway","osm_id":"way/203188317"},"geometry":{"type":"Point","coordinates":[-51.2272148,-30.0487714]}},{"type":"Feature","properties":{"nome":null,"detalhe":"via: footway","osm_id":"way/203671226"},"geometry":{"type":"Point","coordinates":[-51.2273559,-30.0509775]}},{"type":"Feature","properties":{"nome":null,"detalhe":"via: footway","osm_id":"way/203685715"},"geometry":{"type":"Point","coordinates":[-51.2292018,-30.05143]}},{"type":"Feature","properties":{"nome":"Linha Piloto do Aeromóvel","detalhe":"ferrovia","osm_id":"way/205475281"},"geometry":{"type":"Point","coordinates":[-51.2370076,-30.0355662]}},{"type":"Feature","properties":{"nome":null,"detalhe":"ferrovia","osm_id":"way/205475282"},"geometry":{"type":"Point","coordinates":[-51.2402713,-30.0342267]}},{"type":"Feature","properties":{"nome":"Avenida Beira-Rio","detalhe":"via: secondary","osm_id":"way/207300351"},"geometry":{"type":"Point","coordinates":[-51.2318572,-30.0475035]}},{"type":"Feature","properties":{"nome":"Avenida Presidente Castello Branco","detalhe":"via: primary","osm_id":"way/207947183"},"geometry":{"type":"Point","coordinates":[-51.2101679,-30.0076535]}},{"type":"Feature","properties":{"nome":"Avenida Presidente Castello Branco","detalhe":"via: primary","osm_id":"way/207947184"},"geometry":{"type":"Point","coordinates":[-51.2078817,-30.0023378]}},{"type":"Feature","properties":{"nome":"Avenida Presidente Castello Branco","detalhe":"via: primary","osm_id":"way/207947185"},"geometry":{"type":"Point","coordinates":[-51.2099537,-30.0077354]}},{"type":"Feature","properties":{"nome":"Ponte do Guaíba","detalhe":"via: motorway","osm_id":"way/207947198"},"geometry":{"type":"Point","coordinates":[-51.2087169,-29.9974785]}},{"type":"Feature","properties":{"nome":"Ponte do Guaíba","detalhe":"via: motorway","osm_id":"way/207947199"},"geometry":{"type":"Point","coordinates":[-51.208116,-29.9976611]}},{"type":"Feature","properties":{"nome":"Ponte do Guaíba","detalhe":"via: motorway","osm_id":"way/207947200"},"geometry":{"type":"Point","coordinates":[-51.211291,-29.9965536]}},{"type":"Feature","properties":{"nome":"Ponte do Guaíba","detalhe":"via: motorway","osm_id":"way/207947209"},"geometry":{"type":"Point","coordinates":[-51.2075425,-29.9979666]}},{"type":"Feature","properties":{"nome":null,"detalhe":"via: motorway_link","osm_id":"way/207953593"},"geometry":{"type":"Point","coordinates":[-51.2056467,-29.9977199]}},{"type":"Feature","properties":{"nome":null,"detalhe":"via: motorway_link","osm_id":"way/207953596"},"geometry":{"type":"Point","coordinates":[-51.2045945,-29.9982546]}},{"type":"Feature","properties":{"nome":null,"detalhe":"via: footway","osm_id":"way/211061177"},"geometry":{"type":"Point","coordinates":[-51.231043,-30.0565142]}},{"type":"Feature","properties":{"nome":"Elevada da Conceição","detalhe":"via: primary","osm_id":"way/217381147"},"geometry":{"type":"Point","coordinates":[-51.2192473,-30.0267398]}},{"type":"Feature","properties":{"nome":"Aeromóvel","detalhe":"ferrovia","osm_id":"way/217857315"},"geometry":{"type":"Point","coordinates":[-51.1824452,-29.9869519]}},{"type":"Feature","properties":{"nome":"Aeromóvel","detalhe":"ferrovia","osm_id":"way/217857316"},"geometry":{"type":"Point","coordinates":[-51.1824008,-29.9869074]}},{"type":"Feature","properties":{"nome":"Olhos Atentos","detalhe":"via: footway","osm_id":"way/218276553"},"geometry":{"type":"Point","coordinates":[-51.2415354,-30.0357152]}},{"type":"Feature","properties":{"nome":"Avenida dos Gaúchos","detalhe":"via: residential","osm_id":"way/223086602"},"geometry":{"type":"Point","coordinates":[-51.1369236,-29.9920881]}},{"type":"Feature","properties":{"nome":"Avenida Borges de Medeiros","detalhe":"via: secondary","osm_id":"way/229187718"},"geometry":{"type":"Point","coordinates":[-51.2292881,-30.0477035]}},{"type":"Feature","properties":{"nome":"Avenida Borges de Medeiros","detalhe":"via: secondary","osm_id":"way/229187720"},"geometry":{"type":"Point","coordinates":[-51.2294102,-30.0476932]}},{"type":"Feature","properties":{"nome":"Beco Paulino Gonçalves Barcello","detalhe":"via: secondary","osm_id":"way/230069284"},"geometry":{"type":"Point","coordinates":[-51.0888092,-29.9904174]}},{"type":"Feature","properties":{"nome":"Rua Bento Rosa","detalhe":"via: tertiary","osm_id":"way/230069293"},"geometry":{"type":"Point","coordinates":[-51.1328474,-29.9951713]}},{"type":"Feature","properties":{"nome":"Rua Francisco Pinto da Fontoura","detalhe":"via: tertiary","osm_id":"way/230069301"},"geometry":{"type":"Point","coordinates":[-51.1341686,-29.9946088]}},{"type":"Feature","properties":{"nome":"Rua José Ferreira Jardim","detalhe":"via: secondary","osm_id":"way/230069314"},"geometry":{"type":"Point","coordinates":[-51.1095564,-29.9855447]}},{"type":"Feature","properties":{"nome":"Beco A","detalhe":"via: residential","osm_id":"way/230069316"},"geometry":{"type":"Point","coordinates":[-51.2424525,-30.0935105]}},{"type":"Feature","properties":{"nome":null,"detalhe":"via: residential","osm_id":"way/230069339"},"geometry":{"type":"Point","coordinates":[-51.1372961,-29.9887261]}},{"type":"Feature","properties":{"nome":null,"detalhe":"ferrovia","osm_id":"way/230069372"},"geometry":{"type":"Point","coordinates":[-51.1975053,-29.9972527]}},{"type":"Feature","properties":{"nome":"Avenida Beira-Rio","detalhe":"via: secondary","osm_id":"way/230525847"},"geometry":{"type":"Point","coordinates":[-51.2327265,-30.047422]}},{"type":"Feature","properties":{"nome":null,"detalhe":"via: service","osm_id":"way/236479492"},"geometry":{"type":"Point","coordinates":[-51.2190162,-30.0231051]}},{"type":"Feature","properties":{"nome":"BR-116","detalhe":"via: motorway_link","osm_id":"way/237141145"},"geometry":{"type":"Point","coordinates":[-51.1770291,-29.9690487]}},{"type":"Feature","properties":{"nome":null,"detalhe":"via: footway","osm_id":"way/244335076"},"geometry":{"type":"Point","coordinates":[-51.2254463,-30.1545092]}},{"type":"Feature","properties":{"nome":null,"detalhe":"via: footway","osm_id":"way/244335089"},"geometry":{"type":"Point","coordinates":[-51.2260637,-30.156448]}},{"type":"Feature","properties":{"nome":null,"detalhe":"via: footway","osm_id":"way/244335098"},"geometry":{"type":"Point","coordinates":[-51.2310047,-30.137175]}},{"type":"Feature","properties":{"nome":null,"detalhe":"via: footway","osm_id":"way/244840566"},"geometry":{"type":"Point","coordinates":[-51.2027399,-29.9974987]}},{"type":"Feature","properties":{"nome":null,"detalhe":"via: footway","osm_id":"way/246687570"},"geometry":{"type":"Point","coordinates":[-51.2293587,-30.0433028]}},{"type":"Feature","properties":{"nome":"Viaduto José Alencar Gomes da Silva","detalhe":"via: motorway_link","osm_id":"way/254270763"},"geometry":{"type":"Point","coordinates":[-51.1994863,-29.9735261]}},{"type":"Feature","properties":{"nome":"Viaduto José Alencar Gomes da Silva","detalhe":"via: motorway_link","osm_id":"way/254276888"},"geometry":{"type":"Point","coordinates":[-51.1972056,-29.9738952]}},{"type":"Feature","properties":{"nome":"Viaduto José Alencar Gomes da Silva","detalhe":"via: motorway_link","osm_id":"way/254665207"},"geometry":{"type":"Point","coordinates":[-51.1986222,-29.972995]}},{"type":"Feature","properties":{"nome":"Viaduto José Alencar Gomes da Silva","detalhe":"via: motorway_link","osm_id":"way/254665208"},"geometry":{"type":"Point","coordinates":[-51.1997405,-29.9754992]}},{"type":"Feature","properties":{"nome":"Viaduto Dom Pedro I","detalhe":"via: secondary","osm_id":"way/285605885"},"geometry":{"type":"Point","coordinates":[-51.2306156,-30.0590421]}},{"type":"Feature","properties":{"nome":null,"detalhe":"via: footway","osm_id":"way/285732180"},"geometry":{"type":"Point","coordinates":[-51.2369994,-30.0649153]}},{"type":"Feature","properties":{"nome":"Viaduto José Alencar Gomes da Silva","detalhe":"via: motorway_link","osm_id":"way/286337584"},"geometry":{"type":"Point","coordinates":[-51.1962149,-29.9754122]}},{"type":"Feature","properties":{"nome":"Rampa Sul","detalhe":"via: footway","osm_id":"way/286503818"},"geometry":{"type":"Point","coordinates":[-51.1941925,-29.9755321]}},{"type":"Feature","properties":{"nome":"Viaduto Júlio de Castilhos","detalhe":"via: secondary","osm_id":"way/287419949"},"geometry":{"type":"Point","coordinates":[-51.220421,-30.0231941]}},{"type":"Feature","properties":{"nome":null,"detalhe":"via: motorway_link","osm_id":"way/288127038"},"geometry":{"type":"Point","coordinates":[-51.1762639,-29.9707987]}},{"type":"Feature","properties":{"nome":"Rua Múcio Teixeira","detalhe":"via: tertiary","osm_id":"way/288143117"},"geometry":{"type":"Point","coordinates":[-51.2239696,-30.048132]}},{"type":"Feature","properties":{"nome":null,"detalhe":"via: path","osm_id":"way/288519915"},"geometry":{"type":"Point","coordinates":[-51.1879844,-29.9829321]}},{"type":"Feature","properties":{"nome":"Viaduto José Alencar Gomes da Silva","detalhe":"via: motorway_link","osm_id":"way/297988923"},"geometry":{"type":"Point","coordinates":[-51.1991125,-29.9726023]}},{"type":"Feature","properties":{"nome":"Viaduto José Alencar Gomes da Silva","detalhe":"via: motorway_link","osm_id":"way/297988924"},"geometry":{"type":"Point","coordinates":[-51.1991717,-29.9748881]}},{"type":"Feature","properties":{"nome":"Viaduto José Alencar Gomes da Silva","detalhe":"via: motorway_link","osm_id":"way/297988925"},"geometry":{"type":"Point","coordinates":[-51.1983051,-29.9729235]}},{"type":"Feature","properties":{"nome":"Viaduto José Alencar Gomes da Silva","detalhe":"via: motorway_link","osm_id":"way/297988926"},"geometry":{"type":"Point","coordinates":[-51.1988506,-29.9753228]}},{"type":"Feature","properties":{"nome":"Viaduto José Alencar Gomes da Silva","detalhe":"via: motorway_link","osm_id":"way/302660753"},"geometry":{"type":"Point","coordinates":[-51.1973867,-29.9741011]}},{"type":"Feature","properties":{"nome":null,"detalhe":null,"osm_id":"way/305882948"},"geometry":{"type":"Point","coordinates":[-51.2113499,-30.0093276]}},{"type":"Feature","properties":{"nome":"Avenida das Indústrias","detalhe":"via: residential","osm_id":"way/306041991"},"geometry":{"type":"Point","coordinates":[-51.1554677,-29.9850724]}},{"type":"Feature","properties":{"nome":null,"detalhe":"via: motorway_link","osm_id":"way/329338758"},"geometry":{"type":"Point","coordinates":[-51.2068499,-29.9975405]}},{"type":"Feature","properties":{"nome":null,"detalhe":"via: service","osm_id":"way/338426672"},"geometry":{"type":"Point","coordinates":[-51.2184374,-30.0215394]}},{"type":"Feature","properties":{"nome":null,"detalhe":"via: footway","osm_id":"way/338427520"},"geometry":{"type":"Point","coordinates":[-51.198844,-29.9747336]}},{"type":"Feature","properties":{"nome":null,"detalhe":"via: footway","osm_id":"way/350448518"},"geometry":{"type":"Point","coordinates":[-51.1983837,-29.9747578]}},{"type":"Feature","properties":{"nome":null,"detalhe":"via: footway","osm_id":"way/356396824"},"geometry":{"type":"Point","coordinates":[-51.1594616,-29.9873239]}},{"type":"Feature","properties":{"nome":null,"detalhe":null,"osm_id":"way/356397809"},"geometry":{"type":"Point","coordinates":[-51.1913024,-30.007216]}},{"type":"Feature","properties":{"nome":null,"detalhe":null,"osm_id":"way/356398305"},"geometry":{"type":"Point","coordinates":[-51.1903195,-30.0071843]}},{"type":"Feature","properties":{"nome":"Linha 1","detalhe":"ferrovia","osm_id":"way/356398467"},"geometry":{"type":"Point","coordinates":[-51.1992401,-29.9973826]}},{"type":"Feature","properties":{"nome":"Viaduto José Alencar Gomes da Silva","detalhe":"via: motorway_link","osm_id":"way/368653582"},"geometry":{"type":"Point","coordinates":[-51.1982117,-29.974857]}},{"type":"Feature","properties":{"nome":"Viaduto José Alencar Gomes da Silva","detalhe":"via: motorway_link","osm_id":"way/368653583"},"geometry":{"type":"Point","coordinates":[-51.1985552,-29.9751703]}},{"type":"Feature","properties":{"nome":"Avenida Presidente Castello Branco","detalhe":"via: primary","osm_id":"way/407832897"},"geometry":{"type":"Point","coordinates":[-51.2172208,-30.0203903]}},{"type":"Feature","properties":{"nome":null,"detalhe":"via: track","osm_id":"way/426611908"},"geometry":{"type":"Point","coordinates":[-51.1394181,-29.9648052]}},{"type":"Feature","properties":{"nome":"Viaduto José Alencar Gomes da Silva","detalhe":"via: motorway_link","osm_id":"way/447936256"},"geometry":{"type":"Point","coordinates":[-51.1979681,-29.9751412]}},{"type":"Feature","properties":{"nome":"Viaduto José Alencar Gomes da Silva","detalhe":"via: motorway_link","osm_id":"way/447936257"},"geometry":{"type":"Point","coordinates":[-51.19801,-29.9733202]}},{"type":"Feature","properties":{"nome":"Viaduto José Alencar Gomes da Silva","detalhe":"via: motorway_link","osm_id":"way/447936258"},"geometry":{"type":"Point","coordinates":[-51.1965687,-29.9723531]}},{"type":"Feature","properties":{"nome":"Viaduto José Alencar Gomes da Silva","detalhe":"via: motorway_link","osm_id":"way/447936259"},"geometry":{"type":"Point","coordinates":[-51.1959076,-29.9751812]}},{"type":"Feature","properties":{"nome":null,"detalhe":"via: motorway_link","osm_id":"way/461980454"},"geometry":{"type":"Point","coordinates":[-51.2065212,-29.9963246]}},{"type":"Feature","properties":{"nome":"Avenida Severo Dullius","detalhe":"via: secondary","osm_id":"way/461982315"},"geometry":{"type":"Point","coordinates":[-51.1541131,-29.9872841]}},{"type":"Feature","properties":{"nome":null,"detalhe":"via: footway","osm_id":"way/473477213"},"geometry":{"type":"Point","coordinates":[-51.182924,-29.9880471]}},{"type":"Feature","properties":{"nome":null,"detalhe":"via: footway","osm_id":"way/473477219"},"geometry":{"type":"Point","coordinates":[-51.182985,-29.9882197]}},{"type":"Feature","properties":{"nome":"Travessia Paixão Côrtes","detalhe":"via: motorway","osm_id":"way/473690608"},"geometry":{"type":"Point","coordinates":[-51.222831,-29.9897656]}},{"type":"Feature","properties":{"nome":"Travessia Paixão Côrtes","detalhe":"via: motorway","osm_id":"way/473690611"},"geometry":{"type":"Point","coordinates":[-51.2234434,-29.9899191]}},{"type":"Feature","properties":{"nome":"BR-116;BR-290","detalhe":"via: motorway_link","osm_id":"way/473690614"},"geometry":{"type":"Point","coordinates":[-51.2040619,-29.9878959]}},{"type":"Feature","properties":{"nome":null,"detalhe":"via: proposed","osm_id":"way/473690615"},"geometry":{"type":"Point","coordinates":[-51.2021779,-29.9876254]}},{"type":"Feature","properties":{"nome":null,"detalhe":"via: construction","osm_id":"way/473690618"},"geometry":{"type":"Point","coordinates":[-51.2039906,-29.9866824]}},{"type":"Feature","properties":{"nome":null,"detalhe":"via: construction","osm_id":"way/473690619"},"geometry":{"type":"Point","coordinates":[-51.2031327,-29.9887032]}},{"type":"Feature","properties":{"nome":"Travessia Paixão Côrtes","detalhe":"via: motorway_link","osm_id":"way/473690621"},"geometry":{"type":"Point","coordinates":[-51.2058117,-29.9872395]}},{"type":"Feature","properties":{"nome":null,"detalhe":"via: construction","osm_id":"way/473690623"},"geometry":{"type":"Point","coordinates":[-51.2032209,-29.9864149]}},{"type":"Feature","properties":{"nome":null,"detalhe":"via: motorway_link","osm_id":"way/477278412"},"geometry":{"type":"Point","coordinates":[-51.2068781,-29.9974545]}},{"type":"Feature","properties":{"nome":null,"detalhe":"via: motorway_link","osm_id":"way/477278420"},"geometry":{"type":"Point","coordinates":[-51.207432,-29.9995751]}},{"type":"Feature","properties":{"nome":null,"detalhe":"via: service","osm_id":"way/491958210"},"geometry":{"type":"Point","coordinates":[-51.2041021,-30.0096063]}},{"type":"Feature","properties":{"nome":"Avenida Severo Dullius","detalhe":"via: secondary","osm_id":"way/493720538"},"geometry":{"type":"Point","coordinates":[-51.1540831,-29.9869766]}},{"type":"Feature","properties":{"nome":null,"detalhe":"via: secondary_link","osm_id":"way/493720548"},"geometry":{"type":"Point","coordinates":[-51.1397535,-29.995845]}},{"type":"Feature","properties":{"nome":null,"detalhe":"via: motorway_link","osm_id":"way/495086997"},"geometry":{"type":"Point","coordinates":[-51.1815537,-29.9873994]}},{"type":"Feature","properties":{"nome":"Embarque / Via Elevada","detalhe":"via: unclassified","osm_id":"way/495087000"},"geometry":{"type":"Point","coordinates":[-51.175073,-29.9896211]}},{"type":"Feature","properties":{"nome":null,"detalhe":"via: motorway_link","osm_id":"way/503875243"},"geometry":{"type":"Point","coordinates":[-51.2060483,-29.9979267]}},{"type":"Feature","properties":{"nome":"Linha 1","detalhe":"ferrovia","osm_id":"way/550905433"},"geometry":{"type":"Point","coordinates":[-51.1958247,-29.9971853]}},{"type":"Feature","properties":{"nome":"Linha 1","detalhe":"ferrovia","osm_id":"way/550905436"},"geometry":{"type":"Point","coordinates":[-51.1992407,-29.9973186]}},{"type":"Feature","properties":{"nome":"Linha 1","detalhe":"ferrovia","osm_id":"way/550905439"},"geometry":{"type":"Point","coordinates":[-51.1980288,-29.997245]}},{"type":"Feature","properties":{"nome":"Aeromóvel","detalhe":"ferrovia","osm_id":"way/551648919"},"geometry":{"type":"Point","coordinates":[-51.1757972,-29.989692]}},{"type":"Feature","properties":{"nome":"Aeromóvel","detalhe":"ferrovia","osm_id":"way/551648920"},"geometry":{"type":"Point","coordinates":[-51.1792736,-29.9883959]}},{"type":"Feature","properties":{"nome":null,"detalhe":"via: footway","osm_id":"way/557344888"},"geometry":{"type":"Point","coordinates":[-51.1783068,-29.9900693]}},{"type":"Feature","properties":{"nome":null,"detalhe":"via: footway","osm_id":"way/557344889"},"geometry":{"type":"Point","coordinates":[-51.178287,-29.9904121]}},{"type":"Feature","properties":{"nome":null,"detalhe":"via: footway","osm_id":"way/557344890"},"geometry":{"type":"Point","coordinates":[-51.1779605,-29.9905617]}},{"type":"Feature","properties":{"nome":null,"detalhe":"via: footway","osm_id":"way/557344891"},"geometry":{"type":"Point","coordinates":[-51.1771406,-29.9905769]}},{"type":"Feature","properties":{"nome":null,"detalhe":"via: footway","osm_id":"way/557344892"},"geometry":{"type":"Point","coordinates":[-51.1763227,-29.9905913]}},{"type":"Feature","properties":{"nome":"Olhos Atentos","detalhe":"via: footway","osm_id":"way/606792784"},"geometry":{"type":"Point","coordinates":[-51.2416644,-30.0357371]}},{"type":"Feature","properties":{"nome":null,"detalhe":"via: footway","osm_id":"way/606792908"},"geometry":{"type":"Point","coordinates":[-51.2411836,-30.0417808]}},{"type":"Feature","properties":{"nome":null,"detalhe":"via: footway","osm_id":"way/606792925"},"geometry":{"type":"Point","coordinates":[-51.2371952,-30.0429729]}},{"type":"Feature","properties":{"nome":null,"detalhe":"via: footway","osm_id":"way/606792933"},"geometry":{"type":"Point","coordinates":[-51.241392,-30.0415082]}},{"type":"Feature","properties":{"nome":null,"detalhe":"via: footway","osm_id":"way/606792943"},"geometry":{"type":"Point","coordinates":[-51.242071,-30.036321]}},{"type":"Feature","properties":{"nome":"Passarela Metálica 2","detalhe":"via: footway","osm_id":"way/606834461"},"geometry":{"type":"Point","coordinates":[-51.2411692,-30.0418153]}},{"type":"Feature","properties":{"nome":"Passarela Metálica","detalhe":"via: footway","osm_id":"way/606834466"},"geometry":{"type":"Point","coordinates":[-51.2419406,-30.0379002]}},{"type":"Feature","properties":{"nome":"Passarela Metálica","detalhe":"via: footway","osm_id":"way/606834467"},"geometry":{"type":"Point","coordinates":[-51.2420087,-30.0370657]}},{"type":"Feature","properties":{"nome":"Passarela Metálica","detalhe":"via: footway","osm_id":"way/606834468"},"geometry":{"type":"Point","coordinates":[-51.2418069,-30.0379917]}},{"type":"Feature","properties":{"nome":"Passarela Metálica","detalhe":"via: footway","osm_id":"way/606834470"},"geometry":{"type":"Point","coordinates":[-51.2419454,-30.0369239]}},{"type":"Feature","properties":{"nome":"Passarela Metálica 2","detalhe":"via: footway","osm_id":"way/606834481"},"geometry":{"type":"Point","coordinates":[-51.2404479,-30.0421867]}},{"type":"Feature","properties":{"nome":null,"detalhe":"via: service","osm_id":"way/806014186"},"geometry":{"type":"Point","coordinates":[-51.1553241,-29.9894686]}},{"type":"Feature","properties":{"nome":"Avenida Presidente Castello Branco","detalhe":"via: motorway_link","osm_id":"way/883302672"},"geometry":{"type":"Point","coordinates":[-51.2045339,-29.9894504]}},{"type":"Feature","properties":{"nome":"Travessia Régis Bitencourt","detalhe":"via: motorway","osm_id":"way/883353868"},"geometry":{"type":"Point","coordinates":[-51.2369093,-29.988117]}},{"type":"Feature","properties":{"nome":null,"detalhe":"via: proposed","osm_id":"way/883353874"},"geometry":{"type":"Point","coordinates":[-51.2015776,-29.9871905]}},{"type":"Feature","properties":{"nome":null,"detalhe":"via: proposed","osm_id":"way/883353876"},"geometry":{"type":"Point","coordinates":[-51.2015455,-29.9885978]}},{"type":"Feature","properties":{"nome":null,"detalhe":"via: construction","osm_id":"way/883368327"},"geometry":{"type":"Point","coordinates":[-51.2033477,-29.9899731]}},{"type":"Feature","properties":{"nome":"BR-116;BR-290","detalhe":"via: motorway_link","osm_id":"way/883852109"},"geometry":{"type":"Point","coordinates":[-51.2045275,-29.9863756]}},{"type":"Feature","properties":{"nome":"BR-116;BR-290","detalhe":"via: motorway_link","osm_id":"way/883852110"},"geometry":{"type":"Point","coordinates":[-51.2030314,-29.9848795]}},{"type":"Feature","properties":{"nome":"Viaduto José Alencar Gomes da Silva","detalhe":"via: motorway_link","osm_id":"way/883852111"},"geometry":{"type":"Point","coordinates":[-51.1976864,-29.9740072]}},{"type":"Feature","properties":{"nome":"Viaduto José Alencar Gomes da Silva","detalhe":"via: motorway_link","osm_id":"way/883852112"},"geometry":{"type":"Point","coordinates":[-51.1980126,-29.9749179]}},{"type":"Feature","properties":{"nome":"BR-116;BR-290","detalhe":"via: motorway_link","osm_id":"way/883852113"},"geometry":{"type":"Point","coordinates":[-51.202502,-29.9864856]}},{"type":"Feature","properties":{"nome":null,"detalhe":"via: construction","osm_id":"way/883852114"},"geometry":{"type":"Point","coordinates":[-51.2041945,-29.9883339]}},{"type":"Feature","properties":{"nome":null,"detalhe":"via: motorway_link","osm_id":"way/883852115"},"geometry":{"type":"Point","coordinates":[-51.2060854,-29.9987628]}},{"type":"Feature","properties":{"nome":null,"detalhe":"via: motorway_link","osm_id":"way/883852116"},"geometry":{"type":"Point","coordinates":[-51.2055588,-29.9986613]}},{"type":"Feature","properties":{"nome":null,"detalhe":"via: service","osm_id":"way/904917599"},"geometry":{"type":"Point","coordinates":[-51.137136,-29.9901838]}},{"type":"Feature","properties":{"nome":null,"detalhe":"via: primary_link","osm_id":"way/907685382"},"geometry":{"type":"Point","coordinates":[-51.219594,-30.0254349]}},{"type":"Feature","properties":{"nome":"Rua Marinheiros","detalhe":"via: residential","osm_id":"way/916094122"},"geometry":{"type":"Point","coordinates":[-51.252359,-30.0310722]}},{"type":"Feature","properties":{"nome":"Avenida Bernardino Silveira Amorim","detalhe":"via: secondary","osm_id":"way/917403300"},"geometry":{"type":"Point","coordinates":[-51.1109491,-29.9859641]}},{"type":"Feature","properties":{"nome":"Avenida Caldéia","detalhe":"via: living_street","osm_id":"way/917674736"},"geometry":{"type":"Point","coordinates":[-51.1072209,-29.9846568]}},{"type":"Feature","properties":{"nome":null,"detalhe":"via: footway","osm_id":"way/924832311"},"geometry":{"type":"Point","coordinates":[-51.108344,-29.9851421]}},{"type":"Feature","properties":{"nome":null,"detalhe":"via: footway","osm_id":"way/926858549"},"geometry":{"type":"Point","coordinates":[-51.1361042,-29.9934031]}},{"type":"Feature","properties":{"nome":null,"detalhe":"via: steps","osm_id":"way/929889586"},"geometry":{"type":"Point","coordinates":[-51.1719408,-29.9704222]}},{"type":"Feature","properties":{"nome":null,"detalhe":"via: steps","osm_id":"way/929928751"},"geometry":{"type":"Point","coordinates":[-51.1113399,-29.9602994]}},{"type":"Feature","properties":{"nome":null,"detalhe":"via: steps","osm_id":"way/930347578"},"geometry":{"type":"Point","coordinates":[-51.1787748,-29.9768102]}},{"type":"Feature","properties":{"nome":"Avenida Praia de Belas","detalhe":"via: secondary","osm_id":"way/930398527"},"geometry":{"type":"Point","coordinates":[-51.2276778,-30.0478356]}},{"type":"Feature","properties":{"nome":"Avenida Praia de Belas","detalhe":"via: secondary","osm_id":"way/930398533"},"geometry":{"type":"Point","coordinates":[-51.2275919,-30.0478404]}},{"type":"Feature","properties":{"nome":"Avenida Presidente Castello Branco","detalhe":"via: primary","osm_id":"way/930400422"},"geometry":{"type":"Point","coordinates":[-51.2081158,-30.0022996]}},{"type":"Feature","properties":{"nome":null,"detalhe":"via: proposed","osm_id":"way/977074329"},"geometry":{"type":"Point","coordinates":[-51.202338,-29.9864488]}},{"type":"Feature","properties":{"nome":"Rua Dona Alzira","detalhe":"via: secondary","osm_id":"way/1212755797"},"geometry":{"type":"Point","coordinates":[-51.139829,-29.9898182]}},{"type":"Feature","properties":{"nome":"Passarela Setimo José Luizelli","detalhe":"via: footway","osm_id":"way/1282045361"},"geometry":{"type":"Point","coordinates":[-51.2202156,-30.0247713]}},{"type":"Feature","properties":{"nome":"Linha 1","detalhe":"ferrovia","osm_id":"way/1315736549"},"geometry":{"type":"Point","coordinates":[-51.1970264,-29.9972024]}},{"type":"Feature","properties":{"nome":null,"detalhe":"via: footway","osm_id":"way/1315819079"},"geometry":{"type":"Point","coordinates":[-51.2334779,-30.0544529]}},{"type":"Feature","properties":{"nome":null,"detalhe":"via: proposed","osm_id":"way/1321971625"},"geometry":{"type":"Point","coordinates":[-51.20254,-29.9886276]}},{"type":"Feature","properties":{"nome":null,"detalhe":"via: proposed","osm_id":"way/1321971626"},"geometry":{"type":"Point","coordinates":[-51.2025369,-29.9886687]}},{"type":"Feature","properties":{"nome":"Aeromóvel","detalhe":"ferrovia","osm_id":"way/1327251622"},"geometry":{"type":"Point","coordinates":[-51.1757981,-29.9894384]}},{"type":"Feature","properties":{"nome":"Aeromóvel","detalhe":"ferrovia","osm_id":"way/1327251623"},"geometry":{"type":"Point","coordinates":[-51.1826763,-29.9874405]}},{"type":"Feature","properties":{"nome":"Aeromóvel","detalhe":"ferrovia","osm_id":"way/1327251624"},"geometry":{"type":"Point","coordinates":[-51.1826252,-29.9873316]}},{"type":"Feature","properties":{"nome":null,"detalhe":"via: cycleway","osm_id":"way/1333609685"},"geometry":{"type":"Point","coordinates":[-51.1613263,-29.9737632]}},{"type":"Feature","properties":{"nome":"Ciclovia Severo Dullius","detalhe":"via: cycleway","osm_id":"way/1335845787"},"geometry":{"type":"Point","coordinates":[-51.1541073,-29.9872398]}},{"type":"Feature","properties":{"nome":"Passarela Setimo José Luizelli","detalhe":"via: footway","osm_id":"way/1355429037"},"geometry":{"type":"Point","coordinates":[-51.2194402,-30.0242052]}},{"type":"Feature","properties":{"nome":null,"detalhe":"via: footway","osm_id":"way/1392451539"},"geometry":{"type":"Point","coordinates":[-51.2176958,-29.9945753]}},{"type":"Feature","properties":{"nome":null,"detalhe":"via: footway","osm_id":"way/1392451540"},"geometry":{"type":"Point","coordinates":[-51.2174446,-29.9943893]}},{"type":"Feature","properties":{"nome":null,"detalhe":"via: footway","osm_id":"way/1392451541"},"geometry":{"type":"Point","coordinates":[-51.2179354,-29.9947479]}},{"type":"Feature","properties":{"nome":null,"detalhe":"via: footway","osm_id":"way/1412991655"},"geometry":{"type":"Point","coordinates":[-51.1757736,-29.9883968]}},{"type":"Feature","properties":{"nome":"Avenida Presidente Castello Branco","detalhe":"via: motorway_link","osm_id":"way/1467468207"},"geometry":{"type":"Point","coordinates":[-51.2050911,-29.9877687]}},{"type":"Feature","properties":{"nome":null,"detalhe":"via: unclassified","osm_id":"way/1467709719"},"geometry":{"type":"Point","coordinates":[-51.1379924,-29.9780572]}},{"type":"Feature","properties":{"nome":null,"detalhe":"via: service","osm_id":"way/1467709721"},"geometry":{"type":"Point","coordinates":[-51.1379853,-29.9723788]}},{"type":"Feature","properties":{"nome":null,"detalhe":"via: footway","osm_id":"way/1467896946"},"geometry":{"type":"Point","coordinates":[-51.2017549,-29.9812726]}},{"type":"Feature","properties":{"nome":null,"detalhe":"via: footway","osm_id":"way/1467896948"},"geometry":{"type":"Point","coordinates":[-51.2009385,-29.9811372]}},{"type":"Feature","properties":{"nome":null,"detalhe":"via: footway","osm_id":"way/1467896950"},"geometry":{"type":"Point","coordinates":[-51.2013553,-29.9811966]}},{"type":"Feature","properties":{"nome":"Viaduto José Eduardo Utzig","detalhe":"via: primary","osm_id":"way/1485107202"},"geometry":{"type":"Point","coordinates":[-51.190284,-30.0060939]}}]}