{"type":"FeatureCollection","features":[{"type":"Feature","properties":{"nome":null,"detalhe":"handrail","osm_id":"way/606792711"},"geometry":{"type":"Point","coordinates":[-51.2386043,-30.0424284]}},{"type":"Feature","properties":{"nome":null,"detalhe":"handrail","osm_id":"way/606792712"},"geometry":{"type":"Point","coordinates":[-51.2407463,-30.0415687]}},{"type":"Feature","properties":{"nome":null,"detalhe":"embankment","osm_id":"way/606792713"},"geometry":{"type":"Point","coordinates":[-51.2396901,-30.0420249]}},{"type":"Feature","properties":{"nome":null,"detalhe":"embankment","osm_id":"way/606792762"},"geometry":{"type":"Point","coordinates":[-51.2407898,-30.0415059]}},{"type":"Feature","properties":{"nome":null,"detalhe":"embankment","osm_id":"way/606792794"},"geometry":{"type":"Point","coordinates":[-51.2410141,-30.0406225]}},{"type":"Feature","properties":{"nome":null,"detalhe":"handrail","osm_id":"way/606792813"},"geometry":{"type":"Point","coordinates":[-51.2414698,-30.0346278]}},{"type":"Feature","properties":{"nome":null,"detalhe":"handrail","osm_id":"way/606792814"},"geometry":{"type":"Point","coordinates":[-51.2416031,-30.0346706]}},{"type":"Feature","properties":{"nome":null,"detalhe":"embankment","osm_id":"way/606792825"},"geometry":{"type":"Point","coordinates":[-51.2413526,-30.0344237]}},{"type":"Feature","properties":{"nome":null,"detalhe":"embankment","osm_id":"way/606792887"},"geometry":{"type":"Point","coordinates":[-51.2419232,-30.0367972]}},{"type":"Feature","properties":{"nome":null,"detalhe":"embankment","osm_id":"way/606792888"},"geometry":{"type":"Point","coordinates":[-51.2417203,-30.0387813]}},{"type":"Feature","properties":{"nome":null,"detalhe":"embankment","osm_id":"way/606792910"},"geometry":{"type":"Point","coordinates":[-51.239,-30.0425305]}},{"type":"Feature","properties":{"nome":null,"detalhe":"embankment","osm_id":"way/606792920"},"geometry":{"type":"Point","coordinates":[-51.2418246,-30.0374557]}},{"type":"Feature","properties":{"nome":null,"detalhe":"embankment","osm_id":"way/606792926"},"geometry":{"type":"Point","coordinates":[-51.2421913,-30.0353946]}},{"type":"Feature","properties":{"nome":null,"detalhe":"embankment","osm_id":"way/607108262"},"geometry":{"type":"Point","coordinates":[-51.2409762,-30.040539]}},{"type":"Feature","properties":{"nome":null,"detalhe":"embankment","osm_id":"way/607108277"},"geometry":{"type":"Point","coordinates":[-51.2393706,-30.0418574]}},{"type":"Feature","properties":{"nome":null,"detalhe":"embankment","osm_id":"way/607108278"},"geometry":{"type":"Point","coordinates":[-51.2360221,-30.042434]}},{"type":"Feature","properties":{"nome":null,"detalhe":"embankment","osm_id":"way/607108282"},"geometry":{"type":"Point","coordinates":[-51.2412125,-30.0392108]}},{"type":"Feature","properties":{"nome":null,"detalhe":"embankment","osm_id":"way/607108283"},"geometry":{"type":"Point","coordinates":[-51.2411778,-30.0398931]}},{"type":"Feature","properties":{"nome":null,"detalhe":"embankment","osm_id":"way/607108284"},"geometry":{"type":"Point","coordinates":[-51.2373474,-30.0423277]}},{"type":"Feature","properties":{"nome":null,"detalhe":"embankment","osm_id":"way/607108285"},"geometry":{"type":"Point","coordinates":[-51.2368606,-30.0423623]}},{"type":"Feature","properties":{"nome":null,"detalhe":"embankment","osm_id":"way/607108286"},"geometry":{"type":"Point","coordinates":[-51.2352161,-30.0424928]}},{"type":"Feature","properties":{"nome":null,"detalhe":"embankment","osm_id":"way/1289004495"},"geometry":{"type":"Point","coordinates":[-51.2199813,-30.0246767]}},{"type":"Feature","properties":{"nome":null,"detalhe":"embankment","osm_id":"way/1289004496"},"geometry":{"type":"Point","coordinates":[-51.2201061,-30.0246459]}},{"type":"Feature","properties":{"nome":null,"detalhe":"dyke","osm_id":"way/1312384249"},"geometry":{"type":"Point","coordinates":[-51.154937,-29.9884045]}},{"type":"Feature","properties":{"nome":null,"detalhe":"dyke","osm_id":"way/1312384251"},"geometry":{"type":"Point","coordinates":[-51.1547004,-29.9932587]}},{"type":"Feature","properties":{"nome":null,"detalhe":"dyke","osm_id":"way/1312384254"},"geometry":{"type":"Point","coordinates":[-51.126508,-29.977635]}},{"type":"Feature","properties":{"nome":null,"detalhe":"dyke","osm_id":"way/1312384255"},"geometry":{"type":"Point","coordinates":[-51.1074922,-29.9810599]}},{"type":"Feature","properties":{"nome":null,"detalhe":"dyke","osm_id":"way/1312384257"},"geometry":{"type":"Point","coordinates":[-51.113349,-29.9720259]}}]}