{"type":"FeatureCollection","features":[{"type":"Feature","properties":{"nome":null,"detalhe":"water_tower","osm_id":"node/5752222704"},"geometry":{"type":"Point","coordinates":[-51.240957,-30.0415326]}},{"type":"Feature","properties":{"nome":"EBAB Menino Deus","detalhe":"water_works","osm_id":"way/112414429"},"geometry":{"type":"Point","coordinates":[-51.2313685,-30.0608557]}},{"type":"Feature","properties":{"nome":"EBE Cristal e C2","detalhe":"wastewater_plant","osm_id":"way/207313674"},"geometry":{"type":"Point","coordinates":[-51.24832,-30.0909182]}},{"type":"Feature","properties":{"nome":"Hidráulica Ilha da Pintada","detalhe":"water_works","osm_id":"way/236845421"},"geometry":{"type":"Point","coordinates":[-51.2599266,-30.0137341]}},{"type":"Feature","properties":{"nome":"EBE 4S","detalhe":"wastewater_plant","osm_id":"way/244335047"},"geometry":{"type":"Point","coordinates":[-51.2246235,-30.1474846]}},{"type":"Feature","properties":{"nome":null,"detalhe":"water_tower","osm_id":"way/288129099"},"geometry":{"type":"Point","coordinates":[-51.1713175,-29.9699927]}},{"type":"Feature","properties":{"nome":null,"detalhe":"wastewater_plant","osm_id":"way/288520075"},"geometry":{"type":"Point","coordinates":[-51.1934509,-29.9910615]}},{"type":"Feature","properties":{"nome":null,"detalhe":"water_tower","osm_id":"way/419345450"},"geometry":{"type":"Point","coordinates":[-51.2071166,-30.0145814]}},{"type":"Feature","properties":{"nome":null,"detalhe":"water_tower","osm_id":"way/426389633"},"geometry":{"type":"Point","coordinates":[-51.1958325,-29.979404]}},{"type":"Feature","properties":{"nome":null,"detalhe":"water_tower","osm_id":"way/426416410"},"geometry":{"type":"Point","coordinates":[-51.1679812,-29.9782965]}},{"type":"Feature","properties":{"nome":null,"detalhe":"wastewater_plant","osm_id":"way/426492614"},"geometry":{"type":"Point","coordinates":[-51.1372268,-29.9699714]}},{"type":"Feature","properties":{"nome":"Reservatório Colônia de Pescadores Z-5","detalhe":"water_tower","osm_id":"way/426622312"},"geometry":{"type":"Point","coordinates":[-51.2602126,-30.0157893]}},{"type":"Feature","properties":{"nome":null,"detalhe":"water_tower","osm_id":"way/429392343"},"geometry":{"type":"Point","coordinates":[-51.2593688,-30.0147228]}},{"type":"Feature","properties":{"nome":"Estação de Bombeamento de Esgoto Ponta da Cadeia","detalhe":"water_works","osm_id":"way/759145031"},"geometry":{"type":"Point","coordinates":[-51.2401838,-30.0362666]}}]}