{"type": "FeatureCollection", "features": [{"id": "0", "type": "Feature", "properties": {}, "geometry": {"type": "MultiPolygon", "coordinates": [[[[-51.21306742202147, -30.189823582137027], [-51.211005991583335, -30.190075637869114], [-51.20884115656565, -30.190288532674284], [-51.21034120593569, -30.19036238580805], [-51.21306742202147, -30.189823582137027]]], [[[-51.22167390801272, -30.18659167973007], [-51.22113695575187, -30.18685924232722], [-51.22167390801272, -30.18685924232722], [-51.22167390801272, -30.18659167973007]]], [[[-51.241629498741865, -30.181741527071683], [-51.237315156199635, -30.18335450170263], [-51.2327374, -30.1827214], [-51.23199316639536, -30.182010928907193], [-51.23191280622824, -30.18254923007845], [-51.232989895068975, -30.18335699519585], [-51.23756873090598, -30.183626397031365], [-51.240148824478496, -30.18255000730221], [-51.24298763209457, -30.182366430253822], [-51.241629498741865, -30.181741527071683]]], [[[-51.24316152436199, -30.182483417500585], [-51.243226933554354, -30.182548789689317], [-51.243260096467345, -30.182549732578217], [-51.24316152436199, -30.182483417500585]]], [[[-51.24810328027443, -30.18580801857092], [-51.24834584400938, -30.18632043460551], [-51.2487439, -30.186239], [-51.24810328027443, -30.18580801857092]]], [[[-51.21413082702349, -30.183358857703933], [-51.21305510375517, -30.18389724425554], [-51.213055083263406, -30.1841652239721], [-51.2138615137275, -30.184165219921415], [-51.21413082702349, -30.183358857703933]]], [[[-51.19985285229388, -30.183358857703933], [-51.19958529578265, -30.1841652239721], [-51.19985285229388, -30.1841652239721], [-51.19985285229388, -30.183358857703933]]], [[[-51.20443443976748, -30.183088033749474], [-51.20524118440561, -30.183626399809317], [-51.205510163035804, -30.1825506521974], [-51.20443441927572, -30.1825506521974], [-51.20443443976748, -30.183088033749474]]], [[[-51.21170763084938, -30.181742469960582], [-51.210899500147065, -30.18201186901814], [-51.21009173001764, -30.183357018465568], [-51.21170664867102, -30.182818239776157], [-51.21170763084938, -30.181742469960582]]], [[[-51.23597950648128, -30.13406693952579], [-51.231338712102975, -30.13589074470061], [-51.23062330384884, -30.135391262821045], [-51.23076126285732, -30.13455697495315], [-51.23159026966378, -30.133832206347595], [-51.23309249158701, -30.133786400501865], [-51.23406610844433, -30.13297895767852], [-51.234066112495015, -30.13244191079225], [-51.232451160116284, -30.132711333119527], [-51.23127314781878, -30.133781900309483], [-51.23018084686818, -30.133787641668125], [-51.22948680187098, -30.13325013679055], [-51.22787162026115, -30.13325012756019], [-51.22715660879898, -30.133782531676314], [-51.22625505787513, -30.13351953862606], [-51.22571668349532, -30.13459528623798], [-51.22704361698493, -30.13410991057233], [-51.22780739304296, -30.134596998996024], [-51.22787185354293, -30.137019985211197], [-51.2286560574575, -30.137639577148715], [-51.228558478867114, -30.138731608357677], [-51.22693510924804, -30.140194812265964], [-51.225984322460185, -30.138907558895216], [-51.224100308997635, -30.138099349337992], [-51.22394388845188, -30.13945503184298], [-51.22248393449994, -30.139715760351063], [-51.22256967727645, -30.140582729464576], [-51.22194516349247, -30.141601156080227], [-51.222036120011474, -30.144194233408506], [-51.22136161079261, -30.144564073771086], [-51.21978997700379, -30.14429559155476], [-51.21978997700379, -30.144832555987417], [-51.22175528366327, -30.145483078506892], [-51.22356104383244, -30.14698774740179], [-51.2250605947465, -30.147050777768975], [-51.22544636812652, -30.14851561617403], [-51.225770157580705, -30.144871604488664], [-51.22822540000001, -30.140512299999997], [-51.232871499999995, -30.135953999999995], [-51.23597950648128, -30.13406693952579]]], [[[-51.239076183864704, -30.13270522279453], [-51.237029939406746, -30.131364326719922], [-51.23595374247247, -30.1316332881663], [-51.23595372198071, -30.132440071553884], [-51.23682020722941, -30.132767401990677], [-51.23700368124021, -30.13350906117546], [-51.239076183864704, -30.13270522279453]]], [[[-51.23999424110551, -30.131903127612993], [-51.2395643145987, -30.132446161387115], [-51.2408010062354, -30.13190310712123], [-51.23999424110551, -30.131903127612993]]], [[[-51.245822999999994, -30.129554600000002], [-51.24535317880557, -30.128669365475904], [-51.24511317746762, -30.128670285095087], [-51.245382573217235, -30.12974605319877], [-51.245822999999994, -30.129554600000002]]], [[[-51.255617772464234, -30.123551650220367], [-51.25534955758001, -30.12380581132754], [-51.255618692083424, -30.12375468601505], [-51.255617772464234, -30.123551650220367]]], [[[-51.25777385808035, -30.12334528650046], [-51.258110545180195, -30.123281328765675], [-51.25777477769954, -30.123282248384857], [-51.25777385808035, -30.12334528650046]]], [[[-51.2622321, -30.120036400000004], [-51.26046697841093, -30.117086010218777], [-51.260199339446075, -30.11708600616809], [-51.260199359937836, -30.11789278955568], [-51.26178292806237, -30.119502541224534], [-51.26154631819415, -30.1211251944624], [-51.2622321, -30.120036400000004]]], [[[-51.21440022277311, -30.11331438047093], [-51.21359387881332, -30.11358369985283], [-51.21359387476264, -30.1141207467391], [-51.21413090947711, -30.114120742688414], [-51.21440022277311, -30.11331438047093]]], [[[-51.2667418, -30.1038177], [-51.26612856270054, -30.10120577103149], [-51.266393602448844, -30.09984428869535], [-51.26525772145052, -30.099516958258548], [-51.26504662370077, -30.098497279517794], [-51.26148732211058, -30.09735847022339], [-51.26322432361781, -30.09817504346452], [-51.266000199916235, -30.101516287657727], [-51.26606321761009, -30.104300242482378], [-51.26770690000001, -30.103674499999997], [-51.2667418, -30.1038177]]], [[[-51.26479778646802, -30.104692602115378], [-51.26289282327628, -30.104962946839787], [-51.260468505964596, -30.10604054217352], [-51.25858298544014, -30.108195328476793], [-51.25831359246848, -30.11088839837892], [-51.258852360698, -30.112773737561543], [-51.25911989393952, -30.11223629946293], [-51.2586733, -30.110712100000004], [-51.2602403, -30.110689899999997], [-51.26100568745654, -30.111157326548472], [-51.2612990924484, -30.110531632298432], [-51.261979053831034, -30.1103654124368], [-51.2625285185849, -30.11077292327166], [-51.26262390119261, -30.111696130219496], [-51.263282596391036, -30.11169704983868], [-51.2645177616142, -30.1102771362315], [-51.26504754331996, -30.10946981514547], [-51.2623824, -30.108755], [-51.258671299999996, -30.1105229], [-51.258634520049824, -30.10952272777306], [-51.2608111, -30.106299699999997], [-51.26479778646802, -30.104692602115378]]], [[[-51.2523339, -30.094073899999998], [-51.2503711, -30.092295000000004], [-51.24826099999999, -30.082928], [-51.248462599999996, -30.08146169999999], [-51.25022985747193, -30.080986160209545], [-51.24960418147958, -30.08069275521769], [-51.248100198875996, -30.078291222235247], [-51.24770249355886, -30.078325598824485], [-51.24831425628196, -30.079207836159913], [-51.24828029792518, -30.080770238271644], [-51.24699894771493, -30.081255562045055], [-51.24726835472594, -30.084217372228405], [-51.24780621534458, -30.08497324540372], [-51.247070676420805, -30.086237006241216], [-51.24577335781918, -30.085811384159072], [-51.245380713487094, -30.083410359609733], [-51.24349538085097, -30.08125558253682], [-51.241879954806286, -30.08125558531477], [-51.23656208507979, -30.084650503283942], [-51.235414930481475, -30.084757785906707], [-51.23541495375119, -30.08583402767634], [-51.236222700610895, -30.08718054269618], [-51.23906491310212, -30.087895313345832], [-51.240314686908576, -30.090531491905836], [-51.23965761056943, -30.09179233064226], [-51.23444484788378, -30.09092235794243], [-51.23110757673177, -30.089806868966807], [-51.229756254167135, -30.088798836709095], [-51.22814124524186, -30.08852941160387], [-51.22958638472805, -30.090588259890485], [-51.22814126573362, -30.092570022017124], [-51.22822418816524, -30.09370213881287], [-51.227602474234395, -30.094455834865705], [-51.227870929873056, -30.097360075079386], [-51.22747660772126, -30.098439852330124], [-51.22571665851369, -30.0998439053013], [-51.22496938880559, -30.10110026141574], [-51.22259000881679, -30.101981237656837], [-51.220867142882824, -30.10199952387121], [-51.21978997700379, -30.10280770888598], [-51.22167527358515, -30.10442225739097], [-51.222818663848166, -30.103359808455846], [-51.225881680027015, -30.10368788350696], [-51.22625049791442, -30.10428384833843], [-51.226046232417936, -30.106708554656155], [-51.22409549151511, -30.108395595617104], [-51.22194475960664, -30.10873452428562], [-51.22107306138294, -30.110415221279656], [-51.21790420675648, -30.112236773128885], [-51.21790420675648, -30.113312541232563], [-51.21945578170277, -30.113285706215475], [-51.2200374225614, -30.113867347074088], [-51.22008948210875, -30.115132543749066], [-51.218981793805625, -30.116276043876805], [-51.219788554884836, -30.116545342766937], [-51.22283422183287, -30.113891116505993], [-51.22463767837791, -30.11465952991836], [-51.22544542801557, -30.113851762023003], [-51.22520772293876, -30.112613663763348], [-51.22620961713024, -30.110949740706136], [-51.22722487431244, -30.11121959420572], [-51.22733306925441, -30.11250456495712], [-51.227871862281454, -30.113043140025347], [-51.2294863642598, -30.111965949174422], [-51.229272302325704, -30.110388169543185], [-51.23083334300787, -30.108733127148284], [-51.23083335944895, -30.107656859471575], [-51.22991937067866, -30.107003277746465], [-51.229770416127025, -30.106220186429997], [-51.230379933937236, -30.10439354057704], [-51.23108564257861, -30.103696308378115], [-51.23271913374694, -30.10415287882517], [-51.23305333584206, -30.103280144873942], [-51.233985220911705, -30.10311504308553], [-51.234606660779, -30.103883472938975], [-51.23595530819539, -30.103890388523894], [-51.236761826775925, -30.10496108028102], [-51.23817845957748, -30.10506836695447], [-51.23918605385666, -30.10684687668852], [-51.239993236105974, -30.10684687668852], [-51.24053253010497, -30.105789848355194], [-51.23947636226136, -30.104669691216774], [-51.23981806268376, -30.103175584321963], [-51.24378259259559, -30.10172563953128], [-51.24511270380166, -30.102267042706874], [-51.247091894270504, -30.101734650599063], [-51.248613900093666, -30.102267045484826], [-51.24915225398171, -30.101728679424983], [-51.24916691009933, -30.09975454237771], [-51.25008201959629, -30.0967855739177], [-51.25076242327329, -30.096103609641226], [-51.252385023468854, -30.096070823759824], [-51.251401, -30.0948857], [-51.2523339, -30.094073899999998]]], [[[-51.25804233421077, -30.096342064833703], [-51.25718619335749, -30.096505465558604], [-51.25804233421077, -30.096609627430848], [-51.25804233421077, -30.096342064833703]]], [[[-51.25617712248033, -30.095802341543497], [-51.2556196157533, -30.096072580544575], [-51.25561961170261, -30.096609627430848], [-51.25661147737882, -30.09661054705003], [-51.25617712248033, -30.095802341543497]]], [[[-51.2466726783809, -30.077746777654927], [-51.246189394893655, -30.07748395961761], [-51.245921364716466, -30.077483936347893], [-51.246459682549734, -30.078020877510834], [-51.2466726783809, -30.077746777654927]]], [[[-51.24268677648271, -30.073441069576855], [-51.240832676416446, -30.069831356916254], [-51.2399262, -30.063336999999997], [-51.238646759857666, -30.062261013122203], [-51.239962988043885, -30.06412133337127], [-51.23945588999541, -30.06670649735502], [-51.240501779543116, -30.068970566410474], [-51.240533472993874, -30.070208721216673], [-51.241880403490605, -30.072902649299884], [-51.24268677648271, -30.073441069576855]]], [[[-51.294645700000004, -30.054053000000003], [-51.2886823, -30.0601722], [-51.2871083466874, -30.060156856938317], [-51.28611689999999, -30.058964099999997], [-51.28687729999999, -30.063278000000004], [-51.291464058014746, -30.06509053229518], [-51.2910103, -30.060323200000003], [-51.294645700000004, -30.054053000000003]]], [[[-51.21760707455826, -30.057733164652316], [-51.2170960399994, -30.057816180236603], [-51.21763297176849, -30.058085164952697], [-51.21760707455826, -30.057733164652316]]], [[[-51.2375691768592, -30.046816422811634], [-51.2376499153214, -30.047040609315907], [-51.23776116813491, -30.047040609315907], [-51.2375691768592, -30.046816422811634]]], [[[-51.21520986938295, -30.042460237515456], [-51.21520932964114, -30.04246077811221], [-51.21520986938295, -30.04246077811221], [-51.21520986938295, -30.042460237515456]]], [[[-51.21601697714817, -30.04165311320243], [-51.216017516889984, -30.041652572605674], [-51.21601697714817, -30.041652572605674], [-51.21601697714817, -30.04165311320243]]], [[[-51.212783848275414, -30.036802419947286], [-51.213592015032496, -30.035725229724655], [-51.21359203552426, -30.035457250008093], [-51.21251620931055, -30.03572665589429], [-51.212246916506324, -30.03653343523119], [-51.212783848275414, -30.036802419947286]]], [[[-51.17012467912803, -30.263639685067194], [-51.169681447956165, -30.263860802278096], [-51.1701955, -30.263662300000004], [-51.17012467912803, -30.263639685067194]]], [[[-51.165908987842364, -30.262561158105964], [-51.16317669582594, -30.26250165159621], [-51.16240776391447, -30.262312290403287], [-51.16264557112766, -30.26283147956066], [-51.165908987842364, -30.262561158105964]]], [[[-51.15853065712321, -30.261516088259476], [-51.15890612047132, -30.262022333943175], [-51.159686099999995, -30.261918499999997], [-51.15853065712321, -30.261516088259476]]], [[[-51.147803406701605, -30.260694945283817], [-51.148128868367756, -30.261214148928406], [-51.148128868367756, -30.260677184495748], [-51.147803406701605, -30.260694945283817]]], [[[-51.193238659297876, -30.24208753822627], [-51.1933882739223, -30.241371439108054], [-51.191938025659816, -30.241279332719735], [-51.193238659297876, -30.24208753822627]]], [[[-51.19286413424739, -30.238315912529107], [-51.1928276, -30.234811099999998], [-51.19158865173897, -30.234409462521786], [-51.19057780000001, -30.2332443], [-51.186884140716685, -30.233180922181134], [-51.185567609934616, -30.23373608132541], [-51.1838756, -30.233129299999995], [-51.18218445257716, -30.231122531427744], [-51.18072577905283, -30.228079179004798], [-51.179721970715285, -30.227436365595818], [-51.178854619449744, -30.224395843780957], [-51.17883996055418, -30.221882846516127], [-51.17804643220091, -30.219816012577272], [-51.17830211194385, -30.217302569359205], [-51.177689254975256, -30.21736180807443], [-51.17725194967113, -30.217205337734644], [-51.176586657088855, -30.216129515238865], [-51.17960899283809, -30.213082756930532], [-51.17964816702205, -30.21245417348557], [-51.178312259428694, -30.212029059260544], [-51.17749342219524, -30.210837865417876], [-51.174908387218814, -30.21080617474507], [-51.17183616799984, -30.20949085901827], [-51.16887376320708, -30.20976025807583], [-51.16810432759793, -30.21023769550697], [-51.16698704450677, -30.20976026085378], [-51.1634862653342, -30.209760237584064], [-51.163749099645905, -30.211162299619613], [-51.1630863263244, -30.21188605261225], [-51.16211872806926, -30.211375728977952], [-51.16086639982461, -30.21183109515764], [-51.15863577626871, -30.210837868195828], [-51.1572499893344, -30.211315302849016], [-51.15486518422709, -30.210837865417876], [-51.15337843850052, -30.21197559309806], [-51.152171643850366, -30.21191545226816], [-51.152027606243195, -30.212649166801437], [-51.151412429595034, -30.212991454379303], [-51.15064049779745, -30.212857315680864], [-51.14947632078178, -30.21164607370236], [-51.14796881225729, -30.211614380251604], [-51.14730196184042, -30.211106327142442], [-51.146162206537134, -30.211875680665752], [-51.1443587499921, -30.211915472759923], [-51.142851139921824, -30.212977656441684], [-51.14220216187622, -30.21191545226816], [-51.1408566052471, -30.2113766690889], [-51.14058763066759, -30.211913695483407], [-51.14127660397476, -30.212366079201587], [-51.14134365633894, -30.213046873279676], [-51.13936819905201, -30.215317342607893], [-51.13816306487037, -30.215417676129807], [-51.13776908703155, -30.2166093495961], [-51.13562916348469, -30.217271818797347], [-51.13454261612662, -30.217503849908788], [-51.133313941377295, -30.217034087142878], [-51.13300326982409, -30.217943361256605], [-51.13115877538037, -30.218650498155945], [-51.1309468410982, -30.22006169439734], [-51.129811796632296, -30.220266909169016], [-51.12969023875832, -30.22116857002421], [-51.128734213633834, -30.221613918346574], [-51.12837945594738, -30.223259069443298], [-51.12765665112714, -30.224038117746762], [-51.12711786240586, -30.225653580306837], [-51.130298564541164, -30.231879256086717], [-51.1296482064548, -30.233352738601397], [-51.12819544262637, -30.23454478933171], [-51.12819542618529, -30.2350822533374], [-51.12928553211127, -30.235856355578946], [-51.12910941495557, -30.237124364298555], [-51.127493309202606, -30.23802916459017], [-51.12577077793444, -30.237778032527952], [-51.124962696408936, -30.239124563988863], [-51.125501464638454, -30.245050038797714], [-51.12624783589412, -30.245544811671007], [-51.12610405301098, -30.24671791971582], [-51.1242285778769, -30.24739213744516], [-51.12366916847654, -30.246898642383435], [-51.123613851102085, -30.245860001089], [-51.12172855857141, -30.244782499470283], [-51.11849670148249, -30.244782499470283], [-51.112839390740575, -30.24586010681233], [-51.1046718116966, -30.25036484678479], [-51.10290814080323, -30.24939995333149], [-51.10179371905312, -30.249811402274815], [-51.10280538590825, -30.250089433907537], [-51.10304419804528, -30.25096326327446], [-51.1008541, -30.2560834], [-51.09909976155697, -30.257148680655433], [-51.10141732936747, -30.256383181611806], [-51.10297829598762, -30.256383181611806], [-51.10534777231083, -30.257650283699764], [-51.10551522444182, -30.259343850905196], [-51.1066013, -30.258983500000003], [-51.104501392555946, -30.25564645670031], [-51.1049339, -30.251845199999995], [-51.10735666642902, -30.249751427875385], [-51.10891980539919, -30.24936138778508], [-51.1137188, -30.24637089999999], [-51.1186416, -30.2458599], [-51.12308650000001, -30.2466932], [-51.123615277271725, -30.247744036661064], [-51.12820550000001, -30.247770499999994], [-51.13262410000001, -30.251646199999996], [-51.13693789999999, -30.259729600000004], [-51.1373105, -30.26583], [-51.133804387330606, -30.269297123612937], [-51.13576185686533, -30.269001418273792], [-51.136544851134296, -30.26875740032273], [-51.13725959463631, -30.267531949019148], [-51.14381861882754, -30.264446966903858], [-51.14450442345188, -30.262922132678614], [-51.14597377365029, -30.262291827549895], [-51.147320681118906, -30.25744436246961], [-51.146385825069174, -30.257309338770494], [-51.144718305465084, -30.255680864983002], [-51.14334107350504, -30.25309375934276], [-51.14378437481853, -30.252020318879737], [-51.144896502766436, -30.251515707831604], [-51.14632582894214, -30.249939043439326], [-51.14868395457622, -30.249634226002712], [-51.15195323699427, -30.250645835976464], [-51.15215700822451, -30.251874831003136], [-51.15109408412162, -30.25501927228405], [-51.151093141232714, -30.25634619661061], [-51.15217166434213, -30.260136958705775], [-51.15271001823017, -30.260675324765618], [-51.157687883978625, -30.261174977954667], [-51.155417189233226, -30.256454662206842], [-51.15459528597771, -30.251727326827506], [-51.1550674, -30.248576099999998], [-51.1527045, -30.248520899999995], [-51.151870599999995, -30.246483500000004], [-51.152751099999996, -30.242931199999997], [-51.1562162, -30.2398819], [-51.162588349455426, -30.238060226700266], [-51.167069500000004, -30.237424], [-51.16994992408659, -30.238314992909924], [-51.16969522107583, -30.236961723909452], [-51.17363578323928, -30.23266232620203], [-51.17797570169622, -30.23313805394945], [-51.17832484322244, -30.235581293633395], [-51.17776332044462, -30.236513893827027], [-51.17973090189443, -30.2353913443217], [-51.1811946, -30.2352457], [-51.184886938340576, -30.235060353864817], [-51.18805255963388, -30.23566610017096], [-51.19098237697711, -30.239124070181358], [-51.19286413424739, -30.238315912529107]], [[-51.137051215046554, -30.245146679233763], [-51.13571298136246, -30.245585413744507], [-51.133501961476334, -30.244940159187617], [-51.13271035761361, -30.24410816203986], [-51.13285867257652, -30.242866084029977], [-51.13388995374122, -30.24187253009534], [-51.13500985228716, -30.241928935620027], [-51.1367043663644, -30.24335407894636], [-51.137051215046554, -30.245146679233763]], [[-51.17581832129965, -30.21855054245549], [-51.17510565455696, -30.219453762658333], [-51.17404553857477, -30.218710674443987], [-51.174895410934354, -30.21774232414307], [-51.17581832129965, -30.21855054245549]], [[-51.191830280511276, -30.236364992997533], [-51.19193028598587, -30.23744916326242], [-51.190876437765276, -30.237658786706767], [-51.1906166632962, -30.236505771178845], [-51.18982630545992, -30.2365728261145], [-51.18826455237986, -30.235453499425663], [-51.187868776315085, -30.234175629926686], [-51.188582971518905, -30.23373608132541], [-51.19027143381562, -30.234099946149446], [-51.19093296161391, -30.235460900756614], [-51.19082396815892, -30.23629905456551], [-51.191830280511276, -30.236364992997533]]], [[[-51.17830265168566, -30.21730202876245], [-51.17830211194385, -30.217302569359205], [-51.17830265168566, -30.217302569359205], [-51.17830265168566, -30.21730202876245]]], [[[-51.1791102991927, -30.216355280726514], [-51.18026309207622, -30.21480273904621], [-51.17983500543017, -30.21490475980131], [-51.1791102991927, -30.216355280726514]]], [[[-51.180651463805326, -30.21441436296197], [-51.18115609769743, -30.214064577119018], [-51.18072759330958, -30.21407066695225], [-51.180651463805326, -30.21441436296197]]], [[[-51.181889523526294, -30.213530943662043], [-51.18180494707695, -30.21353187454263], [-51.18172380130852, -30.21369935590441], [-51.181889523526294, -30.213530943662043]]], [[[-51.208107715235876, -30.190436238941817], [-51.205961065143484, -30.19034866980138], [-51.20513419829036, -30.18981596115109], [-51.20551013976609, -30.18793821524167], [-51.204971788655996, -30.186591700221836], [-51.19448549581844, -30.18632135827538], [-51.192580589173225, -30.18713050389286], [-51.190185173027935, -30.189739139819373], [-51.186654303851796, -30.19063262480913], [-51.18689202536969, -30.194833808593604], [-51.18467694771148, -30.197759470348018], [-51.18284369920343, -30.199467654510862], [-51.1783030520548, -30.200061354386232], [-51.17884184355403, -30.202215564070794], [-51.17964882077795, -30.203179350916823], [-51.179650030802875, -30.204640180590395], [-51.18094167573543, -30.206025821149787], [-51.1815356981048, -30.208680786952968], [-51.18334773391799, -30.208261229103094], [-51.18392867212392, -30.209059520876494], [-51.183960342304964, -30.210297202016722], [-51.18516858829914, -30.21073767023718], [-51.18514232527197, -30.21150647114348], [-51.183959422685774, -30.212652317814307], [-51.18589469606915, -30.21196566962892], [-51.18681487327638, -30.21272273815551], [-51.187085446489846, -30.211759071701966], [-51.187961400000006, -30.21114], [-51.19016807011282, -30.212005210696557], [-51.18977925527232, -30.211275610926904], [-51.19009080843443, -30.209708767679047], [-51.193363671780126, -30.208416657130737], [-51.19665595038069, -30.20839887118492], [-51.198883677529636, -30.20976693895085], [-51.1987771085338, -30.21110540752326], [-51.19953929999999, -30.210742800000006], [-51.19958352782373, -30.209221362633603], [-51.19561768864214, -30.207728852313014], [-51.194328999999996, -30.199762], [-51.19516731897829, -30.198019578090893], [-51.19970803863345, -30.193210820255263], [-51.20586228960711, -30.190670639626784], [-51.208107715235876, -30.190436238941817]]], [[[-51.145704283351506, -30.18739941157065], [-51.14516735436037, -30.18632227789456], [-51.14570430662122, -30.187667447833753], [-51.145704283351506, -30.18739941157065]]], [[[-51.161868040336735, -30.179855023835007], [-51.16080452017066, -30.17787250716001], [-51.16159865179783, -30.176891456866905], [-51.161598655848515, -30.176085008145122], [-51.16106128646824, -30.176085028636887], [-51.15944535235969, -30.179586758340815], [-51.15944533314066, -30.180663082564067], [-51.16105994680291, -30.18120179973079], [-51.161868040336735, -30.179855023835007]]], [[[-51.164004498316565, -30.17823930321003], [-51.16429259007496, -30.17770005358578], [-51.16429261334468, -30.17743201732268], [-51.16375566108382, -30.17743201732268], [-51.164004498316565, -30.17823930321003]]], [[[-51.166180222830356, -30.1755462044741], [-51.16537203558151, -30.176354409980632], [-51.165910827080744, -30.177430178084315], [-51.16698655034906, -30.17581418419066], [-51.166180222830356, -30.1755462044741]]], [[[-51.19688949904811, -30.171505176941427], [-51.19662194253688, -30.17177273953857], [-51.19688949904811, -30.17177273953857], [-51.19688949904811, -30.171505176941427]]], [[[-51.17481864669051, -30.163748582091277], [-51.177493001025134, -30.162613159584794], [-51.17749300507582, -30.16234551453403], [-51.174800890868724, -30.163423039422465], [-51.17481864669051, -30.163748582091277]]], [[[-51.2266645, -30.176923999999993], [-51.22625455537536, -30.170367972503012], [-51.2266336, -30.168213399999992], [-51.23164153025672, -30.165846316276735], [-51.231373520571296, -30.165578359829887], [-51.22832791016978, -30.167154975970835], [-51.22756283872825, -30.167002957377417], [-51.22735309639797, -30.165983248370477], [-51.228604306228235, -30.163429388117855], [-51.232152281107936, -30.16291784631729], [-51.232685605634714, -30.16345117084407], [-51.23272005336613, -30.164697993340415], [-51.2334189, -30.163597700000004], [-51.232568218501044, -30.16234459491485], [-51.230202899999995, -30.1627463], [-51.228006699999995, -30.1605677], [-51.22520772293876, -30.15280712225381], [-51.2252035067799, -30.151568521494386], [-51.221944725881286, -30.152108265276357], [-51.22140637199324, -30.1526466313362], [-51.2210153978779, -30.15462631665284], [-51.220059372753404, -30.15507166497522], [-51.22106793196451, -30.158186183002613], [-51.22092916916727, -30.160785642154682], [-51.217364941591285, -30.161267930461705], [-51.21494037984476, -30.16234553780375], [-51.21386327456294, -30.16288423575144], [-51.21369395614475, -30.163966218668676], [-51.212516312255936, -30.16476971393422], [-51.212501656138315, -30.16728265465252], [-51.21170812500709, -30.16880973646736], [-51.214670984095136, -30.170695108926807], [-51.21712474798946, -30.17051109229785], [-51.218141932325054, -30.17215146941141], [-51.21791035394404, -30.173183254109365], [-51.215479665501704, -30.17473758184815], [-51.21547399962686, -30.176090737525374], [-51.213879664388315, -30.176714245927116], [-51.21224547389561, -30.175546224965863], [-51.210271397137326, -30.175800970683756], [-51.207127011199454, -30.17446862040177], [-51.20497321077495, -30.174737998967565], [-51.201253818361124, -30.179374568248587], [-51.199332293909045, -30.179418883681556], [-51.19823656024982, -30.178509628715414], [-51.19429690578412, -30.178061770424822], [-51.19393465640916, -30.1765018742279], [-51.194734333051194, -30.175276802638585], [-51.19370797736439, -30.1754649428243], [-51.1931179585535, -30.17446859713205], [-51.191889159731886, -30.174573088891446], [-51.19063509880709, -30.173602463024224], [-51.19042399700666, -30.17285210366537], [-51.189232321610014, -30.172310097941395], [-51.18910183232953, -30.171264252561613], [-51.19042441817677, -30.170964513540273], [-51.190963712175765, -30.16963808337143], [-51.18922496968295, -30.168574111007818], [-51.18907702230927, -30.16746414940875], [-51.18850386155094, -30.1683693765922], [-51.187731882799575, -30.1685417567508], [-51.18874931728118, -30.17032761389892], [-51.18819366239197, -30.17119890518865], [-51.186494784571, -30.170507118437644], [-51.186007714777716, -30.169518326422693], [-51.18638306076244, -30.166925263284114], [-51.18503655973099, -30.166386565336424], [-51.184229738054576, -30.166654104663852], [-51.18535891783249, -30.166986670345935], [-51.185243426684, -30.16806721407922], [-51.18413337470004, -30.16863988601876], [-51.1828827593065, -30.168272354915285], [-51.18279739736967, -30.16937870234098], [-51.18168059421883, -30.170541635723627], [-51.1798296774308, -30.170682335809037], [-51.17896582984527, -30.170100740576196], [-51.17883996333213, -30.168810741466892], [-51.17789957438626, -30.167805273864314], [-51.177762483279054, -30.16611714428188], [-51.17722546905634, -30.16638612494729], [-51.17721854937343, -30.16773513979443], [-51.17641645782963, -30.168434609889864], [-51.17393256233096, -30.16740622080747], [-51.17368194050209, -30.165980418469474], [-51.17452965183005, -30.165307095486295], [-51.174345227567656, -30.16471217555354], [-51.173723303819585, -30.164770131053636], [-51.17320111914468, -30.16552769036423], [-51.167971207283706, -30.166918957444235], [-51.165100800593514, -30.164500729218126], [-51.16409914881995, -30.164685773943113], [-51.16230676171525, -30.163696816833166], [-51.162137426855985, -30.16261449925013], [-51.161344395236114, -30.161739554552952], [-51.161598655848515, -30.159920898014427], [-51.1600770671448, -30.160453313391958], [-51.159337684279464, -30.16007543934224], [-51.158904677860605, -30.157226462539896], [-51.1580664017482, -30.156351024582374], [-51.1580964878338, -30.155340593144775], [-51.156486493019834, -30.15266149793843], [-51.15782709486214, -30.150221009817063], [-51.157692737734045, -30.1468610958605], [-51.158904698352366, -30.146179565164974], [-51.15905314830975, -30.145439402294], [-51.160179948394486, -30.144430942994987], [-51.16213752980137, -30.14483255193673], [-51.16321500985445, -30.142947160258252], [-51.162690290417984, -30.141537892442333], [-51.163363480303595, -30.14005136558377], [-51.16429259285291, -30.1394449363966], [-51.164023634714475, -30.137021762487713], [-51.1634862653342, -30.137021741995948], [-51.163419429571675, -30.1384479909384], [-51.162139286586125, -30.138638153009015], [-51.16235037273407, -30.141134306599774], [-51.1602535203895, -30.142409696252564], [-51.15985810099445, -30.14373654903623], [-51.15675139208558, -30.146989192790457], [-51.1575075352523, -30.149384319200408], [-51.156751375644504, -30.150222349482398], [-51.156846585236124, -30.151441000018693], [-51.15593836686245, -30.152308094805488], [-51.15400868095586, -30.152695974454918], [-51.15327191009277, -30.152091322233865], [-51.15351678336006, -30.150761235607035], [-51.15048998072733, -30.151652371693892], [-51.149492138510695, -30.150924593752], [-51.15028401387291, -30.14968220614604], [-51.150015055734485, -30.149144845085733], [-51.147110900153386, -30.149413306810295], [-51.14639019369919, -30.14905325185684], [-51.14496514315972, -30.14656727099923], [-51.14570430662122, -30.14456499339027], [-51.14186319452675, -30.14338010342546], [-51.14085560024757, -30.14187099552692], [-51.13865039651497, -30.141665375067127], [-51.13817586125784, -30.140881274772376], [-51.13816122563199, -30.138368751173505], [-51.13640502154683, -30.1391129356929], [-51.13573666388545, -30.138099349337992], [-51.13479926498494, -30.138159490167904], [-51.13379412976725, -30.137503446299206], [-51.133849643503616, -30.13637343823501], [-51.135737081004876, -30.135672873088257], [-51.136544830642535, -30.134865105192905], [-51.13573704727952, -30.13298068948166], [-51.1327746762121, -30.13298073773299], [-51.1319668801756, -30.133250120349473], [-51.13115879587213, -30.134327306521413], [-51.13174819981363, -30.135252196600753], [-51.13142817112999, -30.137019902757583], [-51.13314971289246, -30.136840512629323], [-51.134391107256334, -30.1389056951144], [-51.1351422739959, -30.139031561627544], [-51.13600748175403, -30.139983302456443], [-51.13775095591192, -30.140278853015907], [-51.13753269152881, -30.141454486726104], [-51.13600789887345, -30.141601573199644], [-51.13600789887345, -30.142138537632302], [-51.14004803163157, -30.142245684493233], [-51.14274237549441, -30.144832535495652], [-51.14452824168222, -30.144974404304172], [-51.144628562861136, -30.148065378013555], [-51.1455236346031, -30.14835878300541], [-51.14624493735883, -30.150220592697647], [-51.148471832061674, -30.150088381540712], [-51.14893891534674, -30.15156801899462], [-51.15082424798286, -30.152645188725486], [-51.15252892899153, -30.152659844843104], [-51.15351814893249, -30.153183989618558], [-51.155438400689555, -30.15290209306954], [-51.15719858125071, -30.15467810853936], [-51.15756987722532, -30.155435593969866], [-51.157290167143735, -30.156686319203537], [-51.158622506215266, -30.157945338848204], [-51.15863716233289, -30.160997083237525], [-51.15944491197055, -30.161804851132878], [-51.16076396749311, -30.161903022868383], [-51.1618547556993, -30.16321903711226], [-51.161622844856566, -30.16486654494054], [-51.15971474533135, -30.16530751260571], [-51.161096665872584, -30.165644932021515], [-51.16133109933728, -30.166923506499362], [-51.16235124470705, -30.167049352520745], [-51.163202176845736, -30.167994854018495], [-51.163202176845736, -30.168817418409226], [-51.161869911328274, -30.170156745644917], [-51.16267769469129, -30.17123396084916], [-51.1640833548333, -30.171830668139865], [-51.16429445258305, -30.17285034688062], [-51.16510263983189, -30.173658552387153], [-51.16822933296493, -30.173674843782013], [-51.16941154970678, -30.17446673740192], [-51.17021931578552, -30.17285210366537], [-51.16941121504098, -30.172043984663134], [-51.168087069690735, -30.172411629233693], [-51.167277844233766, -30.171637229563768], [-51.167580675663814, -30.16830956417817], [-51.16899046074747, -30.16714228439583], [-51.17102750708505, -30.1677317120059], [-51.17150466765832, -30.16660310968445], [-51.172511189337136, -30.166345187459488], [-51.173992282449774, -30.168270495185155], [-51.17533926119785, -30.169078700691692], [-51.17766287583165, -30.16871836991683], [-51.17830300658141, -30.170156711919553], [-51.17938014089555, -30.17096451076232], [-51.183689107316965, -30.17150333770306], [-51.18401304359931, -30.170314259081238], [-51.18533100357603, -30.170161596488096], [-51.18638448693208, -30.171503317211297], [-51.187536378324445, -30.171780845018723], [-51.187665045294075, -30.17326556053446], [-51.18638487906987, -30.173929410066975], [-51.185428266845264, -30.176555769180585], [-51.18422974210526, -30.177162533033552], [-51.184754477982814, -30.17833669742451], [-51.18476844710018, -30.180124192388742], [-51.18611364857174, -30.179855211723336], [-51.18675977206998, -30.177831764726843], [-51.18773002029148, -30.176891848079247], [-51.1869908800997, -30.174854463727907], [-51.18732699599131, -30.173745613984412], [-51.1891692806387, -30.173119073219464], [-51.19275501943456, -30.175698765629942], [-51.19321795853, -30.176987740810766], [-51.19284948242308, -30.177720138436776], [-51.19311979779188, -30.18012419643943], [-51.19599147042017, -30.178940647154658], [-51.19683681290054, -30.17940960164439], [-51.19689133828649, -30.18039359827494], [-51.19798712730505, -30.179369418938272], [-51.20012385805078, -30.18066298884905], [-51.202008018290805, -30.180663000110453], [-51.20208181793335, -30.179689785900425], [-51.20335497654712, -30.1790470062168], [-51.203429708250276, -30.177958671037665], [-51.20485731240767, -30.175938342820228], [-51.20647128127385, -30.175074602469827], [-51.21063004785092, -30.176891351143574], [-51.211321880257834, -30.176178551514464], [-51.21206846916002, -30.176165826647658], [-51.212516291764175, -30.177430178084315], [-51.21375558954247, -30.177552199213938], [-51.21413266626187, -30.178507785426362], [-51.214693627764966, -30.177073885669785], [-51.21715420346905, -30.176130530789578], [-51.217660716588924, -30.176689381897763], [-51.21763045500556, -30.177715892316765], [-51.216556308389215, -30.1814524863384], [-51.21734485674038, -30.182280330742703], [-51.21844115960195, -30.18066298821022], [-51.217908723932105, -30.179680189768494], [-51.21828662929134, -30.178940777439365], [-51.21980443247464, -30.178781543263174], [-51.221943386215955, -30.17931598688221], [-51.22345360394318, -30.177717845642434], [-51.225984322460185, -30.17823837954016], [-51.22637181568264, -30.177595088160437], [-51.22705260976071, -30.177528035796236], [-51.22894943249071, -30.179585392768406], [-51.22950805252143, -30.17963855340739], [-51.2266645, -30.176923999999993]], [[-51.227318422367155, -30.160100553532295], [-51.22673365662841, -30.161241592856204], [-51.225477118688374, -30.160619775483646], [-51.225511077045155, -30.15959617704294], [-51.22604484987193, -30.159137167605312], [-51.22679854917435, -30.15928016763704], [-51.227318422367155, -30.160100553532295]]], [[[-51.22996071212469, -30.180070677892214], [-51.230027019539854, -30.180393680728553], [-51.23061913896999, -30.18069923489019], [-51.22996071212469, -30.180070677892214]]], [[[-51.23077387473379, -30.180846950992386], [-51.23083478561859, -30.1809323814542], [-51.23086434974868, -30.180933321565146], [-51.23077387473379, -30.180846950992386]]], [[[-51.23476024061496, -30.058770633948612], [-51.23380107274671, -30.054329851652483], [-51.234066112495015, -30.051621360138785], [-51.233529180725924, -30.05189034485488], [-51.233012718504604, -30.054681194216318], [-51.231292618586686, -30.05447306148096], [-51.23008650488114, -30.052928195557698], [-51.23057503485405, -30.052044717579054], [-51.231372154998866, -30.05188892273593], [-51.231372154998866, -30.050004949125714], [-51.22975720262013, -30.04973556778197], [-51.22848261864082, -30.05015510919076], [-51.22787000620318, -30.048657857494543], [-51.22496893075101, -30.04774155511602], [-51.224098494740886, -30.0462329400345], [-51.22286321076907, -30.04523526492479], [-51.22248409180001, -30.04378589442218], [-51.223290282510405, -30.043268063999562], [-51.224099389378445, -30.041672211503442], [-51.22308060550815, -30.040702616172762], [-51.22382906995895, -30.038959391416128], [-51.221978671112936, -30.038121380156852], [-51.22248209526156, -30.036265455514627], [-51.22167576774286, -30.03653444023072], [-51.221563954944536, -30.03754395873759], [-51.22083851791709, -30.03793171290719], [-51.21869394794265, -30.03756181849625], [-51.216824784519645, -30.035996053679114], [-51.21601801938975, -30.03599607417088], [-51.215455635767704, -30.037160551600177], [-51.21413266626187, -30.037612464692184], [-51.21413266626187, -30.038418830960353], [-51.21547780172088, -30.037880109742943], [-51.21597257864486, -30.03713363777597], [-51.21717362506141, -30.037303450466666], [-51.21771775393023, -30.03875350691402], [-51.216981706669706, -30.040725474168234], [-51.216018436509174, -30.041114688553833], [-51.216017516889984, -30.041652572605674], [-51.218734743774995, -30.04236344460612], [-51.218964825024734, -30.043384567107516], [-51.21846798951118, -30.04397184817533], [-51.215648878242426, -30.0436699404895], [-51.21520932964114, -30.04246077811221], [-51.21368022955387, -30.0436894651385], [-51.212926903283744, -30.043726473684984], [-51.211975661026564, -30.041114688553833], [-51.210955515656806, -30.040988842532453], [-51.21009030789868, -30.040037101703554], [-51.20901414701918, -30.04003708121179], [-51.20842412820828, -30.041302828739557], [-51.206589168153215, -30.040306503539064], [-51.20506305215408, -30.041490032332078], [-51.20350940351899, -30.041019305946126], [-51.20308560128927, -30.04003708121179], [-51.20254823190899, -30.040037101703554], [-51.202279264540195, -30.04057427487554], [-51.202803993207034, -30.041445931908278], [-51.20208939394138, -30.042349978882932], [-51.20087540094631, -30.042724539038424], [-51.19958506655155, -30.041922905321773], [-51.198238337526334, -30.042730682447488], [-51.197867557052795, -30.04416905817558], [-51.19635254678726, -30.04407810874446], [-51.196577275143135, -30.045632298283167], [-51.19581377577979, -30.04650230814465], [-51.19435505678207, -30.050353899799493], [-51.193658593341794, -30.050813072178638], [-51.193325299172564, -30.05276322848018], [-51.19096424840089, -30.05269894249922], [-51.188954279458464, -30.055237650124667], [-51.18449871668477, -30.057278819176293], [-51.18322388376204, -30.05902742085453], [-51.178564362376406, -30.058593021980684], [-51.175607651947935, -30.05674001550527], [-51.17129737650062, -30.055393009105664], [-51.15863666817516, -30.055662410941174], [-51.153518239204374, -30.05781757737394], [-51.15136347709328, -30.059972399920227], [-51.1499311159166, -30.064581388326996], [-51.147890040338346, -30.066622500990594], [-51.14624446369287, -30.06697728803266], [-51.14454583203944, -30.068015100502585], [-51.14247316763312, -30.068324285201903], [-51.13905078853139, -30.070906573447164], [-51.13708506475248, -30.071557116458404], [-51.13377185512322, -30.073688326557303], [-51.13171628615809, -30.073441989196038], [-51.126848026267105, -30.07398173297801], [-51.12563535902715, -30.075650451654468], [-51.123615277271725, -30.075059340320056], [-51.12222965554, -30.076081613846572], [-51.120090633794696, -30.07650457579158], [-51.1179583011956, -30.075867529385512], [-51.11688080065077, -30.07667573084136], [-51.1172483571385, -30.077578463507084], [-51.11688083410064, -30.078560385339408], [-51.11698675493657, -30.07897849312629], [-51.117588929267335, -30.078817580401665], [-51.11875528614918, -30.076771749314958], [-51.12011212752719, -30.077212674782253], [-51.12349739039237, -30.075827517850417], [-51.1255000425195, -30.077212674782253], [-51.12588074090758, -30.076055539093687], [-51.12742153312584, -30.074282659513838], [-51.13200686313726, -30.07395805622886], [-51.13385131075757, -30.074249254591624], [-51.13627587250411, -30.07317164724958], [-51.13693882897312, -30.07224939611056], [-51.13923919202452, -30.071285879874377], [-51.14294077752521, -30.06869911916041], [-51.14812928548718, -30.066975405032814], [-51.150822805372144, -30.06428182428888], [-51.15085449604495, -30.06277432419372], [-51.15199199070469, -30.059848662439315], [-51.153692735362846, -30.05820672282667], [-51.158135571206586, -30.05625466542788], [-51.171066010011785, -30.05591586897932], [-51.176143048083595, -30.057615913096292], [-51.178033218694004, -30.058893349967466], [-51.17929788373981, -30.058933142061637], [-51.17991898894131, -30.05943215363849], [-51.18124506561925, -30.059192171950645], [-51.182611997984466, -30.05997095453156], [-51.18422831593562, -30.05916275180298], [-51.18550530596442, -30.057653643904438], [-51.18665246056273, -30.057546361281673], [-51.18702011115115, -30.056596897893947], [-51.189077104762895, -30.05592994621792], [-51.19102502645701, -30.0532805983978], [-51.19338743675674, -30.053505329698314], [-51.19458324130032, -30.052496767312068], [-51.196352464333636, -30.054582937040358], [-51.19742867394141, -30.054313564237148], [-51.19883270692412, -30.052822974263847], [-51.20039163974243, -30.052427808860568], [-51.20039164379311, -30.051621360138785], [-51.199562108939034, -30.051399041164828], [-51.199314056743965, -30.050543670343124], [-51.19847576419046, -30.04993729955527], [-51.19871101529141, -30.04871998873851], [-51.201469643911, -30.048386678382517], [-51.20211241750873, -30.04738289988504], [-51.20379565381832, -30.04683047004363], [-51.20451365295471, -30.047106553038905], [-51.20497318579332, -30.048925885939358], [-51.2063197724036, -30.050003089395585], [-51.2068575589033, -30.050003089395585], [-51.20765704589584, -30.048550956306713], [-51.20879952818637, -30.048068952509954], [-51.2098219171486, -30.04919488388905], [-51.21198372596282, -30.048688886591194], [-51.21380533639505, -30.04940600213057], [-51.21440206201149, -30.050811315393887], [-51.2167691861293, -30.050937161415252], [-51.21713133623626, -30.051849655046873], [-51.21628783225879, -30.053235931913488], [-51.21749209779803, -30.053531461981187], [-51.21790421801788, -30.055121973993156], [-51.21925076838514, -30.0572769389544], [-51.219788554884836, -30.0572769389544], [-51.221468406632006, -30.055326885598248], [-51.22257688105553, -30.05485873122005], [-51.224195522639896, -30.055788989527898], [-51.22436932135318, -30.057546386263287], [-51.22625505787513, -30.058893349967466], [-51.228795026010594, -30.058719351231428], [-51.22975761973955, -30.060240379636788], [-51.230833363499634, -30.060240379636788], [-51.23145922268202, -30.05822090888204], [-51.23335428860071, -30.057717633849222], [-51.23430567730197, -30.058463894825536], [-51.234067951733394, -30.060240379636788], [-51.23568248699271, -30.059970977801278], [-51.23476024061496, -30.058770633948612]]], [[[-51.11526007015177, -30.080731231532607], [-51.11459061652409, -30.083268049704646], [-51.11385521350455, -30.083904913915863], [-51.112748920511855, -30.083948660780987], [-51.110436899999996, -30.0876876], [-51.11123981587147, -30.096341027638452], [-51.11202983386863, -30.096070906213438], [-51.111222570289655, -30.09385785121773], [-51.11123628629632, -30.092211290983396], [-51.1118598891558, -30.090881722156613], [-51.11250847138821, -30.090468097123594], [-51.11418500391623, -30.090682787049595], [-51.11391563314825, -30.08960663555186], [-51.1121415576772, -30.08807015677111], [-51.11205395658617, -30.087261044675017], [-51.11354040684488, -30.084601405340514], [-51.115262566422935, -30.0834093546102], [-51.11533729812608, -30.081512813924547], [-51.116094783405785, -30.08035862672114], [-51.11768714866123, -30.079637311793622], [-51.117605265114584, -30.078897872702257], [-51.11526007015177, -30.080731231532607]]], [[[-51.16970108685384, -30.00770794133122], [-51.17048913270524, -30.007707001220272], [-51.170758107284755, -30.007169974825764], [-51.169682367575355, -30.006900655443868], [-51.16970108685384, -30.00770794133122]]], [[[-51.17102934632343, -30.005551807027945], [-51.17183569433389, -30.005551807027945], [-51.171566715703705, -30.004745461251538], [-51.17095321681918, -30.0046693073472], [-51.17102934632343, -30.005551807027945]]], [[[-51.17049008619107, -30.003622091646516], [-51.170221159074586, -30.004204797850388], [-51.17056484509007, -30.00428093126296], [-51.17049008619107, -30.003622091646516]]], [[[-51.16860478457689, -30.001512618733635], [-51.169141736837744, -30.001780181330783], [-51.169141736837744, -30.001512618733635], [-51.16860478457689, -30.001512618733635]]], [[[-51.303245200000006, -29.950072700000003], [-51.28945556259891, -29.947344584073207], [-51.285794913903665, -29.94594628880364], [-51.2673162, -29.9351526], [-51.2510279, -29.9323022], [-51.24565630000001, -29.9326248], [-51.2370955, -29.936479400000003], [-51.2311857, -29.941115300000003], [-51.2275759, -29.9564767], [-51.221136599999994, -29.966121599999997], [-51.21995003311425, -29.966728111771605], [-51.21863450000001, -29.966748199999998], [-51.2082301, -29.964377700000004], [-51.200901699999996, -29.971492899999994], [-51.19527696784658, -29.96918347885307], [-51.18569340809212, -29.968508040658037], [-51.18313586034688, -29.968910640635436], [-51.17965797268992, -29.96811665132013], [-51.1663986, -29.967256800000005], [-51.164665785571074, -29.965681254991416], [-51.16076340000001, -29.9672064], [-51.156506453513586, -29.964603647649373], [-51.15540441611546, -29.965412299109133], [-51.154987901517394, -29.96666820921552], [-51.15391700000001, -29.9670062], [-51.150590699999995, -29.965439], [-51.150171099999994, -29.9623408], [-51.1477321, -29.959817199999993], [-51.1431488, -29.9606393], [-51.1406774, -29.957397199999996], [-51.13499988747484, -29.96072565894863], [-51.134049399999995, -29.9608856], [-51.1311509728707, -29.958403982081776], [-51.12912635223426, -29.957444783833974], [-51.12846389826503, -29.956103323072053], [-51.126051102835476, -29.954366377899934], [-51.120045999999995, -29.9580456], [-51.11709058161628, -29.958407405432606], [-51.11278459999999, -29.958051400000002], [-51.10676606233627, -29.964243592695905], [-51.10543, -29.9650113], [-51.10170125295647, -29.96406484397835], [-51.09607459999999, -29.965860199999998], [-51.094964461946724, -29.965560616736624], [-51.0915605, -29.9630023], [-51.088591, -29.9638411], [-51.090091, -29.9668293], [-51.08647559999999, -29.970939599999998], [-51.08831021556569, -29.977715510890974], [-51.08859424694116, -29.98184444550293], [-51.090133609532025, -29.98161191358468], [-51.09069601859827, -29.982403276174708], [-51.089671829939626, -29.983462695754362], [-51.08964015975858, -29.984700376894605], [-51.089133058932156, -29.985348091483527], [-51.089071709810035, -29.989427870655867], [-51.08859332732197, -29.991338886394203], [-51.088594267432924, -29.99289033787832], [-51.08907170981004, -29.993659791745156], [-51.08859425820256, -29.994775962838574], [-51.08912668202639, -29.995569489631205], [-51.088324855242234, -29.996393901405302], [-51.08805545544194, -29.99800855563362], [-51.08855824614741, -29.9968967806503], [-51.089939411432496, -29.996123126179093], [-51.09040428667561, -29.99451443725212], [-51.09155574045679, -29.993967945220366], [-51.09074757369971, -29.991275348984196], [-51.08980773232293, -29.991200564746723], [-51.08937375139511, -29.990671757456166], [-51.09020970181967, -29.989368977618664], [-51.089433380833036, -29.988048769182853], [-51.08940561110619, -29.98606633087982], [-51.089848417555785, -29.98542932710548], [-51.09101696944932, -29.985346669364578], [-51.09056037929458, -29.983713158972893], [-51.09263332345525, -29.982114264457856], [-51.09323274531159, -29.980793152496673], [-51.09442557082499, -29.981190640390604], [-51.09505976542369, -29.984000077306437], [-51.09640630656058, -29.98642425621486], [-51.09719646486617, -29.985666717396025], [-51.09921714593655, -29.98541571026969], [-51.09990878597138, -29.986154870820425], [-51.10159697162865, -29.986022663714195], [-51.10260244252709, -29.987232507194772], [-51.10392924615237, -29.98750280366785], [-51.10458812116225, -29.98606392544], [-51.106373000843355, -29.986154851601395], [-51.10773305630287, -29.98497902074333], [-51.10987609404135, -29.986154854379347], [-51.11158740977462, -29.985248540096617], [-51.11460265424195, -29.985704460082676], [-51.11499067440215, -29.987248794610107], [-51.11418592353542, -29.9901771831252], [-51.11472521753442, -29.990734685583046], [-51.11553196217255, -29.990465721358714], [-51.11521099013527, -29.98837325340176], [-51.116975324766926, -29.987931939052395], [-51.11964162160985, -29.98836061795225], [-51.12065192402596, -29.990465283747533], [-51.12151159183408, -29.989326822000685], [-51.12233019535242, -29.989246196591303], [-51.12345210421366, -29.990041361075974], [-51.12361569439115, -29.99100410791032], [-51.12496082985016, -29.99046538669291], [-51.12540483637421, -29.989691374268368], [-51.126577437629635, -29.98965708747136], [-51.12883069334938, -29.98832417300569], [-51.129994124698754, -29.988715235320058], [-51.13035058813153, -29.98938769689725], [-51.132773310639685, -29.989657098732764], [-51.13170977921222, -29.988213614959918], [-51.13223449587074, -29.98669415220809], [-51.13201024791529, -29.985025970308058], [-51.132935990888164, -29.984040973223536], [-51.13511698080291, -29.983500628118403], [-51.13737719342917, -29.985679049497787], [-51.137108165751464, -29.987717398863307], [-51.13600789887345, -29.98831192879357], [-51.13605949565284, -29.990673381466692], [-51.1338526504229, -29.991544754870397], [-51.13375242003768, -29.99360532343262], [-51.131697570930285, -29.99423868672121], [-51.13142817112999, -29.99585334094953], [-51.132773310639685, -29.99612274278504], [-51.133242530539064, -29.995152418065757], [-51.13681432933754, -29.993967524050262], [-51.13776232450441, -29.99263043027466], [-51.13850203221984, -29.992727801546152], [-51.14031647408254, -29.994236925885772], [-51.140768298635024, -29.992644522079733], [-51.143040249503215, -29.99077007342541], [-51.14456091095518, -29.99070460906253], [-51.145436667656355, -29.991812309366168], [-51.14776046543805, -29.991011127570644], [-51.14863782892432, -29.991921641454184], [-51.14866941665174, -29.994775729556796], [-51.15028545648363, -29.995853320457766], [-51.15219036312885, -29.996931867910757], [-51.152978074314454, -29.996930944240887], [-51.15406912523669, -29.996024495999304], [-51.154884320625, -29.996393064239733], [-51.15805929023883, -29.996178056108803], [-51.15953221358309, -29.99695495144792], [-51.15998412058921, -29.998547359304645], [-51.161331142978305, -30.000163858643997], [-51.16294705380419, -30.000702553353946], [-51.164392775861806, -30.000571938572666], [-51.16510255737827, -30.002049579115607], [-51.16671759221063, -30.00204956267453], [-51.16712231477017, -29.99998143007946], [-51.168855947212066, -29.998726327029186], [-51.171213380136216, -29.999865628398556], [-51.17167409210846, -30.001680982898918], [-51.171027975718175, -30.002903530444044], [-51.17222339408226, -30.00265742774243], [-51.17533920465131, -30.003665970909648], [-51.17795090499173, -30.003436363946257], [-51.17946749905462, -30.00422880100673], [-51.179650010311114, -30.005551807027945], [-51.180725733579436, -30.005282822311848], [-51.180537586305825, -30.003986611154723], [-51.18122917358113, -30.003401533348], [-51.182395248891964, -30.00344171796], [-51.18339754156349, -30.004117907271368], [-51.18396025985134, -30.005282401141745], [-51.18503463471098, -30.005707101973567], [-51.18557629968323, -30.006629393878224], [-51.18760083190953, -30.004144657020476], [-51.18845427601863, -30.004286840602646], [-51.189078444428226, -30.005012982865157], [-51.19028278528734, -30.004825834745354], [-51.19075356413638, -30.005626811169893], [-51.19015644454611, -30.00662941436999], [-51.19315380563569, -30.00715570005779], [-51.1939275679213, -30.007976403055785], [-51.1963134866842, -30.008031736871313], [-51.19695149145948, -30.008655408981053], [-51.19689133828649, -30.009592834560618], [-51.198365868217785, -30.00969316808256], [-51.19957893936864, -30.011655091482986], [-51.198507712784185, -30.012825656586756], [-51.200955957053715, -30.011753317207305], [-51.20367722092039, -30.0135722207263], [-51.20362623202688, -30.016866684119428], [-51.205491758071645, -30.017531506892215], [-51.20658951399318, -30.019021970082964], [-51.208043133016545, -30.01983864491518], [-51.20793656402072, -30.021177113487614], [-51.20998460027443, -30.023063735908107], [-51.209822334268026, -30.024679337349266], [-51.211717550025874, -30.023968989554707], [-51.21224681356094, -30.02467933329858], [-51.214495505758315, -30.025339698894264], [-51.214940857561395, -30.026295830815947], [-51.21630655153728, -30.02710487348805], [-51.217584388251616, -30.026347804961464], [-51.22059640746788, -30.02710394981818], [-51.22116126007621, -30.02614801270138], [-51.223205941527304, -30.025293208981807], [-51.22410031304832, -30.02656523265146], [-51.225991802539205, -30.026840191900426], [-51.22652487074417, -30.028450963046428], [-51.22813940600348, -30.028450963046428], [-51.22825959998638, -30.027142472099044], [-51.22930671763187, -30.02684918765921], [-51.23137391178362, -30.02872036083125], [-51.232580788887375, -30.028660224052025], [-51.234067478067445, -30.02979794895427], [-51.236367931390724, -30.030492111606275], [-51.23676192972131, -30.031684202191983], [-51.2398475626462, -30.033661170658284], [-51.24098687928655, -30.03542667068607], [-51.24107225248479, -30.037072051013883], [-51.24160655129488, -30.037752517245163], [-51.24134163697301, -30.04165165298649], [-51.2423958, -30.035258499999994], [-51.2502406, -30.035299600000002], [-51.25092816420126, -30.035914665602466], [-51.2572298, -30.048355700000002], [-51.258997174358406, -30.049080838256568], [-51.26046831807626, -30.051080696737632], [-51.261297031010784, -30.051301836968506], [-51.261611724491814, -30.05269804786165], [-51.26320671131778, -30.05275894423564], [-51.26423985857088, -30.05404411692826], [-51.265563245196134, -30.05422664867652], [-51.265856654238675, -30.055121827215682], [-51.2669393, -30.0557537], [-51.26666391781765, -30.05716094061509], [-51.2704238, -30.058554599999994], [-51.27059043534216, -30.05997189742046], [-51.2719907810246, -30.05920355081254], [-51.271401499999996, -30.0549399], [-51.2658578, -30.0534046], [-51.263567945552644, -30.050273431342045], [-51.262427377416, -30.049745858007856], [-51.262488673471324, -30.048797624476524], [-51.2615498, -30.047513799999997], [-51.26289237732304, -30.042019942759424], [-51.25939429003898, -30.03450877294094], [-51.2595488, -30.033683699999994], [-51.26060076930607, -30.033860876490554], [-51.2642314884076, -30.03572573222442], [-51.269441699999994, -30.035154300000006], [-51.271890879245234, -30.03895855425056], [-51.27336326591369, -30.036881716591235], [-51.27328808676007, -30.035731243221004], [-51.269357372814035, -30.031955046638206], [-51.2678056003774, -30.031518550926155], [-51.26743275236668, -30.02922294068599], [-51.26534768963143, -30.02403304487929], [-51.26477814757035, -30.01997639947876], [-51.2618114, -30.0096426], [-51.2651179, -30.000763000000006], [-51.271963, -29.988648799999996], [-51.278541499999996, -29.981296600000004], [-51.2851829, -29.970588499999998], [-51.2896314, -29.9669826], [-51.293843240427776, -29.964688089967026], [-51.2975309, -29.9633315], [-51.303245200000006, -29.950072700000003]], [[-51.14349126111532, -29.986048676640312], [-51.14323716707123, -29.986758821920127], [-51.14243489393744, -29.986979000905293], [-51.14166831138114, -29.985850116454177], [-51.142571531584004, -29.985137449711484], [-51.14349126111532, -29.986048676640312]], [[-51.145315192236005, -29.98490316028058], [-51.1440592036417, -29.985263146666107], [-51.143549140624295, -29.983732097589876], [-51.141997785307076, -29.983295622369596], [-51.141947401752454, -29.980678931081613], [-51.142642630096695, -29.97928919356726], [-51.14502746398872, -29.97916033849908], [-51.14564051732177, -29.97963575092123], [-51.145315192236005, -29.98490316028058]], [[-51.156785533149204, -29.98504309988779], [-51.157003659037954, -29.985835996830794], [-51.156576764870074, -29.986391840409386], [-51.15496501240549, -29.98601349393793], [-51.15531158471229, -29.984890523434455], [-51.156785533149204, -29.98504309988779]], [[-51.163063938595236, -29.987434682381934], [-51.162342320738496, -29.987169520621883], [-51.16137363890264, -29.985731192013333], [-51.16176572660893, -29.984603483038512], [-51.16292346459273, -29.984720975114538], [-51.16377797689146, -29.98621785316881], [-51.16374096834496, -29.986971179438928], [-51.163063938595236, -29.987434682381934]], [[-51.171184377476166, -29.975178825949946], [-51.170511902429425, -29.97785234007018], [-51.169412971825736, -29.978074659044132], [-51.16849875830967, -29.978924558210608], [-51.16716908209732, -29.977781254052278], [-51.16612820994518, -29.976032656218504], [-51.166957842359, -29.975194761551975], [-51.1693947387113, -29.974480161833146], [-51.171184377476166, -29.975178825949946]], [[-51.16881950208255, -29.98648629223307], [-51.16847418972628, -29.98709283169987], [-51.16774578509615, -29.98723271622062], [-51.16699134267867, -29.986338577107013], [-51.16808044854852, -29.985620427201397], [-51.16881950208255, -29.98648629223307]], [[-51.1738397685799, -29.979622029152093], [-51.173173932814365, -29.979413293929372], [-51.172872055544865, -29.978721399484748], [-51.17354601237332, -29.97781267389726], [-51.174621956649545, -29.97862985963416], [-51.1738397685799, -29.979622029152093]], [[-51.176423802709884, -29.969731949406224], [-51.176351168073346, -29.96843824175607], [-51.17769943371831, -29.968309825282656], [-51.17782842151915, -29.969780661157202], [-51.176423802709884, -29.969731949406224]], [[-51.18036980867742, -29.986841949645065], [-51.17955759983173, -29.98742881674927], [-51.178875964411105, -29.9872788037446], [-51.17871330128312, -29.985642199432284], [-51.18006421972116, -29.98550200507586], [-51.18036980867742, -29.986841949645065]], [[-51.190284350544054, -30.003267809151964], [-51.18951767908871, -30.00360765123531], [-51.1886204321545, -30.0029859737727], [-51.18925162903302, -30.001006251359854], [-51.1905673675245, -30.00142879034567], [-51.190284350544054, -30.003267809151964]], [[-51.19572839335119, -30.005582386349964], [-51.19437451821054, -30.006093125434003], [-51.19268684802405, -30.005431625136687], [-51.19204079267446, -30.004206657580518], [-51.19099705938193, -30.003762634615413], [-51.191105505765414, -30.002614515069506], [-51.19286484031892, -30.00205597145979], [-51.19365836006001, -30.002588375575915], [-51.19514653486574, -30.00222378239138], [-51.19591201441684, -30.004497107116023], [-51.19572839335119, -30.005582386349964]], [[-51.19451639715624, -29.99794475376616], [-51.19456319305121, -29.999110358069622], [-51.1934521606486, -29.999152530658716], [-51.19337625760854, -29.998000765230394], [-51.19451639715624, -29.99794475376616]], [[-51.19838615491021, -29.989213589648763], [-51.197749146151594, -29.990261543509636], [-51.19689133828649, -29.990467143477662], [-51.197361105998375, -29.991426446820963], [-51.19716073403611, -29.99235111708788], [-51.19799160516451, -29.992945647018143], [-51.19789413752489, -29.994370426935138], [-51.19721020022987, -29.994827419225345], [-51.19572094715458, -29.994425513269434], [-51.195290388357066, -29.993868537312757], [-51.19473934920575, -29.989299152905957], [-51.19608437813819, -29.98831207943314], [-51.19489859444814, -29.98805081508913], [-51.19464335604043, -29.986795036688388], [-51.19651754331895, -29.98649808505943], [-51.19694072638011, -29.987557947018033], [-51.1983592628268, -29.988108730355254], [-51.19838615491021, -29.989213589648763]], [[-51.203611596401025, -30.001422872416004], [-51.20340782517078, -30.004537680291254], [-51.20008502717881, -30.00657594028459], [-51.198569767914734, -30.006426112772196], [-51.19788413912317, -30.004530131258477], [-51.19796706155481, -30.0033980144628], [-51.19622403874798, -30.00272460421207], [-51.195258997878156, -30.00127962051033], [-51.195668366321414, -29.999951795669872], [-51.19662008280674, -29.999086580095085], [-51.19581283566884, -29.997411994104596], [-51.19649865492256, -29.995282183021477], [-51.19752491881159, -29.995079410978597], [-51.197968921284954, -29.99612274278504], [-51.1988920978033, -29.996218125392748], [-51.200123613615915, -29.99720032685737], [-51.201487459906005, -29.996291091110244], [-51.20282632791491, -29.996825803888495], [-51.203611596401025, -30.001422872416004]], [[-51.25345808929167, -30.029814260944818], [-51.25269459297686, -30.030653880371936], [-51.25185258838363, -30.029892769224023], [-51.25261608469784, -30.02905111246559], [-51.25345808929167, -30.029814260944818]], [[-51.26027323072056, -30.042722994086752], [-51.25957492345088, -30.04299595266433], [-51.25895783296687, -30.042598914759886], [-51.25924834613233, -30.041017646705022], [-51.260347177321705, -30.041288795802306], [-51.26027323072056, -30.042722994086752]]], [[[-51.08092702654268, -30.239033464917696], [-51.08051095233375, -30.238586254475567], [-51.078691600729535, -30.23839607191318], [-51.078624764967024, -30.23696982297073], [-51.076902316152484, -30.237490360919146], [-51.07620028567411, -30.23670042518591], [-51.0751883024503, -30.236894755009185], [-51.07431627221156, -30.236161617464198], [-51.074523851967996, -30.23836086294602], [-51.07309310674021, -30.239319270056534], [-51.071176469771785, -30.23992685486787], [-51.068118804397976, -30.23885565908903], [-51.066773195273015, -30.239394357036723], [-51.068876333628886, -30.241519746945336], [-51.06861454442781, -30.242151761985067], [-51.06758129601755, -30.242357863731648], [-51.066974935066064, -30.24319616219975], [-51.0641690751053, -30.243541408965736], [-51.06273178131215, -30.243166088457215], [-51.06192406772926, -30.24343546702301], [-51.06182375489041, -30.244418432293873], [-51.061170657397206, -30.244830820729387], [-51.05896029736407, -30.243435487514773], [-51.05869131873387, -30.243972431455667], [-51.05960531155484, -30.244356693798863], [-51.06003788036253, -30.245588821976973], [-51.0619226456103, -30.24531942014146], [-51.062565419208035, -30.244315641643983], [-51.06406293901695, -30.24397678745697], [-51.06696557506511, -30.24400930137293], [-51.067521229954316, -30.24488059266269], [-51.06417267747301, -30.24789374035273], [-51.06273183785868, -30.24801531871847], [-51.06151975330725, -30.248798931600803], [-51.060682803138135, -30.24849946604189], [-51.060575249742804, -30.24747649455568], [-51.059252117648825, -30.24745415868994], [-51.05868970872659, -30.246937702146063], [-51.0573443399858, -30.24720709272017], [-51.05774439873114, -30.248652437348294], [-51.056266777479095, -30.249361890284845], [-51.055935545244544, -30.251292151050574], [-51.05491980150897, -30.252325253928934], [-51.05491977823926, -30.25286269202755], [-51.05617211754051, -30.252963004866388], [-51.056585234536485, -30.253696671626088], [-51.05465040298141, -30.25690514167917], [-51.05468148769385, -30.258368146556364], [-51.055203, -30.2586716], [-51.05438006712084, -30.259807367574975], [-51.05771765552737, -30.25973064720087], [-51.05852112983745, -30.259222394137097], [-51.06273133535891, -30.259615398900156], [-51.063379100000006, -30.255811500000004], [-51.06623348010391, -30.251919442735986], [-51.06612380634581, -30.247571021714815], [-51.066657255535084, -30.246130930646324], [-51.067794851069536, -30.24550591188842], [-51.06973508862379, -30.245319465614838], [-51.07086519090641, -30.243911556559095], [-51.07215968409568, -30.243972410963902], [-51.07545424987209, -30.24132307958486], [-51.077008807588754, -30.241547794444298], [-51.07807151799694, -30.24074396543083], [-51.07970243041911, -30.241009007214352], [-51.08092702654268, -30.239033464917696]], [[-51.06983662585018, -30.24451736748667], [-51.06792594688925, -30.244745606283303], [-51.06740756285829, -30.243718484763008], [-51.06851070689361, -30.242713811160655], [-51.06943101124002, -30.24265880670856], [-51.06998310342376, -30.24323868726351], [-51.06983662585018, -30.24451736748667]], [[-51.074541250919346, -30.24013750161889], [-51.07464656978065, -30.24120682196274], [-51.072623553361595, -30.242515083536173], [-51.070568414239936, -30.243160797224903], [-51.06976897205507, -30.242722062714158], [-51.069654356930016, -30.241333225774863], [-51.07003441594266, -30.240764427266427], [-51.071620949142975, -30.240739586159812], [-51.07373925098046, -30.239917282060883], [-51.074541250919346, -30.24013750161889]]], [[[-51.10184924568483, -30.2390688944429], [-51.10206217469179, -30.238316415028873], [-51.1015252429227, -30.23804743031278], [-51.1015252541841, -30.238854025812042], [-51.10184924568483, -30.2390688944429]]], [[[-51.05249335676258, -30.22942514945746], [-51.05222397745405, -30.227810078109727], [-51.05060944624542, -30.226732553221293], [-51.050609353914936, -30.228345245565926], [-51.05199484409998, -30.22969505379274], [-51.05249335676258, -30.22942514945746]]], [[[-51.04845428024849, -30.225385544043736], [-51.048991232509344, -30.22565310664088], [-51.048991232509344, -30.225385544043736], [-51.04845428024849, -30.225385544043736]]], [[[-51.0311208874161, -30.21649436385267], [-51.03121110898406, -30.21487879000517], [-51.02959657777543, -30.21407066695225], [-51.0311208874161, -30.21649436385267]]], [[[-51.107988901675085, -30.21918930182697], [-51.10491086915186, -30.21917233709677], [-51.10429858916471, -30.218599283016097], [-51.10468928921677, -30.21762157997258], [-51.10583373567816, -30.217571051575536], [-51.10573547654935, -30.21597754799262], [-51.10637252717739, -30.214609470623273], [-51.104757843943986, -30.214275612338483], [-51.10429858916471, -30.21375004997689], [-51.104486736438325, -30.212453838819766], [-51.10400768417822, -30.211517479904334], [-51.105025527937556, -30.210567020971652], [-51.10502554842932, -30.210029639419577], [-51.102932656175305, -30.209921460093973], [-51.101361137677834, -30.207604213327844], [-51.10152338319256, -30.20652699843851], [-51.1002377535666, -30.204062625279708], [-51.101523399633635, -30.202754033076012], [-51.10152340368432, -30.20167818251872], [-51.09936196873568, -30.20220226198076], [-51.098073416466136, -30.200654388846147], [-51.09829065468894, -30.199522967834625], [-51.09632290673909, -30.19966446814052], [-51.09400430197891, -30.197556284266597], [-51.09338320310484, -30.192712917804823], [-51.094788486674226, -30.1898231361838], [-51.09478859239756, -30.186591683780758], [-51.09425155768309, -30.18659167973007], [-51.09358320002171, -30.187605266084976], [-51.09261462466853, -30.187129563781912], [-51.091018726234076, -30.187130487451782], [-51.090259204955736, -30.1878866323085], [-51.08794844893878, -30.187579275364865], [-51.086520599909285, -30.18528106401513], [-51.08569622729401, -30.185498937250816], [-51.084089024311595, -30.184863090736698], [-51.083311622453664, -30.183357828037558], [-51.08395859604642, -30.18273528421423], [-51.0849691217842, -30.18290660367709], [-51.08652596543736, -30.183919825292936], [-51.08672618986108, -30.18493498997524], [-51.089131199202015, -30.184704027643125], [-51.089131199202015, -30.183897661374957], [-51.08834702119542, -30.183715150118463], [-51.08751481191512, -30.182550651569105], [-51.086248333676394, -30.182526528433947], [-51.08428230494004, -30.181203654281244], [-51.08331217368026, -30.18108162189022], [-51.08210819043354, -30.179047508716565], [-51.08132056111693, -30.179587243907005], [-51.08158998072089, -30.181202277447436], [-51.082974711975254, -30.181932397648332], [-51.08325541374839, -30.182574587051054], [-51.082943083386795, -30.18368992569432], [-51.08198049437438, -30.18380927249241], [-51.07909975959296, -30.181522675522025], [-51.07862483624648, -30.17958716072733], [-51.077548637812875, -30.178509599683114], [-51.07727964594909, -30.1790470062168], [-51.078333229172195, -30.18047446899505], [-51.078357228947546, -30.181741024571917], [-51.0809040703732, -30.183179189367184], [-51.08293651907982, -30.185781614493408], [-51.08583345368249, -30.186510600726812], [-51.085900309936775, -30.18793726678868], [-51.086708059574434, -30.188745034684036], [-51.08860454523274, -30.188280961806733], [-51.08995994496773, -30.19009298397254], [-51.09101735284339, -30.189822687499458], [-51.09206956119231, -30.18804311023839], [-51.09353858407655, -30.188873496270677], [-51.09236486781659, -30.192806641225424], [-51.09315768328976, -30.193700331905553], [-51.093443390926005, -30.197635732867095], [-51.094933898910554, -30.19903975211291], [-51.095598540481845, -30.200868220227434], [-51.09640530156105, -30.201137519117566], [-51.097196677814566, -30.20077770366286], [-51.097867761557, -30.201262115358336], [-51.09823116529695, -30.20225532070999], [-51.09775372291985, -30.20383197508386], [-51.10002292755391, -30.204764339219963], [-51.10073118234605, -30.206489172706902], [-51.100447680415996, -30.207873002616534], [-51.101787739481125, -30.20894860428894], [-51.10179464272299, -30.210297284470336], [-51.10332565123316, -30.211076667439603], [-51.10314162868179, -30.212722047767418], [-51.10389449134547, -30.2135690725441], [-51.104221823644515, -30.21539943997239], [-51.103680429411384, -30.216225464516928], [-51.1037849276019, -30.217454716248604], [-51.10260284919087, -30.218379730748026], [-51.103628251392806, -30.219672452590153], [-51.10341101317, -30.220803873601675], [-51.104718931815015, -30.220859186925438], [-51.105819283521676, -30.221718122798755], [-51.1055906002989, -30.22322203051724], [-51.10314161742039, -30.223230329359644], [-51.103015771399015, -30.224250509514018], [-51.10171190785062, -30.22534577244133], [-51.100085456041164, -30.225302886302835], [-51.09938879620426, -30.224307017082506], [-51.098996281958236, -30.22504233385541], [-51.09750798920146, -30.22538027608114], [-51.09209639168616, -30.225385544043736], [-51.092635203677155, -30.228616943950925], [-51.09354917600636, -30.22927019101022], [-51.09370574761523, -30.230133946800795], [-51.092376085727366, -30.23150707595854], [-51.09101839156828, -30.231312404916753], [-51.09021062548954, -30.2318511056424], [-51.090055284818156, -30.233612425195588], [-51.089161766922224, -30.23445984451429], [-51.08832485119155, -30.234545206451127], [-51.09005482768744, -30.23644023711496], [-51.09021062143886, -30.237237385567877], [-51.09278728168542, -30.237569794500857], [-51.093173974684625, -30.238584394745438], [-51.09615267790244, -30.239834213235728], [-51.0966757023102, -30.241008990773274], [-51.098041817456185, -30.241548734555245], [-51.10173402880694, -30.241035325600823], [-51.103680337640164, -30.243164297228574], [-51.10502554842932, -30.243433627784643], [-51.104486756930086, -30.24235785968096], [-51.103261336055986, -30.2419125113586], [-51.10287038243239, -30.23993324316136], [-51.10205536944609, -30.239670991826237], [-51.10144931169787, -30.24038768972184], [-51.10004156067061, -30.240242160365725], [-51.099099259057205, -30.238586254475567], [-51.09757883079478, -30.23895376508729], [-51.09410490478432, -30.238430898272554], [-51.09377225557583, -30.237737854718638], [-51.09424969795295, -30.235622396673758], [-51.09346208971273, -30.235352492338478], [-51.092723072576945, -30.235877580002832], [-51.09158188655638, -30.23574950241985], [-51.09074908481963, -30.23336841059036], [-51.09113683898925, -30.23272148184183], [-51.09236417742849, -30.23265754310278], [-51.092926586350735, -30.232141086558897], [-51.09613546820025, -30.231849765977064], [-51.09408745243834, -30.23104217301768], [-51.094249695174994, -30.22996490158147], [-51.09349492553568, -30.227020142819196], [-51.09390983447284, -30.226291357298003], [-51.0962318520465, -30.225544357973586], [-51.101793216553354, -30.22592248798463], [-51.10397181208496, -30.224597835164577], [-51.10556475704797, -30.224844880642582], [-51.10664190243525, -30.22242070173416], [-51.10624030498858, -30.221001552817192], [-51.107267782109396, -30.21986201018897], [-51.107988901675085, -30.219726266259627], [-51.107988901675085, -30.21918930182697]]], [[[-51.121170574127746, -30.20975931796488], [-51.12065236163714, -30.21002922230016], [-51.12065234114538, -30.210566603852236], [-51.12145866866408, -30.21029761913614], [-51.121170574127746, -30.20975931796488]]], [[[-51.11095225492085, -30.209221433913044], [-51.109067906792504, -30.20949085624032], [-51.10852953646338, -30.21056668630585], [-51.109875089041815, -30.21083598519598], [-51.11095223442909, -30.209758815465115], [-51.11095225492085, -30.209221433913044]]], [[[-51.1465124733783, -30.193594705334423], [-51.145974119490255, -30.191710335096555], [-51.14401029841606, -30.191922439951412], [-51.14258327738373, -30.19071225610103], [-51.142180340046956, -30.188166364115236], [-51.14274093288369, -30.186859659446636], [-51.142471974745256, -30.186052896550812], [-51.14160777198667, -30.18700463737971], [-51.140857022366525, -30.187130483401095], [-51.14083290369967, -30.188127609256064], [-51.14004883916836, -30.188746811960552], [-51.139779462637776, -30.1898231361838], [-51.140048835117675, -30.19063086802438], [-51.141557094888796, -30.191306848739476], [-51.14171756924066, -30.192113607786084], [-51.14083570317699, -30.193027924126447], [-51.13789366912076, -30.193057323782348], [-51.137993750502865, -30.195216831588017], [-51.13493033636675, -30.197097934195607], [-51.135738507174516, -30.199251809214363], [-51.13646235037989, -30.199866467742435], [-51.13600791936521, -30.201407358564257], [-51.13816160902606, -30.201406966426454], [-51.13923878813869, -30.2000603493867], [-51.13917865545748, -30.198853104852155], [-51.139924695708416, -30.19799629032033], [-51.143549140624295, -30.19601890473461], [-51.14399314309766, -30.195244974763682], [-51.14570437790068, -30.194941368672005], [-51.1465124733783, -30.193594705334423]]], [[[-51.07862722892159, -30.177428397461583], [-51.08024113946471, -30.177430178084315], [-51.08024113946471, -30.176893213651656], [-51.078869169461164, -30.177056354918044], [-51.078355369217405, -30.176085008145122], [-51.07781841695655, -30.176085008145122], [-51.07862722892159, -30.177428397461583]]], [[[-51.14247155762583, -30.137021741995948], [-51.1422040011146, -30.137289304593093], [-51.14247155762583, -30.137289304593093], [-51.14247155762583, -30.137021741995948]]], [[[-51.08428299532813, -30.047443255872718], [-51.08455239107775, -30.04749877981815], [-51.08509085758335, -30.045976025474317], [-51.08428299532813, -30.047443255872718]]], [[[-51.089670910320436, -30.03492983099393], [-51.089939386450865, -30.035186008934215], [-51.08993945077506, -30.03465035385064], [-51.089670910320436, -30.03492983099393]]], [[[-51.088953385294744, -30.028844519482284], [-51.08825875794916, -30.028388914256073], [-51.08763505441278, -30.02752615817084], [-51.08865719996725, -30.029664080878195], [-51.08859424694116, -30.03060617773052], [-51.089131178710254, -30.030337193014425], [-51.088953385294744, -30.028844519482284]]], [[[-51.088861792191004, -30.0214481253304], [-51.08805545544194, -30.02090955089047], [-51.088085564797254, -30.022188910497622], [-51.08617373702564, -30.02467953640296], [-51.0867070545749, -30.0246793168575], [-51.088592432684415, -30.022524506059224], [-51.088861792191004, -30.0214481253304]]], [[[-51.09074757369971, -30.019291300639033], [-51.0907484933189, -30.017796808120693], [-51.08937252806601, -30.017894178013915], [-51.08856797883296, -30.01875341658719], [-51.08940220495892, -30.01929128937763], [-51.09074757369971, -30.019291300639033]]], [[[-51.09398031143369, -30.012556483982337], [-51.093173974684625, -30.011211084812054], [-51.09360278406101, -30.012833334918888], [-51.09398031143369, -30.012556483982337]]], [[[-51.09209453195602, -30.009055453008543], [-51.09136596455086, -30.008516146837753], [-51.09209455244778, -30.009323432725107], [-51.09209453195602, -30.009055453008543]]], [[[-51.089670910320436, -30.00638057105143], [-51.08955982870135, -30.00636093215366], [-51.089670910320436, -30.006493482945263], [-51.089670910320436, -30.00638057105143]]], [[[-51.08805453582275, -30.004564705520608], [-51.08805138497022, -30.004473077797503], [-51.08797945983302, -30.00447511930508], [-51.08805453582275, -30.004564705520608]]], [[[-51.089939411432496, -30.00258877023137], [-51.089939386450865, -29.999896207720568], [-51.08913167286798, -29.99962682915477], [-51.087798899265806, -30.000430505904657], [-51.088572369297836, -30.001648128708446], [-51.0885964781745, -30.0031301516351], [-51.089939411432496, -30.00258877023137]]], [[[-51.139508204380064, -30.00124137765976], [-51.139508204380064, -29.99881860037852], [-51.13816306487037, -29.99881860037852], [-51.13816308536213, -29.99989478560162], [-51.13897125211922, -30.00124137765976], [-51.139508204380064, -30.00124137765976]]], [[[-51.13950862149949, -29.99585520067966], [-51.13870183138797, -29.996124198629353], [-51.13870143925018, -29.997200329635323], [-51.139508229361695, -29.996931331685627], [-51.13950862149949, -29.99585520067966]]], [[[-51.125499625400074, -29.99235111708788], [-51.12523206888884, -29.992083554490733], [-51.12523206888884, -29.99235111708788], [-51.125499625400074, -29.99235111708788]]], [[[-51.11199121678615, -29.98691834515405], [-51.111492906150225, -29.9877717030036], [-51.112029837919316, -29.988040687719693], [-51.11199121678615, -29.98691834515405]]], [[[-51.28830479999999, -30.120537199999998], [-51.2869367, -30.120204599999994], [-51.2865183, -30.121866999999998], [-51.28832930000001, -30.121440600000003], [-51.28830479999999, -30.120537199999998]]]]}}]}