{"type": "FeatureCollection", "features": [{"type": "Feature", "geometry": {"type": "Point", "coordinates": [-51.247021, -30.085622]}, "properties": {"co_cnes": 700398, "no_fantasia": "CLINICA MEDICA CORCINI", "municipio": "Porto Alegre", "tp_unidade": 16.0, "tp_unidade_label": "Ambulatorio", "rua": "AV DIARIO DE NOTICIAS", "numero": 400, "complemento": "SALA 1404", "bairro": "CRISTAL", "cep": 90810080, "vinc_sus": 0.0, "leitos_total": 0, "qtd_profissionais": 1, "endereco_geocode": "AV DIARIO DE NOTICIAS, 400, CRISTAL, 90810080, Porto Alegre - RS", "co_tipo_estabelecimento": "Ambulatório", "no_razao_social": "CLINICA MEDICA CORCINI", "staff_acs_endemias": 0, "staff_admin_gestao_apoio": 0, "staff_diag_lab_imagem": 0, "staff_enfermagem": 0, "staff_farmacia": 0, "staff_medicos": 1, "staff_odontologia": 0, "staff_outros": 0, "staff_outros_superior_saude": 0, "staff_servicos_gerais": 0, "staff_transporte_urgencia": 0}}, {"type": "Feature", "geometry": {"type": "Point", "coordinates": [-51.2465929, -30.08410688720848]}, "properties": {"co_cnes": 4090810, "no_fantasia": "OI DIGITAL", "municipio": "Porto Alegre", "tp_unidade": 16.0, "tp_unidade_label": "Ambulatorio", "rua": "DIARIO DE NOTICIAS", "numero": 200, "complemento": "SALA 1904 1905 1906", "bairro": "CRISTAL", "cep": 90810080, "vinc_sus": 0.0, "leitos_total": 0, "qtd_profissionais": 1, "endereco_geocode": "DIARIO DE NOTICIAS, 200, CRISTAL, 90810080, Porto Alegre - RS", "co_tipo_estabelecimento": "Ambulatório", "no_razao_social": "OI DIGITAL", "staff_acs_endemias": 0, "staff_admin_gestao_apoio": 0, "staff_diag_lab_imagem": 0, "staff_enfermagem": 0, "staff_farmacia": 0, "staff_medicos": 0, "staff_odontologia": 0, "staff_outros": 1, "staff_outros_superior_saude": 0, "staff_servicos_gerais": 0, "staff_transporte_urgencia": 0}}, {"type": "Feature", "geometry": {"type": "Point", "coordinates": [-51.24671670314222, -30.084017542301947]}, "properties": {"co_cnes": 717584, "no_fantasia": "KETLYN JULIANA SILVA DA FONSECA", "municipio": "Porto Alegre", "tp_unidade": 16.0, "tp_unidade_label": "Ambulatorio", "rua": "DIARIO DE NOTICIAS", "numero": 200, "complemento": 1406, "bairro": "CRISTAL", "cep": 90810080, "vinc_sus": 0.0, "leitos_total": 0, "qtd_profissionais": 3, "endereco_geocode": "DIARIO DE NOTICIAS, 200, CRISTAL, 90810080, Porto Alegre - RS", "co_tipo_estabelecimento": "Ambulatório", "no_razao_social": "KETLYN JULIANA SILVA DA FONSECA", "staff_acs_endemias": 0, "staff_admin_gestao_apoio": 1, "staff_diag_lab_imagem": 0, "staff_enfermagem": 0, "staff_farmacia": 0, "staff_medicos": 0, "staff_odontologia": 0, "staff_outros": 0, "staff_outros_superior_saude": 2, "staff_servicos_gerais": 0, "staff_transporte_urgencia": 0}}, {"type": "Feature", "geometry": {"type": "Point", "coordinates": [-51.24660363105247, -30.084065093044256]}, "properties": {"co_cnes": 3502236, "no_fantasia": "LARISSA CONCEICAO LUNKES", "municipio": "Porto Alegre", "tp_unidade": 16.0, "tp_unidade_label": "Ambulatorio", "rua": "DIARIO DE NOTICIAS", "numero": 200, "complemento": "21 01", "bairro": "CRISTAL", "cep": 90810080, "vinc_sus": 0.0, "leitos_total": 0, "qtd_profissionais": 1, "endereco_geocode": "DIARIO DE NOTICIAS, 200, CRISTAL, 90810080, Porto Alegre - RS", "co_tipo_estabelecimento": "Ambulatório", "no_razao_social": "LARISSA CONCEICAO LUNKES", "staff_acs_endemias": 0, "staff_admin_gestao_apoio": 0, "staff_diag_lab_imagem": 0, "staff_enfermagem": 0, "staff_farmacia": 0, "staff_medicos": 0, "staff_odontologia": 0, "staff_outros": 1, "staff_outros_superior_saude": 0, "staff_servicos_gerais": 0, "staff_transporte_urgencia": 0}}, {"type": "Feature", "geometry": {"type": "Point", "coordinates": [-51.18804931640625, -29.98244589810903]}, "properties": {"co_cnes": 5067278, "no_fantasia": "LABORATORIO LAFONT POSTO DE COLETA", "municipio": "Porto Alegre", "tp_unidade": 18.0, "tp_unidade_label": "Unidade de Apoio Diagnostico", "rua": "AV ENG FELICIO LEMIESZEK", "numero": 159, "complemento": null, "bairro": "HUMAITA", "cep": 90250040, "vinc_sus": 0.0, "leitos_total": 0, "qtd_profissionais": 1, "endereco_geocode": "AV ENG FELICIO LEMIESZEK, 159, HUMAITA, 90250040, Porto Alegre - RS", "co_tipo_estabelecimento": "Unidade de Apoio Diagnostico", "no_razao_social": "LABORATORIO LAFONT POSTO DE COLETA", "staff_acs_endemias": 0, "staff_admin_gestao_apoio": 0, "staff_diag_lab_imagem": 0, "staff_enfermagem": 0, "staff_farmacia": 0, "staff_medicos": 0, "staff_odontologia": 0, "staff_outros": 1, "staff_outros_superior_saude": 0, "staff_servicos_gerais": 0, "staff_transporte_urgencia": 0}}, {"type": "Feature", "geometry": {"type": "Point", "coordinates": [-51.22993469238281, -30.045841672011743]}, "properties": {"co_cnes": 9199365, "no_fantasia": "ESPACO ARTICULAR", "municipio": "Porto Alegre", "tp_unidade": 16.0, "tp_unidade_label": "Ambulatorio", "rua": "AV IPIRANGA", "numero": 40, "complemento": 1403, "bairro": "PRAIA DE BELAS", "cep": 90160090, "vinc_sus": 0.0, "leitos_total": 0, "qtd_profissionais": 1, "endereco_geocode": "AV IPIRANGA, 40, PRAIA DE BELAS, 90160090, Porto Alegre - RS", "co_tipo_estabelecimento": "Ambulatório", "no_razao_social": "ESPACO ARTICULAR", "staff_acs_endemias": 0, "staff_admin_gestao_apoio": 0, "staff_diag_lab_imagem": 0, "staff_enfermagem": 0, "staff_farmacia": 0, "staff_medicos": 0, "staff_odontologia": 0, "staff_outros": 0, "staff_outros_superior_saude": 1, "staff_servicos_gerais": 0, "staff_transporte_urgencia": 0}}, {"type": "Feature", "geometry": {"type": "Point", "coordinates": [-51.18509505861333, -29.97697994219913]}, "properties": {"co_cnes": 696730, "no_fantasia": "JULIANA GRABOSKI VIEIRA", "municipio": "Porto Alegre", "tp_unidade": 16.0, "tp_unidade_label": "Ambulatorio", "rua": "CLOVIS PAIM GRIVOT", "numero": 185, "complemento": 210, "bairro": "HUMAITA", "cep": 90250020, "vinc_sus": 0.0, "leitos_total": 0, "qtd_profissionais": 3, "endereco_geocode": "CLOVIS PAIM GRIVOT, 185, HUMAITA, 90250020, Porto Alegre - RS", "co_tipo_estabelecimento": "Ambulatório", "no_razao_social": "JULIANA GRABOSKI VIEIRA", "staff_acs_endemias": 0, "staff_admin_gestao_apoio": 1, "staff_diag_lab_imagem": 0, "staff_enfermagem": 0, "staff_farmacia": 0, "staff_medicos": 0, "staff_odontologia": 1, "staff_outros": 1, "staff_outros_superior_saude": 0, "staff_servicos_gerais": 0, "staff_transporte_urgencia": 0}}, {"type": "Feature", "geometry": {"type": "Point", "coordinates": [-51.21723175048828, -30.01953697323284]}, "properties": {"co_cnes": 9477462, "no_fantasia": "HOPE ATENDIMENTO DOMICILIAR", "municipio": "Porto Alegre", "tp_unidade": 16.0, "tp_unidade_label": "Ambulatorio", "rua": "CRISTOVAO COLOMBO", "numero": 2185, "complemento": "SALA 218", "bairro": "FLORESTA", "cep": 90560000, "vinc_sus": 0.0, "leitos_total": 0, "qtd_profissionais": 2, "endereco_geocode": "CRISTOVAO COLOMBO, 2185, FLORESTA, 90560000, Porto Alegre - RS", "co_tipo_estabelecimento": "Ambulatório", "no_razao_social": "HOPE ATENDIMENTO DOMICILIAR", "staff_acs_endemias": 0, "staff_admin_gestao_apoio": 0, "staff_diag_lab_imagem": 0, "staff_enfermagem": 1, "staff_farmacia": 0, "staff_medicos": 1, "staff_odontologia": 0, "staff_outros": 0, "staff_outros_superior_saude": 0, "staff_servicos_gerais": 0, "staff_transporte_urgencia": 0}}, {"type": "Feature", "geometry": {"type": "Point", "coordinates": [-51.24694930011791, -30.085546613545684]}, "properties": {"co_cnes": 9839666, "no_fantasia": "ANA PAULA RAUPP DE ANDRADE", "municipio": "Porto Alegre", "tp_unidade": 16.0, "tp_unidade_label": "Ambulatorio", "rua": "DIARIO DE NOTICIAS", "numero": 400, "complemento": 901, "bairro": "CRISTAL", "cep": 90810080, "vinc_sus": 0.0, "leitos_total": 0, "qtd_profissionais": 1, "endereco_geocode": "DIARIO DE NOTICIAS, 400, CRISTAL, 90810080, Porto Alegre - RS", "co_tipo_estabelecimento": "Ambulatório", "no_razao_social": "ANA PAULA RAUPP DE ANDRADE", "staff_acs_endemias": 0, "staff_admin_gestao_apoio": 0, "staff_diag_lab_imagem": 0, "staff_enfermagem": 0, "staff_farmacia": 0, "staff_medicos": 1, "staff_odontologia": 0, "staff_outros": 0, "staff_outros_superior_saude": 0, "staff_servicos_gerais": 0, "staff_transporte_urgencia": 0}}, {"type": "Feature", "geometry": {"type": "Point", "coordinates": [-51.24698148706818, -30.08548627127144]}, "properties": {"co_cnes": 894559, "no_fantasia": "CARLA CHESKY DERMATOLOGIA", "municipio": "Porto Alegre", "tp_unidade": 16.0, "tp_unidade_label": "Ambulatorio", "rua": "DIARIO DE NOTICIAS", "numero": 400, "complemento": "SALA 1909", "bairro": "CRISTAL", "cep": 90810080, "vinc_sus": 0.0, "leitos_total": 0, "qtd_profissionais": 1, "endereco_geocode": "DIARIO DE NOTICIAS, 400, CRISTAL, 90810080, Porto Alegre - RS", "co_tipo_estabelecimento": "Ambulatório", "no_razao_social": "CARLA CHESKY DERMATOLOGIA", "staff_acs_endemias": 0, "staff_admin_gestao_apoio": 0, "staff_diag_lab_imagem": 0, "staff_enfermagem": 0, "staff_farmacia": 0, "staff_medicos": 1, "staff_odontologia": 0, "staff_outros": 0, "staff_outros_superior_saude": 0, "staff_servicos_gerais": 0, "staff_transporte_urgencia": 0}}, {"type": "Feature", "geometry": {"type": "Point", "coordinates": [-51.20075225830078, -29.99359697714953]}, "properties": {"co_cnes": 7243626, "no_fantasia": "CLINICA BALAGUEZ", "municipio": "Porto Alegre", "tp_unidade": 16.0, "tp_unidade_label": "Ambulatorio", "rua": "RUA DEZOITO DE NOVEMBRO", "numero": 800, "complemento": "1 ANDAR", "bairro": "NAVEGANTES", "cep": 90240040, "vinc_sus": 0.0, "leitos_total": 0, "qtd_profissionais": 5, "endereco_geocode": "RUA DEZOITO DE NOVEMBRO, 800, NAVEGANTES, 90240040, Porto Alegre - RS", "co_tipo_estabelecimento": "Ambulatório", "no_razao_social": "CLINICA BALAGUEZ", "staff_acs_endemias": 0, "staff_admin_gestao_apoio": 0, "staff_diag_lab_imagem": 0, "staff_enfermagem": 0, "staff_farmacia": 0, "staff_medicos": 1, "staff_odontologia": 0, "staff_outros": 0, "staff_outros_superior_saude": 4, "staff_servicos_gerais": 0, "staff_transporte_urgencia": 0}}, {"type": "Feature", "geometry": {"type": "Point", "coordinates": [-51.2304567, -30.0472717]}, "properties": {"co_cnes": 275646, "no_fantasia": "CENTRAL ESTADUAL DE ARMAZENAMENTO E DISTRIBUICAO IMUNOBIO", "municipio": "Porto Alegre", "tp_unidade": 4.0, "tp_unidade_label": "Central de Abastecimento", "rua": "AVENIDA IPIRANGA", "numero": 6113, "complemento": null, "bairro": "AZENHA", "cep": 90610000, "vinc_sus": 1.0, "leitos_total": 0, "qtd_profissionais": 4, "endereco_geocode": "AVENIDA IPIRANGA, 6113, AZENHA, 90610000, Porto Alegre - RS", "co_tipo_estabelecimento": "Central de Abastecimento", "no_razao_social": "CENTRAL ESTADUAL DE ARMAZENAMENTO E DISTRIBUICAO IMUNOBIO", "staff_acs_endemias": 0, "staff_admin_gestao_apoio": 1, "staff_diag_lab_imagem": 0, "staff_enfermagem": 1, "staff_farmacia": 1, "staff_medicos": 0, "staff_odontologia": 0, "staff_outros": 1, "staff_outros_superior_saude": 0, "staff_servicos_gerais": 0, "staff_transporte_urgencia": 0}}, {"type": "Feature", "geometry": {"type": "Point", "coordinates": [-51.23050360223913, -30.04593464227856]}, "properties": {"co_cnes": 2836440, "no_fantasia": "FREDERICO STEINDORFF MACHADO", "municipio": "Porto Alegre", "tp_unidade": 16.0, "tp_unidade_label": "Ambulatorio", "rua": "DOLORES DE ALCARAZ CALDAS", "numero": 90, "complemento": null, "bairro": "PRAIA DE BELAS", "cep": 90110180, "vinc_sus": 0.0, "leitos_total": 0, "qtd_profissionais": 1, "endereco_geocode": "DOLORES DE ALCARAZ CALDAS, 90, PRAIA DE BELAS, 90110180, Porto Alegre - RS", "co_tipo_estabelecimento": "Ambulatório", "no_razao_social": "FREDERICO STEINDORFF MACHADO", "staff_acs_endemias": 0, "staff_admin_gestao_apoio": 0, "staff_diag_lab_imagem": 0, "staff_enfermagem": 0, "staff_farmacia": 0, "staff_medicos": 0, "staff_odontologia": 0, "staff_outros": 0, "staff_outros_superior_saude": 1, "staff_servicos_gerais": 0, "staff_transporte_urgencia": 0}}, {"type": "Feature", "geometry": {"type": "Point", "coordinates": [-51.246515, -30.084006]}, "properties": {"co_cnes": 50857, "no_fantasia": "ORTODONTIA PRIETSCH", "municipio": "Porto Alegre", "tp_unidade": 16.0, "tp_unidade_label": "Ambulatorio", "rua": "AV DIARIO DE NOTICIAS", "numero": 200, "complemento": "SALA 511", "bairro": "CRISTAL", "cep": 90810080, "vinc_sus": 0.0, "leitos_total": 0, "qtd_profissionais": 3, "endereco_geocode": "AV DIARIO DE NOTICIAS, 200, CRISTAL, 90810080, Porto Alegre - RS", "co_tipo_estabelecimento": "Ambulatório", "no_razao_social": "ORTODONTIA PRIETSCH", "staff_acs_endemias": 0, "staff_admin_gestao_apoio": 0, "staff_diag_lab_imagem": 0, "staff_enfermagem": 0, "staff_farmacia": 0, "staff_medicos": 0, "staff_odontologia": 2, "staff_outros": 1, "staff_outros_superior_saude": 0, "staff_servicos_gerais": 0, "staff_transporte_urgencia": 0}}, {"type": "Feature", "geometry": {"type": "Point", "coordinates": [-51.24660363063997, -30.08402795878308]}, "properties": {"co_cnes": 2949709, "no_fantasia": "CARINE LESNIKI DE BORBA HAESER", "municipio": "Porto Alegre", "tp_unidade": 16.0, "tp_unidade_label": "Ambulatorio", "rua": "AV DIARIO DE NOTICIAS", "numero": 200, "complemento": 2101, "bairro": "CRISTAL", "cep": 90810080, "vinc_sus": 0.0, "leitos_total": 0, "qtd_profissionais": 1, "endereco_geocode": "AV DIARIO DE NOTICIAS, 200, CRISTAL, 90810080, Porto Alegre - RS", "co_tipo_estabelecimento": "Ambulatório", "no_razao_social": "CARINE LESNIKI DE BORBA HAESER", "staff_acs_endemias": 0, "staff_admin_gestao_apoio": 0, "staff_diag_lab_imagem": 0, "staff_enfermagem": 0, "staff_farmacia": 0, "staff_medicos": 0, "staff_odontologia": 0, "staff_outros": 1, "staff_outros_superior_saude": 0, "staff_servicos_gerais": 0, "staff_transporte_urgencia": 0}}, {"type": "Feature", "geometry": {"type": "Point", "coordinates": [-51.24656, -30.08405]}, "properties": {"co_cnes": 2987627, "no_fantasia": "DIANA AYUMI MICHITA", "municipio": "Porto Alegre", "tp_unidade": 16.0, "tp_unidade_label": "Ambulatorio", "rua": "AV DIARIO DE NOTICIAS", "numero": 200, "complemento": 1213, "bairro": "CRISTAL", "cep": 90810080, "vinc_sus": 0.0, "leitos_total": 0, "qtd_profissionais": 1, "endereco_geocode": "AV DIARIO DE NOTICIAS, 200, CRISTAL, 90810080, Porto Alegre - RS", "co_tipo_estabelecimento": "Ambulatório", "no_razao_social": "DIANA AYUMI MICHITA", "staff_acs_endemias": 0, "staff_admin_gestao_apoio": 0, "staff_diag_lab_imagem": 0, "staff_enfermagem": 0, "staff_farmacia": 0, "staff_medicos": 0, "staff_odontologia": 1, "staff_outros": 0, "staff_outros_superior_saude": 0, "staff_servicos_gerais": 0, "staff_transporte_urgencia": 0}}, {"type": "Feature", "geometry": {"type": "Point", "coordinates": [-51.23079299926758, -30.046213157299167]}, "properties": {"co_cnes": 7895860, "no_fantasia": "MARCIO PINTO DE ABREU", "municipio": "Porto Alegre", "tp_unidade": 16.0, "tp_unidade_label": "Ambulatorio", "rua": "AVENIDA PRAIA DE BELAS", "numero": 2124, "complemento": 704, "bairro": "PRAIA DE BELAS", "cep": 90110000, "vinc_sus": 0.0, "leitos_total": 0, "qtd_profissionais": 1, "endereco_geocode": "AVENIDA PRAIA DE BELAS, 2124, PRAIA DE BELAS, 90110000, Porto Alegre - RS", "co_tipo_estabelecimento": "Ambulatório", "no_razao_social": "MARCIO PINTO DE ABREU", "staff_acs_endemias": 0, "staff_admin_gestao_apoio": 0, "staff_diag_lab_imagem": 0, "staff_enfermagem": 0, "staff_farmacia": 0, "staff_medicos": 1, "staff_odontologia": 0, "staff_outros": 0, "staff_outros_superior_saude": 0, "staff_servicos_gerais": 0, "staff_transporte_urgencia": 0}}, {"type": "Feature", "geometry": {"type": "Point", "coordinates": [-51.230106353759766, -30.04257254141021]}, "properties": {"co_cnes": 7885121, "no_fantasia": "SPINE CLINICA", "municipio": "Porto Alegre", "tp_unidade": 16.0, "tp_unidade_label": "Ambulatorio", "rua": "AV BORGES DE MEDEIROS", "numero": 2500, "complemento": 706, "bairro": "PRAIA DE BELAS", "cep": 90110150, "vinc_sus": 0.0, "leitos_total": 0, "qtd_profissionais": 3, "endereco_geocode": "AV BORGES DE MEDEIROS, 2500, PRAIA DE BELAS, 90110150, Porto Alegre - RS", "co_tipo_estabelecimento": "Ambulatório", "no_razao_social": "SPINE CLINICA", "staff_acs_endemias": 0, "staff_admin_gestao_apoio": 0, "staff_diag_lab_imagem": 0, "staff_enfermagem": 0, "staff_farmacia": 0, "staff_medicos": 3, "staff_odontologia": 0, "staff_outros": 0, "staff_outros_superior_saude": 0, "staff_servicos_gerais": 0, "staff_transporte_urgencia": 0}}, {"type": "Feature", "geometry": {"type": "Point", "coordinates": [-51.22169494628906, -29.99434033788745]}, "properties": {"co_cnes": 6140815, "no_fantasia": "UNIDADE DE SAUDE ILHA DO PAVAO", "municipio": "Porto Alegre", "tp_unidade": 1.0, "tp_unidade_label": "Unidade Basica de Saude", "rua": "RUA A", "numero": 45, "complemento": null, "bairro": "ILHA DO PAVAO", "cep": 90090320, "vinc_sus": 1.0, "leitos_total": 0, "qtd_profissionais": 27, "endereco_geocode": "RUA A, 45, ILHA DO PAVAO, 90090320, Porto Alegre - RS", "co_tipo_estabelecimento": "Unidade Básica de Saúde", "no_razao_social": "UNIDADE DE SAUDE ILHA DO PAVAO", "staff_acs_endemias": 0, "staff_admin_gestao_apoio": 1, "staff_diag_lab_imagem": 0, "staff_enfermagem": 8, "staff_farmacia": 0, "staff_medicos": 3, "staff_odontologia": 1, "staff_outros": 7, "staff_outros_superior_saude": 2, "staff_servicos_gerais": 5, "staff_transporte_urgencia": 0}}, {"type": "Feature", "geometry": {"type": "Point", "coordinates": [-51.1977399, -29.9827043]}, "properties": {"co_cnes": 7049579, "no_fantasia": "UNIDADE DE SAUDE FRADIQUE VIZEU", "municipio": "Porto Alegre", "tp_unidade": 1.0, "tp_unidade_label": "Unidade Basica de Saude", "rua": "RUA FREDERICO MENTZ", "numero": 374, "complemento": null, "bairro": "NAVEGANTES", "cep": 90240110, "vinc_sus": 1.0, "leitos_total": 0, "qtd_profissionais": 26, "endereco_geocode": "RUA FREDERICO MENTZ, 374, NAVEGANTES, 90240110, Porto Alegre - RS", "co_tipo_estabelecimento": "Unidade Básica de Saúde", "no_razao_social": "UNIDADE DE SAUDE FRADIQUE VIZEU", "staff_acs_endemias": 3, "staff_admin_gestao_apoio": 2, "staff_diag_lab_imagem": 0, "staff_enfermagem": 11, "staff_farmacia": 0, "staff_medicos": 4, "staff_odontologia": 2, "staff_outros": 3, "staff_outros_superior_saude": 0, "staff_servicos_gerais": 1, "staff_transporte_urgencia": 0}}, {"type": "Feature", "geometry": {"type": "Point", "coordinates": [-51.24728, -30.08556]}, "properties": {"co_cnes": 483435, "no_fantasia": "CARLA CHESKY ADAMS", "municipio": "Porto Alegre", "tp_unidade": 16.0, "tp_unidade_label": "Ambulatorio", "rua": "AV DIARIO DE NOTICIAS", "numero": 400, "complemento": 1909, "bairro": "CRISTAL", "cep": 90810080, "vinc_sus": 0.0, "leitos_total": 0, "qtd_profissionais": 2, "endereco_geocode": "AV DIARIO DE NOTICIAS, 400, CRISTAL, 90810080, Porto Alegre - RS", "co_tipo_estabelecimento": "Ambulatório", "no_razao_social": "CARLA CHESKY ADAMS", "staff_acs_endemias": 0, "staff_admin_gestao_apoio": 0, "staff_diag_lab_imagem": 0, "staff_enfermagem": 0, "staff_farmacia": 0, "staff_medicos": 2, "staff_odontologia": 0, "staff_outros": 0, "staff_outros_superior_saude": 0, "staff_servicos_gerais": 0, "staff_transporte_urgencia": 0}}, {"type": "Feature", "geometry": {"type": "Point", "coordinates": [-51.24744415283203, -30.08573122961661]}, "properties": {"co_cnes": 9916296, "no_fantasia": "PANVEL FARMACIAS", "municipio": "Porto Alegre", "tp_unidade": 9.0, "tp_unidade_label": "Farmacia", "rua": "AV DIARIO DE NOTICIAS", "numero": 300, "complemento": 1004, "bairro": "CRISTAL", "cep": 90810010, "vinc_sus": 0.0, "leitos_total": 0, "qtd_profissionais": 2, "endereco_geocode": "AV DIARIO DE NOTICIAS, 300, CRISTAL, 90810010, Porto Alegre - RS", "co_tipo_estabelecimento": "Farmacia", "no_razao_social": "PANVEL FARMACIAS", "staff_acs_endemias": 0, "staff_admin_gestao_apoio": 0, "staff_diag_lab_imagem": 0, "staff_enfermagem": 0, "staff_farmacia": 2, "staff_medicos": 0, "staff_odontologia": 0, "staff_outros": 0, "staff_outros_superior_saude": 0, "staff_servicos_gerais": 0, "staff_transporte_urgencia": 0}}, {"type": "Feature", "geometry": {"type": "Point", "coordinates": [-51.22967720031738, -30.0459902662939]}, "properties": {"co_cnes": 9180656, "no_fantasia": "FELIPE WILDT DO CANTO", "municipio": "Porto Alegre", "tp_unidade": 16.0, "tp_unidade_label": "Ambulatorio", "rua": "AV PRAIA DE BELAS", "numero": 2124, "complemento": 702, "bairro": "PRAIA DE BELAS", "cep": 90110001, "vinc_sus": 0.0, "leitos_total": 0, "qtd_profissionais": 1, "endereco_geocode": "AV PRAIA DE BELAS, 2124, PRAIA DE BELAS, 90110001, Porto Alegre - RS", "co_tipo_estabelecimento": "Ambulatório", "no_razao_social": "FELIPE WILDT DO CANTO", "staff_acs_endemias": 0, "staff_admin_gestao_apoio": 0, "staff_diag_lab_imagem": 0, "staff_enfermagem": 0, "staff_farmacia": 0, "staff_medicos": 1, "staff_odontologia": 0, "staff_outros": 0, "staff_outros_superior_saude": 0, "staff_servicos_gerais": 0, "staff_transporte_urgencia": 0}}, {"type": "Feature", "geometry": {"type": "Point", "coordinates": [-51.21576594511741, -30.03957506415973]}, "properties": {"co_cnes": 20273, "no_fantasia": "CLINICA GHENO", "municipio": "Porto Alegre", "tp_unidade": 16.0, "tp_unidade_label": "Ambulatorio", "rua": "RUA JOSE BONIFACIO", "numero": 111, "complemento": null, "bairro": "FARROUPILHA", "cep": 90040130, "vinc_sus": 0.0, "leitos_total": 0, "qtd_profissionais": 3, "endereco_geocode": "RUA JOSE BONIFACIO, 111, FARROUPILHA, 90040130, Porto Alegre - RS", "co_tipo_estabelecimento": "Ambulatório", "no_razao_social": "CLINICA GHENO", "staff_acs_endemias": 0, "staff_admin_gestao_apoio": 0, "staff_diag_lab_imagem": 0, "staff_enfermagem": 0, "staff_farmacia": 0, "staff_medicos": 1, "staff_odontologia": 1, "staff_outros": 1, "staff_outros_superior_saude": 0, "staff_servicos_gerais": 0, "staff_transporte_urgencia": 0}}, {"type": "Feature", "geometry": {"type": "Point", "coordinates": [-51.24705, -30.08562]}, "properties": {"co_cnes": 489425, "no_fantasia": "CLINICA MEDICA HSGS LTDA", "municipio": "Porto Alegre", "tp_unidade": 16.0, "tp_unidade_label": "Ambulatorio", "rua": "AV DIARIO DE NOTICIAS", "numero": 400, "complemento": 1209, "bairro": "CRISTAL", "cep": 90810080, "vinc_sus": 0.0, "leitos_total": 0, "qtd_profissionais": 5, "endereco_geocode": "AV DIARIO DE NOTICIAS, 400, CRISTAL, 90810080, Porto Alegre - RS", "co_tipo_estabelecimento": "Ambulatório", "no_razao_social": "CLINICA MEDICA HSGS LTDA", "staff_acs_endemias": 0, "staff_admin_gestao_apoio": 0, "staff_diag_lab_imagem": 0, "staff_enfermagem": 0, "staff_farmacia": 0, "staff_medicos": 5, "staff_odontologia": 0, "staff_outros": 0, "staff_outros_superior_saude": 0, "staff_servicos_gerais": 0, "staff_transporte_urgencia": 0}}, {"type": "Feature", "geometry": {"type": "Point", "coordinates": [-51.088534, -30.2406]}, "properties": {"co_cnes": 2264560, "no_fantasia": "UNIDADE DE SAUDE LAMI", "municipio": "Porto Alegre", "tp_unidade": 1.0, "tp_unidade_label": "Unidade Basica de Saude", "rua": "RUA NOVA OLINDA", "numero": 202, "complemento": null, "bairro": "LAMI", "cep": 91787640, "vinc_sus": 1.0, "leitos_total": 0, "qtd_profissionais": 37, "endereco_geocode": "RUA NOVA OLINDA, 202, LAMI, 91787640, Porto Alegre - RS", "co_tipo_estabelecimento": "Unidade Básica de Saúde", "no_razao_social": "UNIDADE DE SAUDE LAMI", "staff_acs_endemias": 10, "staff_admin_gestao_apoio": 2, "staff_diag_lab_imagem": 0, "staff_enfermagem": 10, "staff_farmacia": 2, "staff_medicos": 7, "staff_odontologia": 2, "staff_outros": 3, "staff_outros_superior_saude": 0, "staff_servicos_gerais": 1, "staff_transporte_urgencia": 0}}, {"type": "Feature", "geometry": {"type": "Point", "coordinates": [-51.18553, -29.981949]}, "properties": {"co_cnes": 181269, "no_fantasia": "PORTO ALEGRE RS UNIDADE A N 05", "municipio": "Porto Alegre", "tp_unidade": 16.0, "tp_unidade_label": "Ambulatorio", "rua": "AV JOSE ALOISIO FILHO", "numero": 695, "complemento": null, "bairro": "HUMAITA", "cep": 90250180, "vinc_sus": 0.0, "leitos_total": 0, "qtd_profissionais": 7, "endereco_geocode": "AV JOSE ALOISIO FILHO, 695, HUMAITA, 90250180, Porto Alegre - RS", "co_tipo_estabelecimento": "Ambulatório", "no_razao_social": "PORTO ALEGRE RS UNIDADE A N 05", "staff_acs_endemias": 0, "staff_admin_gestao_apoio": 1, "staff_diag_lab_imagem": 0, "staff_enfermagem": 0, "staff_farmacia": 0, "staff_medicos": 0, "staff_odontologia": 2, "staff_outros": 2, "staff_outros_superior_saude": 2, "staff_servicos_gerais": 0, "staff_transporte_urgencia": 0}}, {"type": "Feature", "geometry": {"type": "Point", "coordinates": [-51.24706731730499, -30.085555896969847]}, "properties": {"co_cnes": 5529123, "no_fantasia": "BIO CLINICA", "municipio": "Porto Alegre", "tp_unidade": 16.0, "tp_unidade_label": "Ambulatorio", "rua": "DIARIO DE NOTICIAS", "numero": 400, "complemento": 910, "bairro": "CRISTAL", "cep": 90810080, "vinc_sus": 0.0, "leitos_total": 0, "qtd_profissionais": 1, "endereco_geocode": "DIARIO DE NOTICIAS, 400, CRISTAL, 90810080, Porto Alegre - RS", "co_tipo_estabelecimento": "Ambulatório", "no_razao_social": "BIO CLINICA", "staff_acs_endemias": 0, "staff_admin_gestao_apoio": 0, "staff_diag_lab_imagem": 0, "staff_enfermagem": 0, "staff_farmacia": 0, "staff_medicos": 1, "staff_odontologia": 0, "staff_outros": 0, "staff_outros_superior_saude": 0, "staff_servicos_gerais": 0, "staff_transporte_urgencia": 0}}, {"type": "Feature", "geometry": {"type": "Point", "coordinates": [-51.2470244024108, -30.08566265628907]}, "properties": {"co_cnes": 945625, "no_fantasia": "HOSPITALIZE SERVICOS MEDICOS E ENFERMAGEM", "municipio": "Porto Alegre", "tp_unidade": 16.0, "tp_unidade_label": "Ambulatorio", "rua": "DIARIO DE NOTICIAS", "numero": 400, "complemento": "SALA 604", "bairro": "CRISTAL", "cep": 90810080, "vinc_sus": 0.0, "leitos_total": 0, "qtd_profissionais": 2, "endereco_geocode": "DIARIO DE NOTICIAS, 400, CRISTAL, 90810080, Porto Alegre - RS", "co_tipo_estabelecimento": "Ambulatório", "no_razao_social": "HOSPITALIZE SERVICOS MEDICOS E ENFERMAGEM", "staff_acs_endemias": 0, "staff_admin_gestao_apoio": 0, "staff_diag_lab_imagem": 0, "staff_enfermagem": 0, "staff_farmacia": 0, "staff_medicos": 2, "staff_odontologia": 0, "staff_outros": 0, "staff_outros_superior_saude": 0, "staff_servicos_gerais": 0, "staff_transporte_urgencia": 0}}, {"type": "Feature", "geometry": {"type": "Point", "coordinates": [-51.12655162811279, -29.980178358829107]}, "properties": {"co_cnes": 2264676, "no_fantasia": "UNIDADE DE SAUDE VILA ELIZABETH", "municipio": "Porto Alegre", "tp_unidade": 1.0, "tp_unidade_label": "Unidade Basica de Saude", "rua": "RUA PAULO GOMES DE OLIVEIRA", "numero": 170, "complemento": null, "bairro": "SARANDI", "cep": 91120570, "vinc_sus": 1.0, "leitos_total": 0, "qtd_profissionais": 9, "endereco_geocode": "RUA PAULO GOMES DE OLIVEIRA, 170, SARANDI, 91120570, Porto Alegre - RS", "co_tipo_estabelecimento": "Unidade Básica de Saúde", "no_razao_social": "UNIDADE DE SAUDE VILA ELIZABETH", "staff_acs_endemias": 1, "staff_admin_gestao_apoio": 1, "staff_diag_lab_imagem": 0, "staff_enfermagem": 4, "staff_farmacia": 0, "staff_medicos": 2, "staff_odontologia": 0, "staff_outros": 1, "staff_outros_superior_saude": 0, "staff_servicos_gerais": 0, "staff_transporte_urgencia": 0}}, {"type": "Feature", "geometry": {"type": "Point", "coordinates": [-51.21577262878418, -30.017604714517127]}, "properties": {"co_cnes": 5498945, "no_fantasia": "RADIOLOGICA DIAGNOSTICOS POR IMAGEM SOCIEDADE SIMPLES LTDA", "municipio": "Porto Alegre", "tp_unidade": 16.0, "tp_unidade_label": "Ambulatorio", "rua": "AVENIDA FARRAPOS", "numero": 579, "complemento": null, "bairro": "FLORESTA", "cep": 90220000, "vinc_sus": 0.0, "leitos_total": 0, "qtd_profissionais": 1, "endereco_geocode": "AVENIDA FARRAPOS, 579, FLORESTA, 90220000, Porto Alegre - RS", "co_tipo_estabelecimento": "Ambulatório", "no_razao_social": "RADIOLOGICA DIAGNOSTICOS POR IMAGEM SOCIEDADE SIMPLES LTDA", "staff_acs_endemias": 0, "staff_admin_gestao_apoio": 0, "staff_diag_lab_imagem": 0, "staff_enfermagem": 0, "staff_farmacia": 0, "staff_medicos": 1, "staff_odontologia": 0, "staff_outros": 0, "staff_outros_superior_saude": 0, "staff_servicos_gerais": 0, "staff_transporte_urgencia": 0}}, {"type": "Feature", "geometry": {"type": "Point", "coordinates": [-51.24780893325806, -30.086325365908426]}, "properties": {"co_cnes": 9895213, "no_fantasia": "CLINICA RIBEIRO MEREGALLI", "municipio": "Porto Alegre", "tp_unidade": 16.0, "tp_unidade_label": "Ambulatorio", "rua": "AV DIARIO DE NOTICIAS", "numero": 400, "complemento": "SALA 1504", "bairro": "CRISTAL", "cep": 90810080, "vinc_sus": 0.0, "leitos_total": 0, "qtd_profissionais": 6, "endereco_geocode": "AV DIARIO DE NOTICIAS, 400, CRISTAL, 90810080, Porto Alegre - RS", "co_tipo_estabelecimento": "Ambulatório", "no_razao_social": "CLINICA RIBEIRO MEREGALLI", "staff_acs_endemias": 0, "staff_admin_gestao_apoio": 0, "staff_diag_lab_imagem": 0, "staff_enfermagem": 1, "staff_farmacia": 0, "staff_medicos": 5, "staff_odontologia": 0, "staff_outros": 0, "staff_outros_superior_saude": 0, "staff_servicos_gerais": 0, "staff_transporte_urgencia": 0}}, {"type": "Feature", "geometry": {"type": "Point", "coordinates": [-51.213626861572266, -30.016638571040467]}, "properties": {"co_cnes": 5465575, "no_fantasia": "ELIANA MARIA DULINSKI", "municipio": "Porto Alegre", "tp_unidade": 16.0, "tp_unidade_label": "Ambulatorio", "rua": "AV CRISTOVAO COLOMBO", "numero": 2937, "complemento": 401, "bairro": "FLORESTA", "cep": 90560005, "vinc_sus": 0.0, "leitos_total": 0, "qtd_profissionais": 2, "endereco_geocode": "AV CRISTOVAO COLOMBO, 2937, FLORESTA, 90560005, Porto Alegre - RS", "co_tipo_estabelecimento": "Ambulatório", "no_razao_social": "ELIANA MARIA DULINSKI", "staff_acs_endemias": 0, "staff_admin_gestao_apoio": 0, "staff_diag_lab_imagem": 0, "staff_enfermagem": 0, "staff_farmacia": 0, "staff_medicos": 0, "staff_odontologia": 2, "staff_outros": 0, "staff_outros_superior_saude": 0, "staff_servicos_gerais": 0, "staff_transporte_urgencia": 0}}, {"type": "Feature", "geometry": {"type": "Point", "coordinates": [-51.229591369628906, -30.045470185331165]}, "properties": {"co_cnes": 3881288, "no_fantasia": "GITANIA GOULARTE DE MORAES", "municipio": "Porto Alegre", "tp_unidade": 16.0, "tp_unidade_label": "Ambulatorio", "rua": "AVENIDA IPIRANGA", "numero": 6690, "complemento": 808, "bairro": "PRAIA DE BELAS", "cep": 90160092, "vinc_sus": 0.0, "leitos_total": 0, "qtd_profissionais": 1, "endereco_geocode": "AVENIDA IPIRANGA, 6690, PRAIA DE BELAS, 90160092, Porto Alegre - RS", "co_tipo_estabelecimento": "Ambulatório", "no_razao_social": "GITANIA GOULARTE DE MORAES", "staff_acs_endemias": 0, "staff_admin_gestao_apoio": 0, "staff_diag_lab_imagem": 0, "staff_enfermagem": 0, "staff_farmacia": 0, "staff_medicos": 1, "staff_odontologia": 0, "staff_outros": 0, "staff_outros_superior_saude": 0, "staff_servicos_gerais": 0, "staff_transporte_urgencia": 0}}, {"type": "Feature", "geometry": {"type": "Point", "coordinates": [-51.1601454, -29.9872044]}, "properties": {"co_cnes": 198536, "no_fantasia": "SERSIM SERVICOS TECNICOS", "municipio": "Porto Alegre", "tp_unidade": 16.0, "tp_unidade_label": "Ambulatorio", "rua": "AV SEVERO DULLIUS", "numero": 90010, "complemento": "TERMINAL 1", "bairro": "ANCHIETA", "cep": 90200310, "vinc_sus": 0.0, "leitos_total": 0, "qtd_profissionais": 16, "endereco_geocode": "AV SEVERO DULLIUS, 90010, ANCHIETA, 90200310, Porto Alegre - RS", "co_tipo_estabelecimento": "Ambulatório", "no_razao_social": "SERSIM SERVICOS TECNICOS", "staff_acs_endemias": 0, "staff_admin_gestao_apoio": 0, "staff_diag_lab_imagem": 0, "staff_enfermagem": 6, "staff_farmacia": 0, "staff_medicos": 10, "staff_odontologia": 0, "staff_outros": 0, "staff_outros_superior_saude": 0, "staff_servicos_gerais": 0, "staff_transporte_urgencia": 0}}, {"type": "Feature", "geometry": {"type": "Point", "coordinates": [-51.21953631533098, -30.037558599355062]}, "properties": {"co_cnes": 915742, "no_fantasia": "POLICLINICA MILITAR DE PORTO ALEGRE", "municipio": "Porto Alegre", "tp_unidade": 16.0, "tp_unidade_label": "Ambulatorio", "rua": "JOAO PESSOA", "numero": 651, "complemento": null, "bairro": "CENTRO", "cep": 90040000, "vinc_sus": 0.0, "leitos_total": 0, "qtd_profissionais": 139, "endereco_geocode": "JOAO PESSOA, 651, CENTRO, 90040000, Porto Alegre - RS", "co_tipo_estabelecimento": "Ambulatório", "no_razao_social": "POLICLINICA MILITAR DE PORTO ALEGRE", "staff_acs_endemias": 0, "staff_admin_gestao_apoio": 0, "staff_diag_lab_imagem": 0, "staff_enfermagem": 21, "staff_farmacia": 15, "staff_medicos": 32, "staff_odontologia": 48, "staff_outros": 16, "staff_outros_superior_saude": 7, "staff_servicos_gerais": 0, "staff_transporte_urgencia": 0}}, {"type": "Feature", "geometry": {"type": "Point", "coordinates": [-51.24587058929296, -30.084428310387725]}, "properties": {"co_cnes": 687995, "no_fantasia": "SAO JOAO FARMACIAS", "municipio": "Porto Alegre", "tp_unidade": 9.0, "tp_unidade_label": "Farmacia", "rua": "DIARIO DE NOTICIAS", "numero": 300, "complemento": "LOJA 2058 A", "bairro": "CRISTAL", "cep": 90810080, "vinc_sus": 0.0, "leitos_total": 0, "qtd_profissionais": 1, "endereco_geocode": "DIARIO DE NOTICIAS, 300, CRISTAL, 90810080, Porto Alegre - RS", "co_tipo_estabelecimento": "Farmacia", "no_razao_social": "SAO JOAO FARMACIAS", "staff_acs_endemias": 0, "staff_admin_gestao_apoio": 0, "staff_diag_lab_imagem": 0, "staff_enfermagem": 0, "staff_farmacia": 1, "staff_medicos": 0, "staff_odontologia": 0, "staff_outros": 0, "staff_outros_superior_saude": 0, "staff_servicos_gerais": 0, "staff_transporte_urgencia": 0}}, {"type": "Feature", "geometry": {"type": "Point", "coordinates": [-51.247002945116144, -30.08549091298055]}, "properties": {"co_cnes": 725390, "no_fantasia": "CLARISSA GUIMARAES ALMEIDA", "municipio": "Porto Alegre", "tp_unidade": 16.0, "tp_unidade_label": "Ambulatorio", "rua": "DIARIO DE NOTICIAS", "numero": 400, "complemento": 606, "bairro": "CRISTAL", "cep": 90810080, "vinc_sus": 0.0, "leitos_total": 0, "qtd_profissionais": 1, "endereco_geocode": "DIARIO DE NOTICIAS, 400, CRISTAL, 90810080, Porto Alegre - RS", "co_tipo_estabelecimento": "Ambulatório", "no_razao_social": "CLARISSA GUIMARAES ALMEIDA", "staff_acs_endemias": 0, "staff_admin_gestao_apoio": 0, "staff_diag_lab_imagem": 0, "staff_enfermagem": 0, "staff_farmacia": 0, "staff_medicos": 1, "staff_odontologia": 0, "staff_outros": 0, "staff_outros_superior_saude": 0, "staff_servicos_gerais": 0, "staff_transporte_urgencia": 0}}, {"type": "Feature", "geometry": {"type": "Point", "coordinates": [-51.246970758232536, -30.08545842097673]}, "properties": {"co_cnes": 2865068, "no_fantasia": "LUCIANA LOSS RECK REMONTI", "municipio": "Porto Alegre", "tp_unidade": 16.0, "tp_unidade_label": "Ambulatorio", "rua": "AV DIARIO DE NOTICIAS", "numero": 400, "complemento": 1001, "bairro": "CRISTAL", "cep": 90810080, "vinc_sus": 0.0, "leitos_total": 0, "qtd_profissionais": 1, "endereco_geocode": "AV DIARIO DE NOTICIAS, 400, CRISTAL, 90810080, Porto Alegre - RS", "co_tipo_estabelecimento": "Ambulatório", "no_razao_social": "LUCIANA LOSS RECK REMONTI", "staff_acs_endemias": 0, "staff_admin_gestao_apoio": 0, "staff_diag_lab_imagem": 0, "staff_enfermagem": 0, "staff_farmacia": 0, "staff_medicos": 1, "staff_odontologia": 0, "staff_outros": 0, "staff_outros_superior_saude": 0, "staff_servicos_gerais": 0, "staff_transporte_urgencia": 0}}, {"type": "Feature", "geometry": {"type": "Point", "coordinates": [-51.21172892883565, -30.013905401656583]}, "properties": {"co_cnes": 3483657, "no_fantasia": "NATHALIA TARTA SIELICHOW", "municipio": "Porto Alegre", "tp_unidade": 16.0, "tp_unidade_label": "Ambulatorio", "rua": "RUA ALMIRANTE BARROSO", "numero": 735, "complemento": "S 401", "bairro": "FLORESTA", "cep": 90220021, "vinc_sus": 0.0, "leitos_total": 0, "qtd_profissionais": 1, "endereco_geocode": "RUA ALMIRANTE BARROSO, 735, FLORESTA, 90220021, Porto Alegre - RS", "co_tipo_estabelecimento": "Ambulatório", "no_razao_social": "NATHALIA TARTA SIELICHOW", "staff_acs_endemias": 0, "staff_admin_gestao_apoio": 0, "staff_diag_lab_imagem": 0, "staff_enfermagem": 0, "staff_farmacia": 0, "staff_medicos": 0, "staff_odontologia": 1, "staff_outros": 0, "staff_outros_superior_saude": 0, "staff_servicos_gerais": 0, "staff_transporte_urgencia": 0}}, {"type": "Feature", "geometry": {"type": "Point", "coordinates": [-51.173458099365234, -29.99389432211272]}, "properties": {"co_cnes": 9679804, "no_fantasia": "UNIAIR TAXI AEREO", "municipio": "Porto Alegre", "tp_unidade": 16.0, "tp_unidade_label": "Ambulatorio", "rua": "AVENIDA SERTORIO", "numero": 1988, "complemento": "AEROP SALGADO FILHO", "bairro": "NAVEGANTES", "cep": 91020000, "vinc_sus": 0.0, "leitos_total": 0, "qtd_profissionais": 22, "endereco_geocode": "AVENIDA SERTORIO, 1988, NAVEGANTES, 91020000, Porto Alegre - RS", "co_tipo_estabelecimento": "Ambulatório", "no_razao_social": "UNIAIR TAXI AEREO", "staff_acs_endemias": 0, "staff_admin_gestao_apoio": 0, "staff_diag_lab_imagem": 0, "staff_enfermagem": 0, "staff_farmacia": 0, "staff_medicos": 0, "staff_odontologia": 0, "staff_outros": 22, "staff_outros_superior_saude": 0, "staff_servicos_gerais": 0, "staff_transporte_urgencia": 0}}, {"type": "Feature", "geometry": {"type": "Point", "coordinates": [-51.24847412109375, -30.088107753367257]}, "properties": {"co_cnes": 9790799, "no_fantasia": "CAROLINE FUCHS", "municipio": "Porto Alegre", "tp_unidade": 16.0, "tp_unidade_label": "Ambulatorio", "rua": "AV DIARIO DE NOTICIAS", "numero": 400, "complemento": 1309, "bairro": "CRISTAL", "cep": 90810080, "vinc_sus": 0.0, "leitos_total": 0, "qtd_profissionais": 1, "endereco_geocode": "AV DIARIO DE NOTICIAS, 400, CRISTAL, 90810080, Porto Alegre - RS", "co_tipo_estabelecimento": "Ambulatório", "no_razao_social": "CAROLINE FUCHS", "staff_acs_endemias": 0, "staff_admin_gestao_apoio": 0, "staff_diag_lab_imagem": 0, "staff_enfermagem": 0, "staff_farmacia": 0, "staff_medicos": 0, "staff_odontologia": 1, "staff_outros": 0, "staff_outros_superior_saude": 0, "staff_servicos_gerais": 0, "staff_transporte_urgencia": 0}}, {"type": "Feature", "geometry": {"type": "Point", "coordinates": [-51.22950553894043, -30.045470185331165]}, "properties": {"co_cnes": 6806147, "no_fantasia": "A MEDICINA DIAGNOSTICA HED", "municipio": "Porto Alegre", "tp_unidade": null, "tp_unidade_label": "Outros", "rua": "AV IPIRANGA", "numero": 1801, "complemento": null, "bairro": "PRAIA DE BELAS", "cep": 90160093, "vinc_sus": null, "leitos_total": 0, "qtd_profissionais": 0, "endereco_geocode": "AV IPIRANGA, 1801, PRAIA DE BELAS, 90160093, Porto Alegre - RS", "co_tipo_estabelecimento": "Outros", "no_razao_social": "A MEDICINA DIAGNOSTICA HED", "staff_acs_endemias": 0, "staff_admin_gestao_apoio": 0, "staff_diag_lab_imagem": 0, "staff_enfermagem": 0, "staff_farmacia": 0, "staff_medicos": 0, "staff_odontologia": 0, "staff_outros": 0, "staff_outros_superior_saude": 0, "staff_servicos_gerais": 0, "staff_transporte_urgencia": 0}}, {"type": "Feature", "geometry": {"type": "Point", "coordinates": [-51.23048731534261, -30.04686252854656]}, "properties": {"co_cnes": 3751708, "no_fantasia": "CARE ODONTOLOGIA", "municipio": "Porto Alegre", "tp_unidade": 16.0, "tp_unidade_label": "Ambulatorio", "rua": "AVENIDA IPIRANGA", "numero": 40, "complemento": 601, "bairro": "PRAIA DE BELAS", "cep": 90020020, "vinc_sus": 0.0, "leitos_total": 0, "qtd_profissionais": 2, "endereco_geocode": "AVENIDA IPIRANGA, 40, PRAIA DE BELAS, 90020020, Porto Alegre - RS", "co_tipo_estabelecimento": "Ambulatório", "no_razao_social": "CARE ODONTOLOGIA", "staff_acs_endemias": 0, "staff_admin_gestao_apoio": 0, "staff_diag_lab_imagem": 0, "staff_enfermagem": 0, "staff_farmacia": 0, "staff_medicos": 0, "staff_odontologia": 2, "staff_outros": 0, "staff_outros_superior_saude": 0, "staff_servicos_gerais": 0, "staff_transporte_urgencia": 0}}, {"type": "Feature", "geometry": {"type": "Point", "coordinates": [-51.246971, -30.085505]}, "properties": {"co_cnes": 57568, "no_fantasia": "CLINICA ODONTOLOGICA DRA VANESSA MACHADO EIRELI", "municipio": "Porto Alegre", "tp_unidade": 16.0, "tp_unidade_label": "Ambulatorio", "rua": "AV DIARIO DE NOTICIAS", "numero": 400, "complemento": "SALA 1302", "bairro": "CRISTAL", "cep": 90810080, "vinc_sus": 0.0, "leitos_total": 0, "qtd_profissionais": 1, "endereco_geocode": "AV DIARIO DE NOTICIAS, 400, CRISTAL, 90810080, Porto Alegre - RS", "co_tipo_estabelecimento": "Ambulatório", "no_razao_social": "CLINICA ODONTOLOGICA DRA VANESSA MACHADO EIRELI", "staff_acs_endemias": 0, "staff_admin_gestao_apoio": 0, "staff_diag_lab_imagem": 0, "staff_enfermagem": 0, "staff_farmacia": 0, "staff_medicos": 0, "staff_odontologia": 1, "staff_outros": 0, "staff_outros_superior_saude": 0, "staff_servicos_gerais": 0, "staff_transporte_urgencia": 0}}, {"type": "Feature", "geometry": {"type": "Point", "coordinates": [-51.195945739746094, -29.98110768446724]}, "properties": {"co_cnes": 6976689, "no_fantasia": "SAMU NAVEGANTES", "municipio": "Porto Alegre", "tp_unidade": 8.0, "tp_unidade_label": "Pronto Atendimento", "rua": "RUA FREDERICO MENTZ", "numero": 370, "complemento": null, "bairro": "FARRAPOS", "cep": 90240110, "vinc_sus": 1.0, "leitos_total": 0, "qtd_profissionais": 7, "endereco_geocode": "RUA FREDERICO MENTZ, 370, FARRAPOS, 90240110, Porto Alegre - RS", "co_tipo_estabelecimento": "Pronto Atendimento", "no_razao_social": "SAMU NAVEGANTES", "staff_acs_endemias": 2, "staff_admin_gestao_apoio": 0, "staff_diag_lab_imagem": 0, "staff_enfermagem": 2, "staff_farmacia": 0, "staff_medicos": 0, "staff_odontologia": 0, "staff_outros": 3, "staff_outros_superior_saude": 0, "staff_servicos_gerais": 0, "staff_transporte_urgencia": 0}}, {"type": "Feature", "geometry": {"type": "Point", "coordinates": [-51.20040893554688, -29.993150958034686]}, "properties": {"co_cnes": 2262894, "no_fantasia": "URGECLIN", "municipio": "Porto Alegre", "tp_unidade": 16.0, "tp_unidade_label": "Ambulatorio", "rua": "AV BRASIL", "numero": 888, "complemento": null, "bairro": "NAVEGANTES", "cep": 90230060, "vinc_sus": 1.0, "leitos_total": 0, "qtd_profissionais": 10, "endereco_geocode": "AV BRASIL, 888, NAVEGANTES, 90230060, Porto Alegre - RS", "co_tipo_estabelecimento": "Ambulatório", "no_razao_social": "URGECLIN", "staff_acs_endemias": 0, "staff_admin_gestao_apoio": 2, "staff_diag_lab_imagem": 0, "staff_enfermagem": 0, "staff_farmacia": 0, "staff_medicos": 4, "staff_odontologia": 0, "staff_outros": 3, "staff_outros_superior_saude": 0, "staff_servicos_gerais": 1, "staff_transporte_urgencia": 0}}, {"type": "Feature", "geometry": {"type": "Point", "coordinates": [-51.24702, -30.0856]}, "properties": {"co_cnes": 858161, "no_fantasia": "ADEX SAUDE", "municipio": "Porto Alegre", "tp_unidade": 16.0, "tp_unidade_label": "Ambulatorio", "rua": "DIARIO DE NOTICIAS", "numero": 400, "complemento": "SALA 1507", "bairro": "CRISTAL", "cep": 90810080, "vinc_sus": 0.0, "leitos_total": 0, "qtd_profissionais": 5, "endereco_geocode": "DIARIO DE NOTICIAS, 400, CRISTAL, 90810080, Porto Alegre - RS", "co_tipo_estabelecimento": "Ambulatório", "no_razao_social": "ADEX SAUDE", "staff_acs_endemias": 0, "staff_admin_gestao_apoio": 0, "staff_diag_lab_imagem": 0, "staff_enfermagem": 2, "staff_farmacia": 0, "staff_medicos": 1, "staff_odontologia": 0, "staff_outros": 1, "staff_outros_superior_saude": 1, "staff_servicos_gerais": 0, "staff_transporte_urgencia": 0}}, {"type": "Feature", "geometry": {"type": "Point", "coordinates": [-51.24673816045754, -30.08404539299663]}, "properties": {"co_cnes": 874590, "no_fantasia": "G M TRAVI SERVICOS MEDICOS LTDA", "municipio": "Porto Alegre", "tp_unidade": 16.0, "tp_unidade_label": "Ambulatorio", "rua": "DIARIO DE NOTICIAS", "numero": 200, "complemento": "SALA 1208", "bairro": "CRISTAL", "cep": 90810080, "vinc_sus": 0.0, "leitos_total": 0, "qtd_profissionais": 2, "endereco_geocode": "DIARIO DE NOTICIAS, 200, CRISTAL, 90810080, Porto Alegre - RS", "co_tipo_estabelecimento": "Ambulatório", "no_razao_social": "G M TRAVI SERVICOS MEDICOS LTDA", "staff_acs_endemias": 0, "staff_admin_gestao_apoio": 0, "staff_diag_lab_imagem": 0, "staff_enfermagem": 0, "staff_farmacia": 0, "staff_medicos": 2, "staff_odontologia": 0, "staff_outros": 0, "staff_outros_superior_saude": 0, "staff_servicos_gerais": 0, "staff_transporte_urgencia": 0}}, {"type": "Feature", "geometry": {"type": "Point", "coordinates": [-51.24683, -30.08414]}, "properties": {"co_cnes": 686808, "no_fantasia": "JORGE ILHA GUIMARAES", "municipio": "Porto Alegre", "tp_unidade": 16.0, "tp_unidade_label": "Ambulatorio", "rua": "AV DIARIO DE NOTICIAS", "numero": 200, "complemento": 1112, "bairro": "CRISTAL", "cep": 90810080, "vinc_sus": 0.0, "leitos_total": 0, "qtd_profissionais": 2, "endereco_geocode": "AV DIARIO DE NOTICIAS, 200, CRISTAL, 90810080, Porto Alegre - RS", "co_tipo_estabelecimento": "Ambulatório", "no_razao_social": "JORGE ILHA GUIMARAES", "staff_acs_endemias": 0, "staff_admin_gestao_apoio": 1, "staff_diag_lab_imagem": 0, "staff_enfermagem": 0, "staff_farmacia": 0, "staff_medicos": 1, "staff_odontologia": 0, "staff_outros": 0, "staff_outros_superior_saude": 0, "staff_servicos_gerais": 0, "staff_transporte_urgencia": 0}}, {"type": "Feature", "geometry": {"type": "Point", "coordinates": [-51.23053550720215, -30.04561878017057]}, "properties": {"co_cnes": 9622357, "no_fantasia": "PAULO ROBERTO CRUZ RABELLO", "municipio": "Porto Alegre", "tp_unidade": 16.0, "tp_unidade_label": "Ambulatorio", "rua": "AVENIDA PRAIA DE BELAS", "numero": 2124, "complemento": 705, "bairro": "PRAIA DE BELAS", "cep": 90110000, "vinc_sus": 0.0, "leitos_total": 0, "qtd_profissionais": 1, "endereco_geocode": "AVENIDA PRAIA DE BELAS, 2124, PRAIA DE BELAS, 90110000, Porto Alegre - RS", "co_tipo_estabelecimento": "Ambulatório", "no_razao_social": "PAULO ROBERTO CRUZ RABELLO", "staff_acs_endemias": 0, "staff_admin_gestao_apoio": 0, "staff_diag_lab_imagem": 0, "staff_enfermagem": 0, "staff_farmacia": 0, "staff_medicos": 1, "staff_odontologia": 0, "staff_outros": 0, "staff_outros_superior_saude": 0, "staff_servicos_gerais": 0, "staff_transporte_urgencia": 0}}, {"type": "Feature", "geometry": {"type": "Point", "coordinates": [-51.1965344, -29.977494]}, "properties": {"co_cnes": 3437159, "no_fantasia": "UNIDADE DE SAUDE MARIO QUINTANA", "municipio": "Porto Alegre", "tp_unidade": 1.0, "tp_unidade_label": "Unidade Basica de Saude", "rua": "RUA SEISCENTOS E NOVENTA E OITO", "numero": 106, "complemento": null, "bairro": "FARRAPOS", "cep": 90250000, "vinc_sus": 1.0, "leitos_total": 0, "qtd_profissionais": 17, "endereco_geocode": "RUA SEISCENTOS E NOVENTA E OITO, 106, FARRAPOS, 90250000, Porto Alegre - RS", "co_tipo_estabelecimento": "Unidade Básica de Saúde", "no_razao_social": "UNIDADE DE SAUDE MARIO QUINTANA", "staff_acs_endemias": 3, "staff_admin_gestao_apoio": 1, "staff_diag_lab_imagem": 0, "staff_enfermagem": 8, "staff_farmacia": 0, "staff_medicos": 2, "staff_odontologia": 1, "staff_outros": 2, "staff_outros_superior_saude": 0, "staff_servicos_gerais": 0, "staff_transporte_urgencia": 0}}, {"type": "Feature", "geometry": {"type": "Point", "coordinates": [-51.24700294473949, -30.08557910553045]}, "properties": {"co_cnes": 9896775, "no_fantasia": "DMB SERVICOS MEDICOS", "municipio": "Porto Alegre", "tp_unidade": 16.0, "tp_unidade_label": "Ambulatorio", "rua": "DIARIO DE NOTICIAS", "numero": 400, "complemento": "SALA 1506", "bairro": "CRISTAL", "cep": 90810080, "vinc_sus": 0.0, "leitos_total": 0, "qtd_profissionais": 3, "endereco_geocode": "DIARIO DE NOTICIAS, 400, CRISTAL, 90810080, Porto Alegre - RS", "co_tipo_estabelecimento": "Ambulatório", "no_razao_social": "DMB SERVICOS MEDICOS", "staff_acs_endemias": 0, "staff_admin_gestao_apoio": 0, "staff_diag_lab_imagem": 0, "staff_enfermagem": 0, "staff_farmacia": 0, "staff_medicos": 3, "staff_odontologia": 0, "staff_outros": 0, "staff_outros_superior_saude": 0, "staff_servicos_gerais": 0, "staff_transporte_urgencia": 0}}, {"type": "Feature", "geometry": {"type": "Point", "coordinates": [-51.24501228225604, -30.084409743327235]}, "properties": {"co_cnes": 558664, "no_fantasia": "IMMUNIZE CLINICA DE VACINAS", "municipio": "Porto Alegre", "tp_unidade": 25.0, "tp_unidade_label": "Centro de Imunizacao", "rua": "DIARIO DE NOTICIAS", "numero": 300, "complemento": "LOJA 2135", "bairro": "CRISTAL", "cep": 90810080, "vinc_sus": 0.0, "leitos_total": 0, "qtd_profissionais": 3, "endereco_geocode": "DIARIO DE NOTICIAS, 300, CRISTAL, 90810080, Porto Alegre - RS", "co_tipo_estabelecimento": "Centro de Imunizacao", "no_razao_social": "IMMUNIZE CLINICA DE VACINAS", "staff_acs_endemias": 0, "staff_admin_gestao_apoio": 1, "staff_diag_lab_imagem": 0, "staff_enfermagem": 2, "staff_farmacia": 0, "staff_medicos": 0, "staff_odontologia": 0, "staff_outros": 0, "staff_outros_superior_saude": 0, "staff_servicos_gerais": 0, "staff_transporte_urgencia": 0}}, {"type": "Feature", "geometry": {"type": "Point", "coordinates": [-51.2564082, -30.0218494]}, "properties": {"co_cnes": 2237113, "no_fantasia": "UNIDADE DE SAUDE ILHA DA PINTADA", "municipio": "Porto Alegre", "tp_unidade": 1.0, "tp_unidade_label": "Unidade Basica de Saude", "rua": "AVENIDA PRESIDENTE VARGAS", "numero": 394, "complemento": null, "bairro": "ILHA DA PINTADA", "cep": 90090140, "vinc_sus": 1.0, "leitos_total": 0, "qtd_profissionais": 15, "endereco_geocode": "AVENIDA PRESIDENTE VARGAS, 394, ILHA DA PINTADA, 90090140, Porto Alegre - RS", "co_tipo_estabelecimento": "Unidade Básica de Saúde", "no_razao_social": "UNIDADE DE SAUDE ILHA DA PINTADA", "staff_acs_endemias": 3, "staff_admin_gestao_apoio": 2, "staff_diag_lab_imagem": 0, "staff_enfermagem": 6, "staff_farmacia": 0, "staff_medicos": 1, "staff_odontologia": 1, "staff_outros": 2, "staff_outros_superior_saude": 0, "staff_servicos_gerais": 0, "staff_transporte_urgencia": 0}}, {"type": "Feature", "geometry": {"type": "Point", "coordinates": [-51.22403186458238, -29.99325768027781]}, "properties": {"co_cnes": 2264366, "no_fantasia": "UNIDADE DE SAUDE ILHA DOS MARINHEIROS", "municipio": "Porto Alegre", "tp_unidade": 1.0, "tp_unidade_label": "Unidade Basica de Saude", "rua": "RUA SANTA RITA DE CASSIA", "numero": "S/N", "complemento": null, "bairro": "ILHA DOS MARINHEIROS", "cep": 90090040, "vinc_sus": 1.0, "leitos_total": 0, "qtd_profissionais": 22, "endereco_geocode": "RUA SANTA RITA DE CASSIA, S/N, ILHA DOS MARINHEIROS, 90090040, Porto Alegre - RS", "co_tipo_estabelecimento": "Unidade Básica de Saúde", "no_razao_social": "UNIDADE DE SAUDE ILHA DOS MARINHEIROS", "staff_acs_endemias": 0, "staff_admin_gestao_apoio": 2, "staff_diag_lab_imagem": 0, "staff_enfermagem": 9, "staff_farmacia": 0, "staff_medicos": 5, "staff_odontologia": 2, "staff_outros": 2, "staff_outros_superior_saude": 0, "staff_servicos_gerais": 2, "staff_transporte_urgencia": 0}}, {"type": "Feature", "geometry": {"type": "Point", "coordinates": [-51.213111877441406, -30.01671289010361]}, "properties": {"co_cnes": 6226167, "no_fantasia": "KELLY MARGARIDA ALVES PINHEIRO", "municipio": "Porto Alegre", "tp_unidade": 16.0, "tp_unidade_label": "Ambulatorio", "rua": "RUA CRISTOVAO COLOMBO", "numero": 2162, "complemento": 201, "bairro": "FLORESTA", "cep": 90560002, "vinc_sus": 0.0, "leitos_total": 0, "qtd_profissionais": 1, "endereco_geocode": "RUA CRISTOVAO COLOMBO, 2162, FLORESTA, 90560002, Porto Alegre - RS", "co_tipo_estabelecimento": "Ambulatório", "no_razao_social": "KELLY MARGARIDA ALVES PINHEIRO", "staff_acs_endemias": 0, "staff_admin_gestao_apoio": 0, "staff_diag_lab_imagem": 0, "staff_enfermagem": 0, "staff_farmacia": 0, "staff_medicos": 0, "staff_odontologia": 1, "staff_outros": 0, "staff_outros_superior_saude": 0, "staff_servicos_gerais": 0, "staff_transporte_urgencia": 0}}, {"type": "Feature", "geometry": {"type": "Point", "coordinates": [-51.24702140296522, -30.085399872627576]}, "properties": {"co_cnes": 4458591, "no_fantasia": "MARIA LUISA BOLEK LTDA", "municipio": "Porto Alegre", "tp_unidade": 16.0, "tp_unidade_label": "Ambulatorio", "rua": "AV DIARIO DE NOTICIAS", "numero": 400, "complemento": 810, "bairro": "CRISTAL", "cep": 90810080, "vinc_sus": 0.0, "leitos_total": 0, "qtd_profissionais": 1, "endereco_geocode": "AV DIARIO DE NOTICIAS, 400, CRISTAL, 90810080, Porto Alegre - RS", "co_tipo_estabelecimento": "Ambulatório", "no_razao_social": "MARIA LUISA BOLEK LTDA", "staff_acs_endemias": 0, "staff_admin_gestao_apoio": 0, "staff_diag_lab_imagem": 0, "staff_enfermagem": 0, "staff_farmacia": 0, "staff_medicos": 0, "staff_odontologia": 0, "staff_outros": 1, "staff_outros_superior_saude": 0, "staff_servicos_gerais": 0, "staff_transporte_urgencia": 0}}, {"type": "Feature", "geometry": {"type": "Point", "coordinates": [-51.24734087412944, -30.07905904236029]}, "properties": {"co_cnes": 4525108, "no_fantasia": "CLINICA SINAPTA", "municipio": "Porto Alegre", "tp_unidade": 16.0, "tp_unidade_label": "Ambulatorio", "rua": "PADRE CACIQUE", "numero": 2893, "complemento": "SALA 1804", "bairro": "CRISTAL", "cep": 90810240, "vinc_sus": 0.0, "leitos_total": 0, "qtd_profissionais": 3, "endereco_geocode": "PADRE CACIQUE, 2893, CRISTAL, 90810240, Porto Alegre - RS", "co_tipo_estabelecimento": "Ambulatório", "no_razao_social": "CLINICA SINAPTA", "staff_acs_endemias": 0, "staff_admin_gestao_apoio": 0, "staff_diag_lab_imagem": 0, "staff_enfermagem": 0, "staff_farmacia": 0, "staff_medicos": 3, "staff_odontologia": 0, "staff_outros": 0, "staff_outros_superior_saude": 0, "staff_servicos_gerais": 0, "staff_transporte_urgencia": 0}}, {"type": "Feature", "geometry": {"type": "Point", "coordinates": [-51.24705, -30.08543]}, "properties": {"co_cnes": 4586654, "no_fantasia": "MARIA LUIZA CONCEICAO SANCHOTENE", "municipio": "Porto Alegre", "tp_unidade": 16.0, "tp_unidade_label": "Ambulatorio", "rua": "AV DIARIO DE NOTICIAS", "numero": 400, "complemento": 1410, "bairro": "CRISTAL", "cep": 90810080, "vinc_sus": 0.0, "leitos_total": 0, "qtd_profissionais": 1, "endereco_geocode": "AV DIARIO DE NOTICIAS, 400, CRISTAL, 90810080, Porto Alegre - RS", "co_tipo_estabelecimento": "Ambulatório", "no_razao_social": "MARIA LUIZA CONCEICAO SANCHOTENE", "staff_acs_endemias": 0, "staff_admin_gestao_apoio": 0, "staff_diag_lab_imagem": 0, "staff_enfermagem": 0, "staff_farmacia": 0, "staff_medicos": 1, "staff_odontologia": 0, "staff_outros": 0, "staff_outros_superior_saude": 0, "staff_servicos_gerais": 0, "staff_transporte_urgencia": 0}}, {"type": "Feature", "geometry": {"type": "Point", "coordinates": [-51.24705, -30.08543]}, "properties": {"co_cnes": 4586719, "no_fantasia": "HIGEIA SERVICOS MEDICOS", "municipio": "Porto Alegre", "tp_unidade": 16.0, "tp_unidade_label": "Ambulatorio", "rua": "DIARIO DE NOTICIAS", "numero": 400, "complemento": "SALA 1410", "bairro": "CRISTAL", "cep": 90810080, "vinc_sus": 0.0, "leitos_total": 0, "qtd_profissionais": 1, "endereco_geocode": "DIARIO DE NOTICIAS, 400, CRISTAL, 90810080, Porto Alegre - RS", "co_tipo_estabelecimento": "Ambulatório", "no_razao_social": "HIGEIA SERVICOS MEDICOS", "staff_acs_endemias": 0, "staff_admin_gestao_apoio": 0, "staff_diag_lab_imagem": 0, "staff_enfermagem": 0, "staff_farmacia": 0, "staff_medicos": 1, "staff_odontologia": 0, "staff_outros": 0, "staff_outros_superior_saude": 0, "staff_servicos_gerais": 0, "staff_transporte_urgencia": 0}}, {"type": "Feature", "geometry": {"type": "Point", "coordinates": [-51.24657144527573, -30.0840836532046]}, "properties": {"co_cnes": 4206592, "no_fantasia": "APPIA PSICOLOGIA", "municipio": "Porto Alegre", "tp_unidade": 16.0, "tp_unidade_label": "Ambulatorio", "rua": "DIARIO DE NOTICIAS", "numero": 200, "complemento": "SALA 606 EDIF CTW", "bairro": "CRISTAL", "cep": 90810080, "vinc_sus": 0.0, "leitos_total": 0, "qtd_profissionais": 1, "endereco_geocode": "DIARIO DE NOTICIAS, 200, CRISTAL, 90810080, Porto Alegre - RS", "co_tipo_estabelecimento": "Ambulatório", "no_razao_social": "APPIA PSICOLOGIA", "staff_acs_endemias": 0, "staff_admin_gestao_apoio": 0, "staff_diag_lab_imagem": 0, "staff_enfermagem": 0, "staff_farmacia": 0, "staff_medicos": 0, "staff_odontologia": 0, "staff_outros": 1, "staff_outros_superior_saude": 0, "staff_servicos_gerais": 0, "staff_transporte_urgencia": 0}}, {"type": "Feature", "geometry": {"type": "Point", "coordinates": [-51.1804672894577, -29.974255304214328]}, "properties": {"co_cnes": 4246128, "no_fantasia": "SOLUCOES EM ACO USIMINAS S A", "municipio": "Porto Alegre", "tp_unidade": 16.0, "tp_unidade_label": "Ambulatorio", "rua": "DOS ESTADOS", "numero": 2350, "complemento": "LETRA A", "bairro": "SAO JOAO", "cep": 90200001, "vinc_sus": 0.0, "leitos_total": 0, "qtd_profissionais": 2, "endereco_geocode": "DOS ESTADOS, 2350, SAO JOAO, 90200001, Porto Alegre - RS", "co_tipo_estabelecimento": "Ambulatório", "no_razao_social": "SOLUCOES EM ACO USIMINAS S A", "staff_acs_endemias": 0, "staff_admin_gestao_apoio": 0, "staff_diag_lab_imagem": 0, "staff_enfermagem": 1, "staff_farmacia": 0, "staff_medicos": 1, "staff_odontologia": 0, "staff_outros": 0, "staff_outros_superior_saude": 0, "staff_servicos_gerais": 0, "staff_transporte_urgencia": 0}}, {"type": "Feature", "geometry": {"type": "Point", "coordinates": [-51.24661436063689, -30.084092936765927]}, "properties": {"co_cnes": 4513827, "no_fantasia": "MARCELA BASSO DIA", "municipio": "Porto Alegre", "tp_unidade": 16.0, "tp_unidade_label": "Ambulatorio", "rua": "AV DIARIO DE NOTICIAS", "numero": 200, "complemento": "503 504", "bairro": "CRISTAL", "cep": 90810080, "vinc_sus": 0.0, "leitos_total": 0, "qtd_profissionais": 1, "endereco_geocode": "AV DIARIO DE NOTICIAS, 200, CRISTAL, 90810080, Porto Alegre - RS", "co_tipo_estabelecimento": "Ambulatório", "no_razao_social": "MARCELA BASSO DIA", "staff_acs_endemias": 0, "staff_admin_gestao_apoio": 0, "staff_diag_lab_imagem": 0, "staff_enfermagem": 0, "staff_farmacia": 0, "staff_medicos": 0, "staff_odontologia": 1, "staff_outros": 0, "staff_outros_superior_saude": 0, "staff_servicos_gerais": 0, "staff_transporte_urgencia": 0}}, {"type": "Feature", "geometry": {"type": "Point", "coordinates": [-51.24701, -30.08541]}, "properties": {"co_cnes": 4432037, "no_fantasia": "LETICIA BARCELLOS DE MENDONCA", "municipio": "Porto Alegre", "tp_unidade": 16.0, "tp_unidade_label": "Ambulatorio", "rua": "AV DIARIODE NOTICIAS", "numero": 400, "complemento": 901, "bairro": "CRISTAL", "cep": 90810080, "vinc_sus": 0.0, "leitos_total": 0, "qtd_profissionais": 1, "endereco_geocode": "AV DIARIODE NOTICIAS, 400, CRISTAL, 90810080, Porto Alegre - RS", "co_tipo_estabelecimento": "Ambulatório", "no_razao_social": "LETICIA BARCELLOS DE MENDONCA", "staff_acs_endemias": 0, "staff_admin_gestao_apoio": 0, "staff_diag_lab_imagem": 0, "staff_enfermagem": 0, "staff_farmacia": 0, "staff_medicos": 1, "staff_odontologia": 0, "staff_outros": 0, "staff_outros_superior_saude": 0, "staff_servicos_gerais": 0, "staff_transporte_urgencia": 0}}, {"type": "Feature", "geometry": {"type": "Point", "coordinates": [-51.24659, -30.08417]}, "properties": {"co_cnes": 4473426, "no_fantasia": "MADRIL HARMONIZACAO E ODONTOLOGIA INTEGRADA", "municipio": "Porto Alegre", "tp_unidade": 16.0, "tp_unidade_label": "Ambulatorio", "rua": "DIARIO DE NOTICIAS", "numero": 200, "complemento": "SALA 1006", "bairro": "CRISTAL", "cep": 90810080, "vinc_sus": 0.0, "leitos_total": 0, "qtd_profissionais": 7, "endereco_geocode": "DIARIO DE NOTICIAS, 200, CRISTAL, 90810080, Porto Alegre - RS", "co_tipo_estabelecimento": "Ambulatório", "no_razao_social": "MADRIL HARMONIZACAO E ODONTOLOGIA INTEGRADA", "staff_acs_endemias": 0, "staff_admin_gestao_apoio": 0, "staff_diag_lab_imagem": 0, "staff_enfermagem": 0, "staff_farmacia": 0, "staff_medicos": 0, "staff_odontologia": 7, "staff_outros": 0, "staff_outros_superior_saude": 0, "staff_servicos_gerais": 0, "staff_transporte_urgencia": 0}}, {"type": "Feature", "geometry": {"type": "Point", "coordinates": [-51.2465929029653, -30.08407436964208]}, "properties": {"co_cnes": 4513959, "no_fantasia": "VILSON DIAS GERING", "municipio": "Porto Alegre", "tp_unidade": 16.0, "tp_unidade_label": "Ambulatorio", "rua": "AVENIDA AZENHA", "numero": 767, "complemento": null, "bairro": "AZENHA", "cep": 90160002, "vinc_sus": 0.0, "leitos_total": 0, "qtd_profissionais": 3, "endereco_geocode": "AVENIDA AZENHA, 767, AZENHA, 90160002, Porto Alegre - RS", "co_tipo_estabelecimento": "Ambulatório", "no_razao_social": "VILSON DIAS GERING", "staff_acs_endemias": 0, "staff_admin_gestao_apoio": 0, "staff_diag_lab_imagem": 0, "staff_enfermagem": 0, "staff_farmacia": 0, "staff_medicos": 0, "staff_odontologia": 2, "staff_outros": 1, "staff_outros_superior_saude": 0, "staff_servicos_gerais": 0, "staff_transporte_urgencia": 0}}, {"type": "Feature", "geometry": {"type": "Point", "coordinates": [-51.246549987773, -30.08411150388644]}, "properties": {"co_cnes": 4404378, "no_fantasia": "JONAS PEREIRA ANDRADE", "municipio": "Porto Alegre", "tp_unidade": 16.0, "tp_unidade_label": "Ambulatorio", "rua": "AV DIARIO DE NOTICIAS", "numero": 200, "complemento": 502, "bairro": "CRISTAL", "cep": 90810080, "vinc_sus": 0.0, "leitos_total": 0, "qtd_profissionais": 1, "endereco_geocode": "AV DIARIO DE NOTICIAS, 200, CRISTAL, 90810080, Porto Alegre - RS", "co_tipo_estabelecimento": "Ambulatório", "no_razao_social": "JONAS PEREIRA ANDRADE", "staff_acs_endemias": 0, "staff_admin_gestao_apoio": 0, "staff_diag_lab_imagem": 0, "staff_enfermagem": 0, "staff_farmacia": 0, "staff_medicos": 0, "staff_odontologia": 1, "staff_outros": 0, "staff_outros_superior_saude": 0, "staff_servicos_gerais": 0, "staff_transporte_urgencia": 0}}, {"type": "Feature", "geometry": {"type": "Point", "coordinates": [-51.230560747689374, -30.04599534527268]}, "properties": {"co_cnes": 4454480, "no_fantasia": "LIVEMED", "municipio": "Porto Alegre", "tp_unidade": 16.0, "tp_unidade_label": "Ambulatorio", "rua": "DOLORES ALCARAZ CALDAS", "numero": 90, "complemento": "SALA 801", "bairro": "PRAIA DE BELAS", "cep": 90110180, "vinc_sus": 0.0, "leitos_total": 0, "qtd_profissionais": 2, "endereco_geocode": "DOLORES ALCARAZ CALDAS, 90, PRAIA DE BELAS, 90110180, Porto Alegre - RS", "co_tipo_estabelecimento": "Ambulatório", "no_razao_social": "LIVEMED", "staff_acs_endemias": 0, "staff_admin_gestao_apoio": 1, "staff_diag_lab_imagem": 0, "staff_enfermagem": 0, "staff_farmacia": 0, "staff_medicos": 1, "staff_odontologia": 0, "staff_outros": 0, "staff_outros_superior_saude": 0, "staff_servicos_gerais": 0, "staff_transporte_urgencia": 0}}, {"type": "Feature", "geometry": {"type": "Point", "coordinates": [-51.24664, -30.08419]}, "properties": {"co_cnes": 4215222, "no_fantasia": "GABRIEL DIAS DE CASTRO", "municipio": "Porto Alegre", "tp_unidade": 16.0, "tp_unidade_label": "Ambulatorio", "rua": "AV DIARIO DE NOTICIAS", "numero": 200, "complemento": 406, "bairro": "CRISTAL", "cep": 90810080, "vinc_sus": 0.0, "leitos_total": 0, "qtd_profissionais": 1, "endereco_geocode": "AV DIARIO DE NOTICIAS, 200, CRISTAL, 90810080, Porto Alegre - RS", "co_tipo_estabelecimento": "Ambulatório", "no_razao_social": "GABRIEL DIAS DE CASTRO", "staff_acs_endemias": 0, "staff_admin_gestao_apoio": 0, "staff_diag_lab_imagem": 0, "staff_enfermagem": 0, "staff_farmacia": 0, "staff_medicos": 0, "staff_odontologia": 1, "staff_outros": 0, "staff_outros_superior_saude": 0, "staff_servicos_gerais": 0, "staff_transporte_urgencia": 0}}, {"type": "Feature", "geometry": {"type": "Point", "coordinates": [-51.2476248, -30.0806659]}, "properties": {"co_cnes": 4521218, "no_fantasia": "DAY HOSPITAL MOINHOS DE VENTO PONTAL C CIRURG AMBUL", "municipio": "Porto Alegre", "tp_unidade": 6.0, "tp_unidade_label": "Hospital", "rua": "PADRE CACIQUE", "numero": 2893, "complemento": "BLOCO HUB 5", "bairro": "CRISTAL", "cep": 90810240, "vinc_sus": 0.0, "leitos_total": 0, "qtd_profissionais": 22, "endereco_geocode": "PADRE CACIQUE, 2893, CRISTAL, 90810240, Porto Alegre - RS", "co_tipo_estabelecimento": "Hospital", "no_razao_social": "DAY HOSPITAL MOINHOS DE VENTO PONTAL C CIRURG AMBUL", "staff_acs_endemias": 0, "staff_admin_gestao_apoio": 8, "staff_diag_lab_imagem": 0, "staff_enfermagem": 9, "staff_farmacia": 1, "staff_medicos": 2, "staff_odontologia": 0, "staff_outros": 2, "staff_outros_superior_saude": 0, "staff_servicos_gerais": 0, "staff_transporte_urgencia": 0}}]}